{"type": "FeatureCollection", "features": [{"type": "Feature", "geometry": {"type": "LineString", "coordinates": [[2.1735386, 41.3699786], [2.1734443, 41.3694992], [2.1733975, 41.3692099], [2.1733722, 41.3689616]]}, "properties": {"bicycle": "no", "foot": "no", "highway": "trunk_link", "layer": "-1", "oneway": "yes", "ref": "B-10", "tunnel": "yes", "length": 113.84925894568765}}, {"type": "Feature", "geometry": {"type": "LineString", "coordinates": [[2.1735958, 41.3683852], [2.1736112, 41.3684476], [2.1736189, 41.3685054], [2.1736087, 41.3686751], [2.1735775, 41.3688461], [2.1735462, 41.3689833]]}, "properties": {"bicycle": "no", "foot": "no", "highway": "trunk_link", "layer": "-1", "maxspeed": "60", "oneway": "yes", "ref": "B-10", "tunnel": "yes", "length": 66.99785413802324}}, {"type": "Feature", "geometry": {"type": "LineString", "coordinates": [[2.173627, 41.3691105], [2.1736383, 41.3689773], [2.1736805, 41.3688098], [2.1737195, 41.3686271], [2.1737179, 41.3685195]]}, "properties": {"bicycle": "no", "foot": "no", "highway": "trunk_link", "lanes": "1", "layer": "-1", "oneway": "yes", "ref": "B-10", "tunnel": "yes", "length": 66.26075905036025}}, {"type": "Feature", "geometry": {"type": "LineString", "coordinates": [[2.1771924, 41.3738981], [2.177212, 41.3740102], [2.1772634, 41.3740908], [2.1781484, 41.3753892], [2.1782344, 41.3755073], [2.1783025, 41.3756555], [2.1783762, 41.3759327], [2.1784623, 41.3760654], [2.1785188, 41.3761461]]}, "properties": {"bicycle": "no", "foot": "no", "highway": "trunk", "horse": "no", "lanes": "2", "layer": "-1", "lit": "yes", "maxheight": "4.5", "maxspeed": "60", "motorroad": "yes", "name": "Ronda Litoral", "name:ca": "Ronda Litoral", "oneway": "yes", "ref": "B-10", "surface": "asphalt", "tunnel": "yes", "wikidata": "Q2714667", "wikipedia": "ca:Ronda del Litoral", "length": 274.8964523699452}}, {"type": "Feature", "geometry": {"type": "LineString", "coordinates": [[2.1823264, 41.3805692], [2.1824418, 41.3806376], [2.182558, 41.3807092], [2.1827808, 41.3808255], [2.1830073, 41.3809175], [2.1831348, 41.3809483], [2.1835157, 41.3810147], [2.1839241, 41.3811209], [2.1852293, 41.3816727], [2.1853185, 41.3817102], [2.1858029, 41.3819332], [2.1872136, 41.3825824]]}, "properties": {"bicycle": "no", "foot": "no", "highway": "trunk", "horse": "no", "lanes": "2", "layer": "-1", "lit": "yes", "maxheight": "4.5", "maxspeed": "60", "motorroad": "yes", "name": "Ronda Litoral", "name:ca": "Ronda Litoral", "name:etymology:wikidata": "Q2714667", "oneway": "yes", "ref": "B-10", "surface": "asphalt", "tunnel": "yes", "wikidata": "Q2714667", "wikipedia": "ca:Ronda del Litoral", "length": 468.60980807239036}}, {"type": "Feature", "geometry": {"type": "LineString", "coordinates": [[2.1938829, 41.386009], [2.1951093, 41.3869248], [2.2007906, 41.3911672]]}, "properties": {"bicycle": "no", "foot": "no", "highway": "trunk", "horse": "no", "lanes": "2", "layer": "-1", "lit": "yes", "maxheight": "4.5", "maxspeed": "80", "motorroad": "yes", "name": "Ronda Litoral", "name:ca": "Ronda Litoral", "oneway": "yes", "ref": "B-10", "tunnel": "yes", "wikidata": "Q2714667", "wikipedia": "ca:Ronda del Litoral", "length": 813.6262492821726}}, {"type": "Feature", "geometry": {"type": "LineString", "coordinates": [[2.2060087, 41.3950879], [2.2068907, 41.3958279], [2.207839, 41.396673], [2.2083054, 41.3972738], [2.2086018, 41.3977684], [2.2089167, 41.3982907], [2.2093008, 41.3989507]]}, "properties": {"bicycle": "no", "foot": "no", "highway": "trunk", "horse": "no", "lanes": "2", "layer": "-1", "lit": "yes", "maxheight": "4.5", "maxspeed": "80", "motorroad": "yes", "name": "Ronda Litoral", "name:ca": "Ronda Litoral", "oneway": "yes", "ref": "B-10", "surface": "asphalt", "tunnel": "yes", "wikidata": "Q2714667", "wikipedia": "ca:Ronda del Litoral", "length": 514.5981660176087}}, {"type": "Feature", "geometry": {"type": "LineString", "coordinates": [[2.2212035, 41.4089866], [2.2218017, 41.4102884], [2.2221235, 41.4110974], [2.2222767, 41.4114722], [2.2224581, 41.4117658], [2.2228584, 41.4124036]]}, "properties": {"bicycle": "no", "foot": "no", "highway": "trunk", "horse": "no", "lanes": "2", "layer": "-1", "lit": "yes", "maxspeed": "80", "motorroad": "yes", "name": "Ronda Litoral", "name:ca": "Ronda Litoral", "oneway": "yes", "ref": "B-10", "surface": "asphalt", "tunnel": "yes", "wikidata": "Q2714667", "wikipedia": "ca:Ronda del Litoral", "length": 404.6372233445585}}, {"type": "Feature", "geometry": {"type": "LineString", "coordinates": [[2.2093584, 41.4358683], [2.2084932, 41.43918]]}, "properties": {"bicycle": "no", "foot": "no", "highway": "trunk", "horse": "no", "lanes": "3", "layer": "-1", "lit": "yes", "maxspeed": "80", "motorroad": "yes", "name": "Ronda Litoral", "name:ca": "Ronda Litoral", "oneway": "yes", "ref": "B-10", "surface": "asphalt", "tunnel": "yes", "wikidata": "Q2714667", "wikipedia": "ca:Ronda del Litoral", "length": 374.84595251533955}}, {"type": "Feature", "geometry": {"type": "LineString", "coordinates": [[2.2031154, 41.4470379], [2.2024773, 41.4476454], [2.2017611, 41.448244]]}, "properties": {"bicycle": "no", "foot": "no", "highway": "trunk", "horse": "no", "lanes": "3", "layer": "-1", "lit": "yes", "maxspeed": "80", "motorroad": "yes", "name": "Ronda Litoral", "name:ca": "Ronda Litoral", "oneway": "yes", "ref": "B-10", "surface": "asphalt", "tunnel": "yes", "wikidata": "Q2714667", "wikipedia": "ca:Ronda del Litoral", "length": 175.44895288875358}}, {"type": "Feature", "geometry": {"type": "LineString", "coordinates": [[2.1872737, 41.3827255], [2.1856883, 41.3820176], [2.1852304, 41.3818132], [2.1849058, 41.3816884], [2.1846196, 41.3815733], [2.1843614, 41.3814519], [2.1843023, 41.3814026], [2.1842167, 41.3813068], [2.1841241, 41.3812615], [2.1838991, 41.3811782], [2.1836793, 41.3811193], [2.1834646, 41.3810765], [2.1831402, 41.3810187], [2.1829471, 41.3809664], [2.1827715, 41.3809027], [2.1824989, 41.3807726], [2.1822476, 41.3806418], [2.1820855, 41.3805193], [2.181925, 41.3803601], [2.1814103, 41.3797108], [2.1792744, 41.3770965], [2.1790248, 41.3767821], [2.1788118, 41.376518], [2.1785826, 41.3763122], [2.1784247, 41.376156], [2.17838, 41.376078], [2.1783211, 41.3759377], [2.1782591, 41.3757154], [2.1781667, 41.3755189], [2.1778402, 41.375017], [2.1773281, 41.3743289], [2.1771958, 41.3741118], [2.1771527, 41.3740043], [2.1771374, 41.3738999]]}, "properties": {"bicycle": "no", "foot": "no", "highway": "trunk", "horse": "no", "lanes": "2", "layer": "-1", "lit": "yes", "maxheight": "4.5", "maxspeed": "60", "motorroad": "yes", "name": "Ronda Litoral", "name:ca": "Ronda Litoral", "name:etymology:wikidata": "Q2714667", "oneway": "yes", "ref": "B-10", "surface": "asphalt", "tunnel": "yes", "wikidata": "Q2714667", "wikipedia": "ca:Ronda del Litoral", "length": 1351.6454370590084}}, {"type": "Feature", "geometry": {"type": "LineString", "coordinates": [[2.2006634, 41.3912602], [2.1950038, 41.3870061], [2.194794, 41.3868484], [2.1937788, 41.3860879]]}, "properties": {"bicycle": "no", "foot": "no", "highway": "trunk", "horse": "no", "lanes": "2", "layer": "-1", "lit": "yes", "maxheight": "4.5", "maxspeed": "80", "motorroad": "yes", "name": "Ronda Litoral", "name:ca": "Ronda Litoral", "oneway": "yes", "ref": "B-10", "tunnel": "yes", "wikidata": "Q2714667", "wikipedia": "ca:Ronda del Litoral", "length": 813.3602825135222}}, {"type": "Feature", "geometry": {"type": "LineString", "coordinates": [[2.2091764, 41.3990171], [2.20892, 41.3986864], [2.2085033, 41.3978622], [2.2077237, 41.3968334], [2.2072923, 41.3963422], [2.2067442, 41.3958612], [2.2059075, 41.3951556]]}, "properties": {"bicycle": "no", "foot": "no", "highway": "trunk", "horse": "no", "lanes": "2", "layer": "-1", "lit": "yes", "maxheight": "4.5", "maxspeed": "80", "motorroad": "yes", "name": "Ronda Litoral", "name:ca": "Ronda Litoral", "oneway": "yes", "ref": "B-10", "surface": "asphalt", "tunnel": "yes", "wikidata": "Q2714667", "wikipedia": "ca:Ronda del Litoral", "length": 512.8796812284263}}, {"type": "Feature", "geometry": {"type": "LineString", "coordinates": [[2.2226947, 41.4123411], [2.2221366, 41.4114928], [2.2219746, 41.4111375], [2.2218201, 41.4107899], [2.2209846, 41.4088821]]}, "properties": {"bicycle": "no", "foot": "no", "highway": "trunk", "horse": "no", "lanes": "2", "layer": "-1", "lit": "yes", "maxspeed": "80", "motorroad": "yes", "name": "Ronda Litoral", "name:ca": "Ronda Litoral", "oneway": "yes", "ref": "B-10", "surface": "asphalt", "tunnel": "yes", "wikidata": "Q2714667", "wikipedia": "ca:Ronda del Litoral", "length": 410.66811121080406}}, {"type": "Feature", "geometry": {"type": "LineString", "coordinates": [[2.2016294, 41.4481709], [2.2023487, 41.4475677], [2.2029839, 41.4469642]]}, "properties": {"bicycle": "no", "foot": "no", "highway": "trunk", "horse": "no", "lanes": "3", "layer": "-1", "lit": "yes", "maxspeed": "80", "motorroad": "yes", "name": "Ronda Litoral", "name:ca": "Ronda Litoral", "oneway": "yes", "ref": "B-10", "surface": "asphalt", "tunnel": "yes", "wikidata": "Q2714667", "wikipedia": "ca:Ronda del Litoral", "length": 175.503415088441}}, {"type": "Feature", "geometry": {"type": "LineString", "coordinates": [[2.2083362, 41.4391558], [2.2092112, 41.4357575]]}, "properties": {"bicycle": "no", "foot": "no", "highway": "trunk", "horse": "no", "lanes": "3", "layer": "-1", "lit": "yes", "maxspeed": "80", "motorroad": "yes", "name": "Ronda Litoral", "name:ca": "Ronda Litoral", "oneway": "yes", "ref": "B-10", "surface": "asphalt", "tunnel": "yes", "wikidata": "Q2714667", "wikipedia": "ca:Ronda del Litoral", "length": 384.44274881679434}}, {"type": "Feature", "geometry": {"type": "LineString", "coordinates": [[2.2905946, 41.4791996], [2.2903698, 41.4792697], [2.2900363, 41.4793165], [2.2895396, 41.479313]]}, "properties": {"highway": "motorway_link", "lanes": "2", "layer": "-1", "lit": "yes", "maxspeed": "80", "noname": "yes", "oneway": "yes", "surface": "paved", "tunnel": "yes", "length": 90.14930272615183}}, {"type": "Feature", "geometry": {"type": "LineString", "coordinates": [[2.1276173, 41.3891561], [2.1275631, 41.3889863], [2.127511, 41.3888187], [2.1272427, 41.3879251], [2.1272225, 41.3878353], [2.1272052, 41.3877492]]}, "properties": {"bicycle": "no", "foot": "no", "hazmat": "no", "highway": "primary", "horse": "no", "lanes": "3", "layer": "-1", "lit": "24/7", "maxheight": "4", "maxspeed": "60", "name": "Ronda del Mig", "name:ca": "Ronda del Mig", "oneway": "yes", "surface": "asphalt", "tunnel": "yes", "length": 160.0491427944477}}, {"type": "Feature", "geometry": {"type": "LineString", "coordinates": [[2.150241, 41.4074856], [2.1500041, 41.4072667], [2.1493904, 41.4066994], [2.149193, 41.4065127], [2.1487935, 41.406262], [2.1483686, 41.4060452]]}, "properties": {"bicycle": "no", "foot": "no", "highway": "primary", "horse": "no", "lanes": "2", "layer": "-1", "lit": "yes", "maxheight": "4", "maxspeed": "50", "name": "Pla\u00e7a de Lesseps", "name:ca": "Pla\u00e7a de Lesseps", "oneway": "yes", "surface": "asphalt", "tunnel": "yes", "length": 225.5263838941034}}, {"type": "Feature", "geometry": {"type": "LineString", "coordinates": [[2.1773281, 41.3743289], [2.1771049, 41.3740375], [2.1770453, 41.3739871], [2.1769545, 41.3739682], [2.1768681, 41.37396], [2.176782, 41.3739668], [2.1767009, 41.3739916], [2.1766309, 41.3740449], [2.1765178, 41.3741304], [2.1764199, 41.3741751]]}, "properties": {"bicycle": "no", "destination": "Paral\u00b7lel;Port Vell;Ciutat Vella", "destination:symbol:to": "harbour", "destination:to": "Estaci\u00f3 mar\u00edtima Balears", "foot": "no", "highway": "trunk_link", "lanes": "1", "layer": "-1", "lit": "yes", "maxheight": "4.5", "oneway": "yes", "ref": "21", "surface": "asphalt", "tunnel": "yes", "length": 105.89940804524001}}, {"type": "Feature", "geometry": {"type": "LineString", "coordinates": [[2.0651173, 41.4762437], [2.0648469, 41.4746569], [2.0647611, 41.4741232], [2.0646752, 41.4734544], [2.0646231, 41.4729229]]}, "properties": {"highway": "motorway", "int_ref": "E 09", "lanes": "2", "layer": "-1", "lit": "yes", "maxspeed": "110", "maxweight": "20", "oneway": "yes", "ref": "C-16", "tunnel": "yes", "tunnel:name": "T\u00fanel de Can Revella", "length": 371.19734948046664}}, {"type": "Feature", "geometry": {"type": "LineString", "coordinates": [[2.0647795, 41.4729115], [2.0647984, 41.4730674], [2.0649697, 41.4744815], [2.065265, 41.4762208]]}, "properties": {"highway": "motorway", "int_ref": "E 09", "lanes": "2", "layer": "-1", "lit": "yes", "maxspeed": "110", "oneway": "yes", "ref": "C-16", "tunnel": "yes", "tunnel:name": "T\u00fanel de Can Revella", "length": 369.83176794372434}}, {"type": "Feature", "geometry": {"type": "LineString", "coordinates": [[2.0637698, 41.4648934], [2.063849, 41.4646315], [2.063935, 41.4644315], [2.0640669, 41.4641642], [2.0642253, 41.463877], [2.0644494, 41.4634916], [2.0644703, 41.4634548], [2.0646729, 41.4630565], [2.065319, 41.4618132], [2.0655128, 41.4613807], [2.0656623, 41.4610221], [2.065785, 41.4607453], [2.0660541, 41.4601382], [2.0660762, 41.4600665], [2.0661328, 41.4598308], [2.0661773, 41.4596456], [2.0664313, 41.4587885], [2.0665071, 41.4584938], [2.0665487, 41.4583228], [2.0666932, 41.4577161]]}, "properties": {"highway": "motorway", "int_ref": "E 09", "lanes": "2", "layer": "-1", "lit": "yes", "maxspeed": "110", "maxweight": "20", "name": "T\u00fanel de Valldoreix", "name:ca": "T\u00fanel de Valldoreix", "oneway": "yes", "ref": "C-16", "tunnel": "yes", "length": 836.3800896153252}}, {"type": "Feature", "geometry": {"type": "LineString", "coordinates": [[2.0668222, 41.4577272], [2.0665263, 41.4588474], [2.0662142, 41.460139], [2.0659378, 41.46077], [2.0654466, 41.4618915], [2.0647601, 41.4632016], [2.0645894, 41.4635275], [2.0642343, 41.4641501], [2.0641282, 41.4643619], [2.064002, 41.4646327], [2.0639297, 41.4648364], [2.0639183, 41.4649121], [2.0639146, 41.4649217]]}, "properties": {"highway": "motorway", "int_ref": "E 09", "lanes": "2", "layer": "-1", "lit": "yes", "maxspeed": "110", "name": "T\u00fanel de Valldoreix", "name:ca": "T\u00fanel de Valldoreix", "oneway": "yes", "ref": "C-16", "tunnel": "yes", "length": 838.1152320843653}}, {"type": "Feature", "geometry": {"type": "LineString", "coordinates": [[2.0684599, 41.4534787], [2.0687522, 41.4529685], [2.0688515, 41.4527648], [2.0690526, 41.452338], [2.0692672, 41.4518748], [2.0694217, 41.4512444], [2.069456, 41.4508455], [2.069526, 41.4502363]]}, "properties": {"highway": "motorway", "int_ref": "E 09", "lanes": "2", "layer": "-1", "lit": "yes", "maxspeed": "110", "maxweight": "20", "name": "T\u00fanel de Can Llobet", "name:ca": "T\u00fanel de Can Llobet", "oneway": "yes", "ref": "C-16", "tunnel": "yes", "length": 374.0734574545771}}, {"type": "Feature", "geometry": {"type": "LineString", "coordinates": [[2.0696669, 41.4502341], [2.0696474, 41.4510689], [2.069347, 41.452259], [2.0690245, 41.4527985], [2.0689179, 41.4529988], [2.0685882, 41.4535304]]}, "properties": {"highway": "motorway", "int_ref": "E 09", "lanes": "2", "layer": "-1", "lit": "yes", "maxspeed": "110", "name": "T\u00fanel de Can Llobet", "name:ca": "T\u00fanel de Can Llobet", "oneway": "yes", "ref": "C-16", "tunnel": "yes", "length": 382.0808266649953}}, {"type": "Feature", "geometry": {"type": "LineString", "coordinates": [[2.0705991, 41.4416018], [2.0698443, 41.4434223], [2.0697875, 41.4435592], [2.0693568, 41.4452605]]}, "properties": {"highway": "motorway", "int_ref": "E 09", "lanes": "2", "layer": "-1", "lit": "yes", "maxspeed": "80", "name": "T\u00fanel de la Floresta", "name:ca": "T\u00fanel de la Floresta", "oneway": "yes", "ref": "C-16", "tunnel": "yes", "length": 420.0766814791314}}, {"type": "Feature", "geometry": {"type": "LineString", "coordinates": [[2.069111, 41.4452524], [2.0692843, 41.444457], [2.0695815, 41.4433787], [2.0699634, 41.442448], [2.0702714, 41.4417419], [2.070421, 41.4413816]]}, "properties": {"highway": "motorway", "int_ref": "E 09", "lanes": "2", "layer": "-1", "lit": "yes", "maxspeed": "110", "maxweight": "20", "name": "T\u00fanel de la Floresta", "name:ca": "T\u00fanel de la Floresta", "oneway": "yes", "ref": "C-16", "tunnel": "yes", "length": 444.4668353365211}}, {"type": "Feature", "geometry": {"type": "LineString", "coordinates": [[2.2220283, 41.4624764], [2.2216013, 41.4625819], [2.2207087, 41.4627878], [2.2198933, 41.4628264], [2.2190178, 41.4627685], [2.2185845, 41.4627027], [2.2183827, 41.462672], [2.217739, 41.4625176], [2.2173122, 41.4624037]]}, "properties": {"alt_name": "t\u00fanel de Can Butiny\u00e0", "highway": "motorway", "lanes": "3", "layer": "-1", "lit": "yes", "maxspeed": "80", "name": "T\u00fanel de la Pallaresa", "name:ca": "T\u00fanel de la Pallaresa", "name:etymology:wikidata": "Q9088837", "name:wikipedia": "ca:Torre Pallaresa", "old_ref": "B-20", "oneway": "yes", "ref": "B-20", "surface": "paved", "tunnel": "yes", "length": 405.63859337752973}}, {"type": "Feature", "geometry": {"type": "LineString", "coordinates": [[2.2095116, 41.4582578], [2.209231, 41.4580651], [2.2043286, 41.4546986], [2.2036171, 41.4542237]]}, "properties": {"highway": "trunk", "lanes": "3", "layer": "-1", "lit": "yes", "maxspeed": "80", "name": "Ronda de Dalt - Pota Nord", "name:etymology:wikidata": "Q924181", "name:wikipedia": "ca:Ronda de Dalt", "old_ref": "B-20", "oneway": "yes", "ref": "B-20", "surface": "paved", "tunnel": "yes", "tunnel:name": "T\u00fanel de Santa Coloma", "length": 665.8101661156874}}, {"type": "Feature", "geometry": {"type": "LineString", "coordinates": [[2.20373, 41.4541273], [2.2093579, 41.4579786], [2.2096329, 41.4581668]]}, "properties": {"highway": "trunk", "lanes": "3", "layer": "-1", "lit": "yes", "maxspeed": "80", "name": "Ronda de Dalt - Pota Nord", "name:etymology:wikidata": "Q924181", "name:wikipedia": "ca:Ronda de Dalt", "old_ref": "B-20", "oneway": "yes", "ref": "B-20", "surface": "paved", "tunnel": "yes", "tunnel:name": "T\u00fanel de Santa Coloma", "length": 666.7263861618957}}, {"type": "Feature", "geometry": {"type": "LineString", "coordinates": [[2.2175255, 41.4620519], [2.2184599, 41.462151], [2.2187683, 41.4621731], [2.2190047, 41.4621901], [2.2195929, 41.4621767], [2.2202707, 41.4621338], [2.2204773, 41.4621045]]}, "properties": {"alt_name": "t\u00fanel de Can Butiny\u00e0", "highway": "motorway", "lanes": "3", "layer": "-1", "lit": "yes", "maxspeed": "80", "name": "T\u00fanel de la Pallaresa", "name:etymology:wikidata": "Q9088837", "name:wikipedia": "ca:Torre Pallaresa", "old_ref": "B-20", "oneway": "yes", "ref": "B-20", "surface": "paved", "tunnel": "yes", "length": 248.1129333168162}}, {"type": "Feature", "geometry": {"type": "LineString", "coordinates": [[2.2785672, 41.4714897], [2.2782441, 41.4713878], [2.2778418, 41.471293], [2.2775391, 41.4712339], [2.2771326, 41.4711811], [2.2766308, 41.4711298], [2.2762866, 41.4711096], [2.2758138, 41.4711034], [2.2753431, 41.4711065], [2.2748205, 41.4711547], [2.27427, 41.4712153], [2.2735981, 41.4713023], [2.2729719, 41.4714111], [2.2724535, 41.4715136], [2.2716074, 41.4717187], [2.2711803, 41.4718399], [2.2703674, 41.4720885], [2.2688941, 41.4726473], [2.2679242, 41.4730203]]}, "properties": {"highway": "motorway", "lanes": "3", "layer": "-1", "lit": "yes", "maxspeed": "80", "old_ref": "B-20", "oneway": "yes", "ref": "B-20", "surface": "paved", "tunnel": "yes", "length": 935.411370839483}}, {"type": "Feature", "geometry": {"type": "LineString", "coordinates": [[2.267804, 41.4728917], [2.2696494, 41.4721714], [2.2711322, 41.4716724], [2.2726318, 41.4713396], [2.2742181, 41.4710972], [2.2753193, 41.4709791], [2.2759165, 41.4709574], [2.2764432, 41.4709776], [2.2769388, 41.4710164], [2.2776417, 41.4711158], [2.2785527, 41.4713487]]}, "properties": {"highway": "motorway", "lanes": "3", "layer": "-1", "lit": "yes", "maxheight": "default", "maxspeed": "80", "old_ref": "B-20", "oneway": "yes", "ref": "B-20", "surface": "paved", "tunnel": "yes", "length": 943.8447980542144}}, {"type": "Feature", "geometry": {"type": "LineString", "coordinates": [[2.2832343, 41.4749193], [2.2822396, 41.4731239]]}, "properties": {"highway": "motorway", "lanes": "3", "layer": "-1", "maxspeed": "100", "name": "Autopista del Maresme", "name:ca": "Autopista del Maresme", "oneway": "yes", "ref": "C-31", "surface": "paved", "tunnel": "yes", "length": 216.02046001638215}}, {"type": "Feature", "geometry": {"type": "LineString", "coordinates": [[2.0961969, 41.3770264], [2.095775, 41.3765625]]}, "properties": {"bicycle": "no", "foot": "no", "highway": "trunk", "horse": "no", "lanes": "3", "layer": "-1", "lit": "yes", "maxspeed": "80", "motorroad": "yes", "name": "Ronda de Dalt", "name:ca": "Ronda de Dalt", "old_ref": "B-20", "oneway": "yes", "ref": "C-32", "source": "PNOA; datos oficiales", "tunnel": "yes", "wikidata": "Q924181", "wikipedia": "ca:Ronda de Dalt", "length": 62.45069881920743}}, {"type": "Feature", "geometry": {"type": "LineString", "coordinates": [[2.095924, 41.3765267], [2.0961617, 41.3767292], [2.0963567, 41.3769401]]}, "properties": {"bicycle": "no", "foot": "no", "highway": "trunk_link", "lanes": "3", "layer": "-1", "lit": "24/7", "maxspeed": "80", "name": "Ronda de Dalt", "name:ca": "Ronda de Dalt", "oneway": "yes", "ref": "11", "tunnel": "yes", "length": 58.56334288763553}}, {"type": "Feature", "geometry": {"type": "LineString", "coordinates": [[2.1001829, 41.3807201], [2.1003161, 41.3806749], [2.1004764, 41.3806049], [2.1006076, 41.3805382], [2.1007515, 41.380468]]}, "properties": {"bicycle": "no", "foot": "no", "highway": "trunk_link", "lanes": "1", "layer": "-1", "lit": "yes", "maxspeed": "80", "oneway": "yes", "tunnel": "yes", "length": 55.30281199788546}}, {"type": "Feature", "geometry": {"type": "LineString", "coordinates": [[2.2041802, 41.4163832], [2.2040841, 41.4163458], [2.2036139, 41.4161801], [2.2033409, 41.4159715]]}, "properties": {"bicycle": "no", "destination": "Bac de Roda;Poblenou", "foot": "no", "highway": "trunk_link", "junction:ref": "207", "lanes": "1", "layer": "-1", "maxspeed": "50", "oneway": "yes", "tunnel": "yes", "length": 84.97107052059575}}, {"type": "Feature", "geometry": {"type": "LineString", "coordinates": [[2.1799919, 41.4462146], [2.179769, 41.4461784], [2.1793445, 41.4460938]]}, "properties": {"bicycle": "no", "foot": "no", "highway": "trunk", "horse": "no", "lanes": "3", "layer": "-1", "lit": "yes", "maxspeed": "80", "motorroad": "yes", "name": "Ronda de Dalt", "name:ca": "Ronda de Dalt", "old_ref": "B-20", "oneway": "yes", "ref": "B-20", "tunnel": "yes", "wikidata": "Q924181", "wikipedia": "ca:Ronda de Dalt", "length": 55.75238404058483}}, {"type": "Feature", "geometry": {"type": "LineString", "coordinates": [[2.1764166, 41.445213], [2.1770074, 41.4453699], [2.178211, 41.4456941], [2.1792604, 41.4459469]]}, "properties": {"bicycle": "no", "foot": "no", "highway": "trunk", "horse": "no", "lanes": "3", "layer": "-1", "lit": "yes", "maxspeed": "60", "motorroad": "yes", "name": "Ronda de Dalt", "name:ca": "Ronda de Dalt", "old_ref": "B-20", "oneway": "yes", "ref": "B-20", "tunnel": "yes", "wikidata": "Q924181", "wikipedia": "ca:Ronda de Dalt", "length": 251.26571539382246}}, {"type": "Feature", "geometry": {"type": "LineString", "coordinates": [[2.1977748, 41.4461548], [2.1978452, 41.4464287], [2.1979125, 41.446773], [2.1979277, 41.4472387], [2.1979116, 41.4475537], [2.1979176, 41.4476594], [2.1979512, 41.4477655], [2.1979921, 41.4478486], [2.1980476, 41.4479385], [2.1981338, 41.4480306], [2.1982214, 41.4480984], [2.1983349, 41.4481704], [2.1985238, 41.4482437]]}, "properties": {"bicycle": "no", "foot": "no", "highway": "trunk_link", "lanes": "2", "layer": "-1", "maxspeed": "60", "oneway": "yes", "surface": "paved", "tunnel": "yes", "length": 254.2747813372945}}, {"type": "Feature", "geometry": {"type": "LineString", "coordinates": [[2.1695259, 41.4427159], [2.1676992, 41.4420622]]}, "properties": {"bicycle": "no", "foot": "no", "highway": "trunk", "horse": "no", "lanes": "3", "layer": "-1", "lit": "yes", "maxspeed": "80", "motorroad": "yes", "name": "Ronda de Dalt", "name:ca": "Ronda de Dalt", "old_ref": "B-20", "oneway": "yes", "ref": "B-20", "tunnel": "yes", "wikidata": "Q924181", "wikipedia": "ca:Ronda de Dalt", "length": 169.0423295555284}}, {"type": "Feature", "geometry": {"type": "LineString", "coordinates": [[2.1677746, 41.4419424], [2.1695694, 41.4426187]]}, "properties": {"bicycle": "no", "foot": "no", "highway": "trunk", "horse": "no", "lanes": "3", "layer": "-1", "lit": "yes", "maxspeed": "60", "motorroad": "yes", "name": "Ronda de Dalt", "name:ca": "Ronda de Dalt", "old_ref": "B-20", "oneway": "yes", "ref": "B-20", "tunnel": "yes", "wikidata": "Q924181", "wikipedia": "ca:Ronda de Dalt", "length": 167.7477777196407}}, {"type": "Feature", "geometry": {"type": "LineString", "coordinates": [[2.1631496, 41.4402656], [2.1634862, 41.4403539], [2.1644827, 41.4406581], [2.1655059, 41.441035], [2.1677074, 41.4419155], [2.1677746, 41.4419424]]}, "properties": {"bicycle": "no", "foot": "no", "highway": "trunk", "horse": "no", "lanes": "3", "layer": "-1", "lit": "yes", "maxspeed": "60", "motorroad": "yes", "name": "Ronda de Dalt", "name:ca": "Ronda de Dalt", "old_ref": "B-20", "oneway": "yes", "ref": "B-20", "tunnel": "yes", "wikidata": "Q924181", "wikipedia": "ca:Ronda de Dalt", "length": 429.58766412929316}}, {"type": "Feature", "geometry": {"type": "LineString", "coordinates": [[2.1744853, 41.4446162], [2.1727047, 41.4439356], [2.1717091, 41.4435689], [2.1697309, 41.4427956], [2.1696609, 41.4427683], [2.1695528, 41.442726], [2.1695259, 41.4427159]]}, "properties": {"bicycle": "no", "foot": "no", "highway": "trunk", "horse": "no", "lanes": "3", "layer": "-1", "lit": "yes", "maxspeed": "80", "motorroad": "yes", "name": "Ronda de Dalt", "name:ca": "Ronda de Dalt", "old_ref": "B-20", "oneway": "yes", "ref": "B-20", "tunnel": "yes", "wikidata": "Q924181", "wikipedia": "ca:Ronda de Dalt", "length": 465.111281295449}}, {"type": "Feature", "geometry": {"type": "LineString", "coordinates": [[2.1695694, 41.4426187], [2.1696466, 41.4426467], [2.1698028, 41.4427057], [2.1717988, 41.4434594], [2.1727713, 41.4438271], [2.1742546, 41.4443915], [2.1748762, 41.4446508]]}, "properties": {"bicycle": "no", "foot": "no", "highway": "trunk", "horse": "no", "lanes": "3", "layer": "-1", "lit": "yes", "maxspeed": "60", "motorroad": "yes", "name": "Ronda de Dalt", "name:ca": "Ronda de Dalt", "old_ref": "B-20", "oneway": "yes", "ref": "B-20", "tunnel": "yes", "wikidata": "Q924181", "wikipedia": "ca:Ronda de Dalt", "length": 497.6500077242766}}, {"type": "Feature", "geometry": {"type": "LineString", "coordinates": [[2.1937846, 41.4499906], [2.1937214, 41.4498601], [2.1936692, 41.4497262], [2.1936377, 41.4495878], [2.1936151, 41.4494543], [2.1935976, 41.4493247], [2.1935947, 41.4491797], [2.1936159, 41.4490217]]}, "properties": {"bicycle": "no", "foot": "no", "highway": "trunk", "horse": "no", "lanes": "4", "layer": "-1", "lit": "yes", "maxspeed": "60", "motorroad": "yes", "name": "Ronda de Dalt \u2013 Nus de la Trinitat", "name:ca": "Ronda de Dalt \u2013 Nus de la Trinitat", "old_ref": "B-20", "oneway": "yes", "ref": "B-20", "tunnel": "yes", "length": 109.67581756610699}}, {"type": "Feature", "geometry": {"type": "LineString", "coordinates": [[2.1158511, 41.4027798], [2.1160974, 41.4030108], [2.1165578, 41.4034425], [2.1173855, 41.4042167], [2.1176971, 41.4044978]]}, "properties": {"bicycle": "no", "foot": "no", "highway": "trunk", "horse": "no", "lanes": "3", "layer": "-1", "lit": "yes", "maxspeed": "80", "motorroad": "yes", "name": "Ronda de Dalt", "name:ca": "Ronda de Dalt", "old_ref": "B-20", "oneway": "yes", "ref": "B-20", "tunnel": "yes", "wikidata": "Q924181", "wikipedia": "ca:Ronda de Dalt", "length": 245.43159787452612}}, {"type": "Feature", "geometry": {"type": "LineString", "coordinates": [[2.1181483, 41.4042383], [2.1174612, 41.4049456]]}, "properties": {"bicycle": "no", "change:lanes:backward": "not_left|yes", "change:lanes:forward": "not_left|yes", "foot": "no", "highway": "trunk", "int_ref": "E 09", "lanes": "4", "lanes:backward": "2", "lanes:forward": "2", "layer": "-2", "lit": "yes", "maxspeed": "70", "oneway": "no", "overtaking": "yes", "ref": "C-16", "toll": "yes", "tunnel": "yes", "width": "12", "length": 97.32279608439234}}, {"type": "Feature", "geometry": {"type": "LineString", "coordinates": [[2.1300726, 41.4131556], [2.1308906, 41.4136978], [2.131102, 41.4138379], [2.1314625, 41.4140233], [2.1316792, 41.4141436], [2.1318771, 41.4142276]]}, "properties": {"access": "yes", "bicycle": "no", "foot": "no", "highway": "trunk", "horse": "no", "lanes": "3", "layer": "-1", "lit": "yes", "maxspeed": "80", "motorroad": "yes", "name": "Ronda de Dalt", "name:ca": "Ronda de Dalt", "old_ref": "B-20", "oneway": "yes", "ref": "B-20", "surface": "asphalt", "tunnel": "yes", "wikidata": "Q924181", "wikipedia": "ca:Ronda de Dalt", "length": 192.67912421424842}}, {"type": "Feature", "geometry": {"type": "LineString", "coordinates": [[2.1676992, 41.4420622], [2.1653853, 41.441192], [2.164381, 41.4408287], [2.1635743, 41.4405255], [2.1634625, 41.4404835], [2.1630942, 41.4403632]]}, "properties": {"bicycle": "no", "foot": "no", "highway": "trunk", "horse": "no", "lanes": "3", "layer": "-1", "lit": "yes", "maxspeed": "80", "motorroad": "yes", "name": "Ronda de Dalt", "name:ca": "Ronda de Dalt", "old_ref": "B-20", "oneway": "yes", "ref": "B-20", "tunnel": "yes", "wikidata": "Q924181", "wikipedia": "ca:Ronda de Dalt", "length": 428.66537272073856}}, {"type": "Feature", "geometry": {"type": "LineString", "coordinates": [[2.1318133, 41.4143432], [2.1315799, 41.4142559], [2.1313811, 41.4141574], [2.1312065, 41.4140539], [2.1310009, 41.4139253], [2.1307997, 41.4137862], [2.1299707, 41.413241]]}, "properties": {"bicycle": "no", "foot": "no", "highway": "trunk", "horse": "no", "lanes": "3", "layer": "-1", "lit": "yes", "maxspeed": "80", "motorroad": "yes", "name": "Ronda de Dalt", "name:ca": "Ronda de Dalt", "old_ref": "B-20", "oneway": "yes", "ref": "B-20", "tunnel": "yes", "wikidata": "Q924181", "wikipedia": "ca:Ronda de Dalt", "length": 197.4904529640603}}, {"type": "Feature", "geometry": {"type": "LineString", "coordinates": [[2.113324, 41.3995182], [2.113257, 41.3990612]]}, "properties": {"bicycle": "no", "foot": "no", "highway": "trunk", "horse": "no", "lanes": "3", "layer": "-1", "lit": "yes", "maxspeed": "80", "motorroad": "yes", "name": "Ronda de Dalt", "name:ca": "Ronda de Dalt", "old_ref": "B-20", "oneway": "yes", "ref": "B-20", "tunnel": "yes", "wikidata": "Q924181", "wikipedia": "ca:Ronda de Dalt", "length": 51.063484412941754}}, {"type": "Feature", "geometry": {"type": "LineString", "coordinates": [[2.1096471, 41.3933889], [2.1101205, 41.3944006], [2.1105675, 41.3951467], [2.1107722, 41.3954546], [2.1115093, 41.3961958], [2.1119919, 41.3966629], [2.1127376, 41.3975965], [2.1130746, 41.3980445], [2.1132344, 41.3983029], [2.1133416, 41.3987223], [2.1134757, 41.399511]]}, "properties": {"bicycle": "no", "foot": "no", "highway": "trunk", "horse": "no", "lanes": "3", "layer": "-1", "lit": "yes", "maxspeed": "80", "motorroad": "yes", "name": "Ronda de Dalt", "name:ca": "Ronda de Dalt", "old_ref": "B-20", "oneway": "yes", "ref": "B-20", "tunnel": "yes", "wikidata": "Q924181", "wikipedia": "ca:Ronda de Dalt", "length": 762.4267709307794}}, {"type": "Feature", "geometry": {"type": "LineString", "coordinates": [[2.1071906, 41.3889103], [2.1068714, 41.3882534], [2.1059391, 41.3869691]]}, "properties": {"bicycle": "no", "foot": "no", "highway": "trunk", "horse": "no", "lanes": "3", "layer": "-1", "lit": "yes", "maxspeed": "80", "motorroad": "yes", "name": "Ronda de Dalt", "name:ca": "Ronda de Dalt", "old_ref": "B-20", "oneway": "yes", "ref": "B-20", "tunnel": "yes", "wikidata": "Q924181", "wikipedia": "ca:Ronda de Dalt", "length": 240.24730831748604}}, {"type": "Feature", "geometry": {"type": "LineString", "coordinates": [[2.095924, 41.3765267], [2.096308, 41.3769681]]}, "properties": {"bicycle": "no", "foot": "no", "highway": "trunk", "horse": "no", "lanes": "2", "layer": "-1", "lit": "yes", "maxlength": "12", "maxspeed": "80", "maxweight": "20", "motorroad": "yes", "name": "Ronda de Dalt", "name:ca": "Ronda de Dalt", "old_ref": "B-20", "oneway": "yes", "ref": "C-32", "source": "PNOA;datos oficiales", "tunnel": "yes", "wikidata": "Q924181", "wikipedia": "ca:Ronda de Dalt", "length": 58.60972455302535}}, {"type": "Feature", "geometry": {"type": "LineString", "coordinates": [[2.0942433, 41.3738481], [2.0940212, 41.3731539], [2.0937299, 41.3722774]]}, "properties": {"bicycle": "no", "foot": "no", "highway": "trunk", "horse": "no", "lanes": "3", "layer": "-1", "lit": "yes", "maxspeed": "80", "motorroad": "yes", "name": "Ronda de Dalt", "name:ca": "Ronda de Dalt", "old_ref": "B-20", "oneway": "yes", "ref": "B-20", "source": "PNOA;datos oficiales", "tunnel": "yes", "wikidata": "Q924181", "wikipedia": "ca:Ronda de Dalt", "length": 179.65515714876955}}, {"type": "Feature", "geometry": {"type": "LineString", "coordinates": [[2.0938869, 41.3722409], [2.0941746, 41.3731411], [2.0943907, 41.3738173]]}, "properties": {"bicycle": "no", "foot": "no", "highway": "trunk", "horse": "no", "lanes": "3", "layer": "-1", "lit": "yes", "maxspeed": "80", "motorroad": "yes", "name": "Ronda de Dalt", "name:ca": "Ronda de Dalt", "old_ref": "B-20", "oneway": "yes", "ref": "B-20", "source": "PNOA;datos oficiales", "tunnel": "yes", "wikidata": "Q924181", "wikipedia": "ca:Ronda de Dalt", "length": 180.07852956272478}}, {"type": "Feature", "geometry": {"type": "LineString", "coordinates": [[2.094124, 41.3738983], [2.0940212, 41.3731539]]}, "properties": {"bicycle": "no", "foot": "no", "highway": "trunk_link", "layer": "-1", "lit": "24/7", "oneway": "yes", "tunnel": "yes", "length": 83.12001344406949}}, {"type": "Feature", "geometry": {"type": "LineString", "coordinates": [[2.0901919, 41.3665759], [2.0898756, 41.3655356], [2.0896748, 41.3648805], [2.0894131, 41.3640605]]}, "properties": {"bicycle": "no", "foot": "no", "highway": "trunk", "horse": "no", "lanes": "3", "layer": "-1", "lit": "yes", "maxspeed": "80", "motorroad": "yes", "name": "Ronda de Dalt", "name:ca": "Ronda de Dalt", "old_ref": "B-20", "oneway": "yes", "ref": "B-20", "source": "PNOA;datos oficiales", "tunnel": "yes", "wikidata": "Q924181", "wikipedia": "ca:Ronda de Dalt", "length": 286.86487173065774}}, {"type": "Feature", "geometry": {"type": "LineString", "coordinates": [[2.0895718, 41.3639788], [2.0898111, 41.3647273], [2.0900487, 41.3655117], [2.0903379, 41.3664673]]}, "properties": {"bicycle": "no", "foot": "no", "highway": "trunk", "horse": "no", "lanes": "3", "layer": "-1", "lit": "yes", "maxspeed": "80", "motorroad": "yes", "name": "Ronda de Dalt", "name:ca": "Ronda de Dalt", "old_ref": "B-20", "oneway": "yes", "ref": "B-20", "source": "PNOA;datos oficiales", "surface": "asphalt", "tunnel": "yes", "wikidata": "Q924181", "wikipedia": "ca:Ronda de Dalt", "length": 283.7153851542476}}, {"type": "Feature", "geometry": {"type": "LineString", "coordinates": [[2.2067442, 41.3958612], [2.2056935, 41.3952109]]}, "properties": {"bicycle": "no", "destination": "Poblenou", "foot": "no", "highway": "trunk_link", "lanes": "1", "layer": "-1", "maxheight": "default", "oneway": "yes", "tunnel": "yes", "length": 113.74265743848271}}, {"type": "Feature", "geometry": {"type": "LineString", "coordinates": [[2.0739533, 41.4801952], [2.070703, 41.4801151], [2.0704339, 41.4801155]]}, "properties": {"foot": "no", "highway": "secondary", "lanes": "2", "layer": "-1", "lit": "yes", "maxspeed": "50", "name": "Ronda Nord", "name:ca": "Ronda Nord", "oneway": "yes", "ref": "BP-1503", "tunnel": "yes", "length": 294.0918894696428}}, {"type": "Feature", "geometry": {"type": "LineString", "coordinates": [[2.0704927, 41.4800438], [2.0740223, 41.4801024]]}, "properties": {"foot": "no", "highway": "secondary", "lanes": "2", "layer": "-1", "lit": "yes", "maxspeed": "50", "name": "Ronda Nord", "name:ca": "Ronda Nord", "oneway": "yes", "ref": "BP-1503", "tunnel": "yes", "length": 294.87023231464303}}, {"type": "Feature", "geometry": {"type": "LineString", "coordinates": [[2.1191627, 41.3522232], [2.1196585, 41.3526365]]}, "properties": {"highway": "motorway", "lanes": "4", "layer": "-2", "maxheight": "default", "maxspeed": "80", "name": "Autovia de Castelldefels", "name:ca": "Autovia de Castelldefels", "oneway": "yes", "ref": "C-31", "tunnel": "yes", "length": 61.87456051809097}}, {"type": "Feature", "geometry": {"type": "LineString", "coordinates": [[2.1215208, 41.3540426], [2.1222421, 41.3545924]]}, "properties": {"highway": "motorway", "lanes": "3", "layer": "-2", "maxheight": "4.5", "maxspeed": "80", "name": "Autovia de Castelldefels", "name:ca": "Autovia de Castelldefels", "oneway": "yes", "ref": "C-31", "tunnel": "yes", "length": 85.8595848788703}}, {"type": "Feature", "geometry": {"type": "LineString", "coordinates": [[2.123107, 41.3552011], [2.1255475, 41.3570479], [2.1258603, 41.3572743]]}, "properties": {"highway": "motorway", "lanes": "3", "layer": "-3", "maxheight": "default", "maxspeed": "80", "name": "Autovia de Castelldefels", "name:ca": "Autovia de Castelldefels", "oneway": "yes", "ref": "C-31", "tunnel": "yes", "length": 325.7359659292365}}, {"type": "Feature", "geometry": {"type": "LineString", "coordinates": [[2.1323587, 41.3622396], [2.1335987, 41.363255]]}, "properties": {"bicycle": "no", "foot": "no", "highway": "trunk", "lanes": "4", "layer": "-1", "lit": "yes", "maxspeed": "50", "name": "Avinguda de la Granvia de l'Hospitalet", "name:ca": "Avinguda de la Granvia de l'Hospitalet", "oneway": "yes", "ref": "C-31", "tunnel": "yes", "length": 153.23889156004157}}, {"type": "Feature", "geometry": {"type": "LineString", "coordinates": [[2.1315593, 41.3727029], [2.1313205, 41.3733037], [2.1312919, 41.3733757], [2.1310688, 41.3739369], [2.1308322, 41.3745321], [2.1303782, 41.3759728], [2.1300415, 41.3769253], [2.1294395, 41.3786279], [2.129155, 41.3794877], [2.129028, 41.3798716]]}, "properties": {"bicycle": "no", "foot": "no", "hazmat": "no", "highway": "primary", "horse": "no", "layer": "-1", "maxheight": "4", "maxspeed": "60", "name": "Ronda del Mig", "name:ca": "Ronda del Mig", "oneway": "yes", "surface": "asphalt", "tunnel": "yes", "length": 824.0223576104399}}, {"type": "Feature", "geometry": {"type": "LineString", "coordinates": [[2.1522989, 41.4376062], [2.1521041, 41.4381366]]}, "properties": {"access": "yes", "bicycle": "yes", "cycleway": "no", "foot": "no", "highway": "tertiary_link", "horse": "no", "lanes": "1", "layer": "-1", "maxheight": "default", "maxspeed": "30", "name": "Avinguda de l'Estatut de Catalunya", "name:ca": "Avinguda de l'Estatut de Catalunya", "oneway": "yes", "surface": "asphalt", "tunnel": "yes", "length": 61.11587021830736}}, {"type": "Feature", "geometry": {"type": "LineString", "coordinates": [[2.1614137, 41.439853], [2.1616971, 41.439914]]}, "properties": {"bicycle": "no", "foot": "no", "highway": "trunk", "horse": "no", "lanes": "3", "layer": "-1", "lit": "yes", "maxspeed": "60", "motorroad": "yes", "name": "Ronda de Dalt", "name:ca": "Ronda de Dalt", "old_ref": "B-20", "oneway": "yes", "ref": "B-20", "tunnel": "yes", "wikidata": "Q924181", "wikipedia": "ca:Ronda de Dalt", "length": 24.63457489163693}}, {"type": "Feature", "geometry": {"type": "LineString", "coordinates": [[2.1616547, 41.4400214], [2.1613791, 41.4399682]]}, "properties": {"bicycle": "no", "foot": "no", "highway": "trunk", "horse": "no", "lanes": "3", "layer": "-1", "lit": "yes", "maxheight": "default", "maxspeed": "80", "motorroad": "yes", "name": "Ronda de Dalt", "name:ca": "Ronda de Dalt", "old_ref": "B-20", "oneway": "yes", "ref": "B-20", "tunnel": "yes", "wikidata": "Q924181", "wikipedia": "ca:Ronda de Dalt", "length": 23.778545755179156}}, {"type": "Feature", "geometry": {"type": "LineString", "coordinates": [[2.1792604, 41.4459469], [2.1798478, 41.4460728], [2.1800238, 41.4461033]]}, "properties": {"bicycle": "no", "foot": "no", "highway": "trunk", "horse": "no", "lanes": "3", "layer": "-1", "lit": "yes", "maxspeed": "60", "motorroad": "yes", "name": "Ronda de Dalt", "name:ca": "Ronda de Dalt", "old_ref": "B-20", "oneway": "yes", "ref": "B-20", "tunnel": "yes", "wikidata": "Q924181", "wikipedia": "ca:Ronda de Dalt", "length": 66.13164891147167}}, {"type": "Feature", "geometry": {"type": "LineString", "coordinates": [[2.1793445, 41.4460938], [2.1781427, 41.4458247], [2.1769197, 41.4454779], [2.1763661, 41.445303]]}, "properties": {"bicycle": "no", "foot": "no", "highway": "trunk", "horse": "no", "lanes": "3", "layer": "-1", "lit": "yes", "maxspeed": "80", "motorroad": "yes", "name": "Ronda de Dalt", "name:ca": "Ronda de Dalt", "old_ref": "B-20", "oneway": "yes", "ref": "B-20", "tunnel": "yes", "wikidata": "Q924181", "wikipedia": "ca:Ronda de Dalt", "length": 264.1748346519597}}, {"type": "Feature", "geometry": {"type": "LineString", "coordinates": [[2.185627, 41.446854], [2.1848503, 41.4467521], [2.184562, 41.4467192], [2.1826565, 41.4465463], [2.1820448, 41.4464952]]}, "properties": {"access": "yes", "bicycle": "no", "foot": "no", "highway": "trunk", "horse": "no", "lanes": "3", "layer": "-1", "lit": "yes", "maxheight": "4.5", "maxspeed": "80", "motorroad": "yes", "name": "Ronda de Dalt", "name:ca": "Ronda de Dalt", "old_ref": "B-20", "oneway": "yes", "ref": "B-20", "surface": "asphalt", "tunnel": "yes", "wikidata": "Q924181", "wikipedia": "ca:Ronda de Dalt", "length": 302.06788199471765}}, {"type": "Feature", "geometry": {"type": "LineString", "coordinates": [[2.1820721, 41.4463847], [2.1826774, 41.4464391], [2.184615, 41.4466219], [2.1850208, 41.4466696], [2.1856506, 41.446752]]}, "properties": {"access": "yes", "bicycle": "no", "foot": "no", "highway": "trunk", "horse": "no", "lanes": "3", "layer": "-1", "lit": "yes", "maxheight": "4.5", "maxspeed": "60", "motorroad": "yes", "name": "Ronda de Dalt", "name:ca": "Ronda de Dalt", "old_ref": "B-20", "oneway": "yes", "ref": "B-20", "surface": "asphalt", "tunnel": "yes", "wikidata": "Q924181", "wikipedia": "ca:Ronda de Dalt", "length": 301.8650518027554}}, {"type": "Feature", "geometry": {"type": "LineString", "coordinates": [[2.1421801, 41.4246616], [2.1421259, 41.4245709], [2.1417943, 41.4240065], [2.1414319, 41.4232529]]}, "properties": {"bicycle": "no", "foot": "no", "highway": "trunk", "horse": "no", "lanes": "3", "layer": "-1", "lit": "yes", "maxheight": "4.5", "maxspeed": "80", "motorroad": "yes", "name": "Ronda de Dalt", "name:ca": "Ronda de Dalt", "old_ref": "B-20", "oneway": "yes", "ref": "B-20", "tunnel": "yes", "wikidata": "Q924181", "wikipedia": "ca:Ronda de Dalt", "length": 168.59468246936075}}, {"type": "Feature", "geometry": {"type": "LineString", "coordinates": [[2.1423092, 41.4248939], [2.1421801, 41.4246616]]}, "properties": {"bicycle": "no", "foot": "no", "highway": "trunk", "horse": "no", "lanes": "3", "layer": "-1", "lit": "yes", "maxheight": "4.5", "maxspeed": "80", "motorroad": "yes", "name": "Ronda de Dalt", "name:ca": "Ronda de Dalt", "old_ref": "B-20", "oneway": "yes", "ref": "B-20", "tunnel": "yes", "wikidata": "Q924181", "wikipedia": "ca:Ronda de Dalt", "length": 27.965863981713078}}, {"type": "Feature", "geometry": {"type": "LineString", "coordinates": [[2.2064637, 41.4432862], [2.2062535, 41.4435738], [2.2060484, 41.4438097]]}, "properties": {"bicycle": "no", "foot": "no", "highway": "trunk", "horse": "no", "lanes": "3", "layer": "-1", "lit": "yes", "maxspeed": "80", "motorroad": "yes", "name": "Ronda Litoral", "name:ca": "Ronda Litoral", "oneway": "yes", "ref": "B-10", "surface": "asphalt", "tunnel": "yes", "wikidata": "Q2714667", "wikipedia": "ca:Ronda del Litoral", "length": 67.76127402257222}}, {"type": "Feature", "geometry": {"type": "LineString", "coordinates": [[2.2058824, 41.4437771], [2.2060886, 41.4435395], [2.2063022, 41.4432639]]}, "properties": {"bicycle": "no", "foot": "no", "highway": "trunk", "horse": "no", "lanes": "3", "layer": "-1", "lit": "yes", "maxspeed": "80", "motorroad": "yes", "name": "Ronda Litoral", "name:ca": "Ronda Litoral", "oneway": "yes", "ref": "B-10", "surface": "asphalt", "tunnel": "yes", "wikidata": "Q2714667", "wikipedia": "ca:Ronda del Litoral", "length": 66.94994357229604}}, {"type": "Feature", "geometry": {"type": "LineString", "coordinates": [[2.1259669, 41.4106288], [2.1256279, 41.4104573], [2.1253313, 41.4102655]]}, "properties": {"bicycle": "no", "foot": "no", "highway": "trunk", "horse": "no", "lanes": "3", "layer": "-1", "lit": "yes", "maxspeed": "80", "motorroad": "yes", "name": "Ronda de Dalt", "name:ca": "Ronda de Dalt", "old_ref": "B-20", "oneway": "yes", "ref": "B-20", "tunnel": "yes", "wikidata": "Q924181", "wikipedia": "ca:Ronda de Dalt", "length": 66.8412206989396}}, {"type": "Feature", "geometry": {"type": "LineString", "coordinates": [[2.1570336, 41.4289084], [2.1572792, 41.4284775], [2.1574669, 41.4278339], [2.157576, 41.4274145]]}, "properties": {"highway": "secondary", "lanes": "2", "layer": "-1", "maxheight": "default", "maxspeed": "40", "name": "Avinguda de l'Estatut de Catalunya", "name:ca": "Avinguda de l'Estatut de Catalunya", "oneway": "yes", "surface": "asphalt", "tunnel": "yes", "length": 172.71917267460367}}, {"type": "Feature", "geometry": {"type": "LineString", "coordinates": [[2.1203114, 41.4060557], [2.1199665, 41.4058822], [2.118814, 41.4053215], [2.1184642, 41.4051422], [2.1181522, 41.4049719], [2.1179451, 41.404836]]}, "properties": {"bicycle": "no", "foot": "no", "highway": "trunk", "horse": "no", "lanes": "3", "layer": "-1", "lit": "yes", "maxspeed": "80", "motorroad": "yes", "name": "Ronda de Dalt", "name:ca": "Ronda de Dalt", "old_ref": "B-20", "oneway": "yes", "ref": "B-20", "tunnel": "yes", "wikidata": "Q924181", "wikipedia": "ca:Ronda de Dalt", "length": 240.00247314750118}}, {"type": "Feature", "geometry": {"type": "LineString", "coordinates": [[2.1486386, 41.4060727], [2.148801, 41.4061727], [2.1492343, 41.4064396], [2.1492623, 41.4064652], [2.1502515, 41.4073712], [2.1505391, 41.4076188]]}, "properties": {"bicycle": "no", "foot": "no", "highway": "primary", "horse": "no", "lanes": "3", "layer": "-1", "lit": "yes", "maxheight": "4", "maxspeed": "50", "name": "Pla\u00e7a de Lesseps", "name:ca": "Pla\u00e7a de Lesseps", "oneway": "yes", "surface": "asphalt", "tunnel": "yes", "length": 234.82237646312115}}, {"type": "Feature", "geometry": {"type": "LineString", "coordinates": [[2.1798217, 41.4622727], [2.1800629, 41.4623489]]}, "properties": {"bicycle": "no", "foot": "no", "highway": "trunk_link", "layer": "-1", "oneway": "yes", "tunnel": "yes", "length": 21.855957804035743}}, {"type": "Feature", "geometry": {"type": "LineString", "coordinates": [[2.1712721, 41.3691533], [2.1712213, 41.3693652], [2.1711371, 41.3696215], [2.1710063, 41.3699651], [2.1708596, 41.3701468], [2.1706527, 41.3703233]]}, "properties": {"foot": "no", "highway": "tertiary", "layer": "-1", "lit": "24/7", "maxspeed": "30", "name": "Carretera de Miramar", "name:ca": "Carretera de Miramar", "tunnel": "yes", "length": 142.70696598870987}}, {"type": "Feature", "geometry": {"type": "LineString", "coordinates": [[2.2823995, 41.4739002], [2.28192, 41.4730072]]}, "properties": {"highway": "motorway_link", "lanes": "1", "layer": "-1", "noname": "yes", "oneway": "yes", "surface": "paved", "tunnel": "yes", "length": 106.96149447864646}}, {"type": "Feature", "geometry": {"type": "LineString", "coordinates": [[2.185638, 41.4397687], [2.1851405, 41.4397081]]}, "properties": {"highway": "tertiary", "lanes": "2", "maxheight": "4", "maxspeed": "30", "name": "Passeig de Valldaura", "name:ca": "Passeig de Valldaura", "oneway": "yes", "psv:lanes": "yes|designated", "surface": "asphalt", "tunnel": "yes", "length": 42.11904403660965}}, {"type": "Feature", "geometry": {"type": "LineString", "coordinates": [[2.1850543, 41.4396195], [2.1851075, 41.439626], [2.185604, 41.4396757]]}, "properties": {"highway": "tertiary", "lanes": "2", "maxheight": "4", "maxspeed": "30", "name": "Passeig de Valldaura", "name:ca": "Passeig de Valldaura", "oneway": "yes", "psv:lanes": "yes|designated", "surface": "asphalt", "tunnel": "yes", "length": 46.36418319521316}}, {"type": "Feature", "geometry": {"type": "LineString", "coordinates": [[2.1306065, 41.3757154], [2.1303446, 41.3762593]]}, "properties": {"bicycle": "no", "foot": "no", "hazmat": "no", "highway": "primary_link", "horse": "no", "lane_markings": "no", "layer": "-1", "maxheight": "4", "maxspeed": "50", "oneway": "yes", "surface": "asphalt", "tunnel": "yes", "length": 64.25670544805635}}, {"type": "Feature", "geometry": {"type": "LineString", "coordinates": [[2.203559, 41.4156349], [2.2040531, 41.416015], [2.2042863, 41.4163629]]}, "properties": {"bicycle": "no", "foot": "no", "highway": "trunk_link", "layer": "-1", "oneway": "yes", "tunnel": "yes", "length": 102.34211991601438}}, {"type": "Feature", "geometry": {"type": "LineString", "coordinates": [[2.211873, 41.4218377], [2.2129412, 41.422568], [2.2131469, 41.4227692], [2.2133311, 41.4229384]]}, "properties": {"highway": "motorway_link", "layer": "-1", "noname": "yes", "oneway": "yes", "surface": "asphalt", "tunnel": "yes", "length": 173.12499650566974}}, {"type": "Feature", "geometry": {"type": "LineString", "coordinates": [[2.2116633, 41.4216829], [2.211873, 41.4218377]]}, "properties": {"highway": "motorway_link", "layer": "-1", "noname": "yes", "oneway": "yes", "tunnel": "yes", "length": 24.553756260250054}}, {"type": "Feature", "geometry": {"type": "LineString", "coordinates": [[2.2118098, 41.4223177], [2.2114508, 41.4220538]]}, "properties": {"bicycle": "no", "foot": "no", "highway": "trunk_link", "lanes": "1", "layer": "-1", "oneway": "yes", "surface": "asphalt", "tunnel": "yes", "length": 41.94869270418784}}, {"type": "Feature", "geometry": {"type": "LineString", "coordinates": [[2.125432, 41.4101718], [2.1259676, 41.4104901], [2.1260531, 41.4105353]]}, "properties": {"bicycle": "no", "foot": "no", "highway": "trunk", "horse": "no", "lanes": "3", "layer": "-1", "lit": "yes", "maxspeed": "80", "motorroad": "yes", "name": "Ronda de Dalt", "name:ca": "Ronda de Dalt", "old_ref": "B-20", "oneway": "yes", "ref": "B-20", "tunnel": "yes", "wikidata": "Q924181", "wikipedia": "ca:Ronda de Dalt", "length": 65.78906328712037}}, {"type": "Feature", "geometry": {"type": "LineString", "coordinates": [[2.1335987, 41.363255], [2.1340444, 41.3635108]]}, "properties": {"bicycle": "no", "destination": "Barcelona;Pl. Cerd\u00e0", "foot": "no", "highway": "trunk_link", "lamp_mount": "parking_aisle", "lanes": "2", "layer": "-1", "lit": "yes", "maxspeed": "50", "oneway": "yes", "tunnel": "yes", "length": 46.88083172278348}}, {"type": "Feature", "geometry": {"type": "LineString", "coordinates": [[2.0691598, 41.3570981], [2.0697415, 41.3574326], [2.070055, 41.3576976], [2.0701952, 41.3578851], [2.0703579, 41.3581962]]}, "properties": {"highway": "tertiary", "lanes": "2", "layer": "-1", "maxspeed": "30", "noname": "yes", "oneway": "yes", "tunnel": "yes", "length": 161.69645897674107}}, {"type": "Feature", "geometry": {"type": "LineString", "coordinates": [[2.0702796, 41.3582095], [2.0701087, 41.3579116], [2.0699668, 41.3577319], [2.0698333, 41.3576136], [2.0696766, 41.3574874], [2.0690893, 41.3571323]]}, "properties": {"highway": "tertiary", "lanes": "2", "layer": "-1", "maxspeed": "30", "noname": "yes", "oneway": "yes", "tunnel": "yes", "length": 158.71739635830625}}, {"type": "Feature", "geometry": {"type": "LineString", "coordinates": [[2.1230309, 41.4005737], [2.1221195, 41.4013265], [2.1214831, 41.4016763]]}, "properties": {"bicycle": "no", "change:lanes:backward": "not_left|yes", "change:lanes:forward": "not_left|yes", "foot": "no", "highway": "trunk", "int_ref": "E 09", "lanes": "4", "lanes:backward": "2", "lanes:forward": "2", "layer": "-1", "lit": "yes", "maxspeed": "70", "oneway": "no", "overtaking": "yes", "ref": "C-16", "tunnel": "yes", "width": "12", "length": 179.02072524836245}}, {"type": "Feature", "geometry": {"type": "LineString", "coordinates": [[2.2220846, 41.4116543], [2.2219, 41.4113349], [2.2215739, 41.4105696], [2.2214032, 41.4101233], [2.2212712, 41.4097033], [2.2210347, 41.409276]]}, "properties": {"highway": "secondary", "lanes": "3", "layer": "-1", "maxheight": "default", "maxspeed": "50", "name": "Passeig de Garcia F\u00e0ria", "name:ca": "Passeig de Garcia F\u00e0ria", "oneway": "yes", "surface": "asphalt", "tunnel": "yes", "length": 278.873602837685}}, {"type": "Feature", "geometry": {"type": "LineString", "coordinates": [[2.2226269, 41.4126901], [2.2225919, 41.4126304], [2.2225146, 41.4124987], [2.2224216, 41.412338], [2.2221188, 41.4118024], [2.222095, 41.4117603], [2.2220846, 41.4116543]]}, "properties": {"foot": "no", "highway": "tertiary_link", "lanes": "2", "layer": "-1", "maxlength": "16.5", "maxlength:conditional": "12 @ (05:00-23:00)", "maxspeed": "30", "maxweight": "44", "maxweight:conditional": "18 @ (05:00-23:00)", "oneway": "yes", "surface": "asphalt", "tunnel": "yes", "length": 124.24062639743852}}, {"type": "Feature", "geometry": {"type": "LineString", "coordinates": [[2.1976112, 41.4503868], [2.1975275, 41.4503656], [2.1974349, 41.4503228], [2.1973588, 41.4502723], [2.1972956, 41.4502032], [2.1972687, 41.4501596], [2.1972406, 41.4500838]]}, "properties": {"bicycle": "no", "foot": "no", "highway": "trunk_link", "lanes": "1", "layer": "-1", "lit": "yes", "oneway": "yes", "tunnel": "yes", "length": 48.33409143827008}}, {"type": "Feature", "geometry": {"type": "LineString", "coordinates": [[2.1520022, 41.4381027], [2.1521809, 41.4375644]]}, "properties": {"highway": "tertiary_link", "lanes": "2", "layer": "-1", "maxspeed": "30", "name": "Avinguda de l'Estatut de Catalunya", "name:ca": "Avinguda de l'Estatut de Catalunya", "oneway": "yes", "surface": "asphalt", "tunnel": "yes", "length": 61.62212896650179}}, {"type": "Feature", "geometry": {"type": "LineString", "coordinates": [[2.0714894, 41.4406008], [2.0713974, 41.4402598]]}, "properties": {"bicycle": "yes", "highway": "secondary", "layer": "-1", "name": "Carretera de Vallvidrera", "name:ca": "Carretera de Vallvidrera", "oneway": "yes", "ref": "BV-1462", "ref:colour": "yellow", "ref:colour_tx": "black", "surface": "asphalt", "tunnel": "yes", "length": 38.64487158915014}}, {"type": "Feature", "geometry": {"type": "LineString", "coordinates": [[2.0742609, 41.4382435], [2.0742929, 41.4387042]]}, "properties": {"bicycle": "yes", "highway": "secondary", "layer": "-1", "maxspeed": "50", "name": "Carretera de Vallvidrera", "name:ca": "Carretera de Vallvidrera", "oneway": "yes", "ref": "BV-1462", "ref:colour": "yellow", "ref:colour_tx": "black", "surface": "asphalt", "tunnel": "yes", "length": 51.23629047625713}}, {"type": "Feature", "geometry": {"type": "LineString", "coordinates": [[2.1154437, 41.3644328], [2.1161325, 41.3646835]]}, "properties": {"foot": "no", "highway": "tertiary", "lanes": "2", "lanes:backward": "1", "lanes:forward": "1", "layer": "-1", "maxspeed": "30", "name": "Carrer d'Enric Prat de la Riba", "name:ca": "Carrer d'Enric Prat de la Riba", "name:etymology:wikidata": "Q727170", "oneway": "no", "parking:lane": "no_parking", "surface": "asphalt", "tunnel": "yes", "length": 64.00515031323594}}, {"type": "Feature", "geometry": {"type": "LineString", "coordinates": [[2.1423327, 41.4246276], [2.1425112, 41.4248406]]}, "properties": {"bicycle": "no", "destination": "Montbau;Ciutat Sanit\u00e0ria", "destination:symbol": ";hospital", "foot": "no", "highway": "trunk_link", "junction:ref": "5", "lanes": "1", "layer": "-2", "maxheight": "4.5", "maxspeed": "50", "oneway": "yes", "ref": "5", "tunnel": "yes", "length": 27.968962020434223}}, {"type": "Feature", "geometry": {"type": "LineString", "coordinates": [[2.1261122, 41.3576821], [2.1231831, 41.355465]]}, "properties": {"highway": "motorway", "lanes": "3", "layer": "-2", "maxheight": "default", "maxspeed": "80", "maxspeed:type": "sign", "name": "Autovia de Castelldefels", "name:ca": "Autovia de Castelldefels", "oneway": "yes", "ref": "C-31", "tunnel": "yes", "length": 347.4310240335695}}, {"type": "Feature", "geometry": {"type": "LineString", "coordinates": [[2.1360115, 41.4151125], [2.1366703, 41.4153732], [2.1370244, 41.4155358], [2.1373022, 41.4157059], [2.1376525, 41.4159552]]}, "properties": {"bicycle": "no", "foot": "no", "highway": "trunk", "horse": "no", "lanes": "3", "layer": "-1", "lit": "yes", "maxheight": "4.5", "maxspeed": "80", "motorroad": "yes", "name": "Ronda de Dalt", "name:ca": "Ronda de Dalt", "old_ref": "B-20", "oneway": "yes", "ref": "B-20", "tunnel": "yes", "wikidata": "Q924181", "wikipedia": "ca:Ronda de Dalt", "length": 167.14432264734768}}, {"type": "Feature", "geometry": {"type": "LineString", "coordinates": [[2.1375437, 41.4160547], [2.137142, 41.4157421], [2.1369568, 41.4156223], [2.1367123, 41.4155111], [2.1359417, 41.4152184]]}, "properties": {"bicycle": "no", "foot": "no", "highway": "trunk", "horse": "no", "lanes": "3", "layer": "-1", "lit": "yes", "maxheight": "4.5", "maxspeed": "80", "motorroad": "yes", "name": "Ronda de Dalt", "name:ca": "Ronda de Dalt", "old_ref": "B-20", "oneway": "yes", "ref": "B-20", "tunnel": "yes", "wikidata": "Q924181", "wikipedia": "ca:Ronda de Dalt", "length": 164.7633036839698}}, {"type": "Feature", "geometry": {"type": "LineString", "coordinates": [[2.1905216, 41.4467866], [2.1904918, 41.4470896]]}, "properties": {"access": "yes", "bicycle": "yes", "cycleway": "no", "foot": "no", "highway": "trunk_link", "horse": "no", "lanes": "3", "maxspeed": "50", "name": "Passeig de Torras i Bages", "name:ca": "Passeig de Torras i Bages", "name:etymology:wikidata": "Q4893825", "oneway": "yes", "source": "bing", "surface": "asphalt", "tunnel": "yes", "length": 33.743965778729645}}, {"type": "Feature", "geometry": {"type": "LineString", "coordinates": [[2.128939, 41.3797913], [2.1293071, 41.3785692], [2.1302594, 41.3759186], [2.1307539, 41.3745305], [2.13146, 41.3726583]]}, "properties": {"bicycle": "no", "foot": "no", "hazmat": "no", "highway": "primary", "horse": "no", "layer": "-1", "maxheight": "4", "maxspeed": "60", "name": "Ronda del Mig", "name:ca": "Ronda del Mig", "oneway": "yes", "tunnel": "yes", "length": 819.918958335601}}, {"type": "Feature", "geometry": {"type": "LineString", "coordinates": [[2.1278177, 41.3833306], [2.1277926, 41.3839315]]}, "properties": {"highway": "primary_link", "maxspeed": "50", "oneway": "yes", "surface": "asphalt", "tunnel": "yes", "length": 66.76976984472716}}, {"type": "Feature", "geometry": {"type": "LineString", "coordinates": [[2.1273625, 41.3877303], [2.1273853, 41.3878195], [2.1274094, 41.3879246], [2.1275232, 41.3882944], [2.1275813, 41.388481], [2.1277511, 41.3890435], [2.1277738, 41.3891146]]}, "properties": {"bicycle": "no", "foot": "no", "hazmat": "no", "highway": "primary", "horse": "no", "lanes": "3", "layer": "-1", "lit": "24/7", "maxheight": "4", "maxspeed": "60", "name": "Ronda del Mig", "name:ca": "Ronda del Mig", "oneway": "yes", "surface": "asphalt", "tunnel": "yes", "length": 157.5665615552252}}, {"type": "Feature", "geometry": {"type": "LineString", "coordinates": [[2.104844, 41.3857363], [2.1044461, 41.3852856], [2.1041688, 41.3849715]]}, "properties": {"bicycle": "no", "foot": "no", "highway": "trunk", "horse": "no", "lanes": "3", "layer": "-1", "lit": "yes", "maxspeed": "80", "motorroad": "yes", "name": "Ronda de Dalt", "name:ca": "Ronda de Dalt", "old_ref": "B-20", "oneway": "yes", "ref": "B-20", "tunnel": "yes", "wikidata": "Q924181", "wikipedia": "ca:Ronda de Dalt", "length": 102.00141280445706}}, {"type": "Feature", "geometry": {"type": "LineString", "coordinates": [[2.1042437, 41.3849314], [2.1045288, 41.3852608], [2.104922, 41.3857151]]}, "properties": {"bicycle": "no", "foot": "no", "highway": "trunk", "horse": "no", "lanes": "3", "layer": "-1", "lit": "yes", "maxspeed": "80", "motorroad": "yes", "name": "Ronda de Dalt", "name:ca": "Ronda de Dalt", "old_ref": "B-20", "oneway": "yes", "ref": "B-20", "tunnel": "yes", "wikidata": "Q924181", "wikipedia": "ca:Ronda de Dalt", "length": 103.8972537473832}}, {"type": "Feature", "geometry": {"type": "LineString", "coordinates": [[2.1060036, 41.3869463], [2.1065379, 41.3876567], [2.1069461, 41.3881994], [2.1073382, 41.3888637]]}, "properties": {"bicycle": "no", "foot": "no", "highway": "trunk", "horse": "no", "lanes": "3", "layer": "-1", "lit": "yes", "maxspeed": "80", "motorroad": "yes", "name": "Ronda de Dalt", "name:ca": "Ronda de Dalt", "old_ref": "B-20", "oneway": "yes", "ref": "B-20", "tunnel": "yes", "wikidata": "Q924181", "wikipedia": "ca:Ronda de Dalt", "length": 240.68518512234402}}, {"type": "Feature", "geometry": {"type": "LineString", "coordinates": [[2.1065379, 41.3876567], [2.1071306, 41.3882329]]}, "properties": {"bicycle": "no", "destination": "Crta. Esplugues;Av. Pearson;UPC/UB Nord", "foot": "no", "highway": "trunk_link", "layer": "-1", "lit": "24/7", "oneway": "yes", "ref": "10", "tunnel": "yes", "length": 80.94875017807907}}, {"type": "Feature", "geometry": {"type": "LineString", "coordinates": [[2.0941746, 41.3731411], [2.0945306, 41.3736205], [2.0946306, 41.3738232]]}, "properties": {"bicycle": "no", "foot": "no", "highway": "trunk_link", "layer": "-1", "lit": "24/7", "maxspeed": "50", "oneway": "yes", "ref": "12", "tunnel": "yes", "length": 85.02266910628049}}, {"type": "Feature", "geometry": {"type": "LineString", "coordinates": [[2.1344233, 41.3659738], [2.1354616, 41.3662718]]}, "properties": {"highway": "tertiary", "layer": "-1", "maxspeed": "30", "name": "Avinguda del Carrilet", "name:ca": "Avinguda del Carrilet", "surface": "asphalt", "tunnel": "yes", "length": 92.96325466128475}}, {"type": "Feature", "geometry": {"type": "LineString", "coordinates": [[2.0896748, 41.3648805], [2.0895884, 41.3647252], [2.0894908, 41.364568], [2.089381, 41.3644124], [2.0892439, 41.3642535]]}, "properties": {"bicycle": "no", "foot": "no", "highway": "trunk_link", "lit": "24/7", "motorroad": "no", "oneway": "yes", "tunnel": "yes", "length": 78.59515853397008}}, {"type": "Feature", "geometry": {"type": "LineString", "coordinates": [[2.0896575, 41.3639485], [2.0898111, 41.3647273]]}, "properties": {"bicycle": "no", "foot": "no", "highway": "trunk_link", "layer": "-1", "lit": "24/7", "maxspeed": "80", "motorroad": "no", "oneway": "yes", "tunnel": "yes", "length": 87.44384775954671}}, {"type": "Feature", "geometry": {"type": "LineString", "coordinates": [[2.104151, 41.3650672], [2.1041879, 41.3649431], [2.1045324, 41.3641154]]}, "properties": {"cycleway:both": "no", "highway": "tertiary", "lanes": "2", "layer": "-1", "lit": "yes", "maxheight": "default", "maxspeed": "50", "name": "Avinguda d'Isabel la Cat\u00f2lica", "name:ca": "Avinguda d'Isabel la Cat\u00f2lica", "name:etymology:wikidata": "Q45859", "oneway": "yes", "sidewalk:left": "no", "sidewalk:right": "separate", "surface": "asphalt", "tunnel": "yes", "length": 110.46256455929532}}, {"type": "Feature", "geometry": {"type": "LineString", "coordinates": [[2.1046422, 41.3641557], [2.1042933, 41.3649722]]}, "properties": {"cycleway:both": "no", "highway": "tertiary", "lanes": "2", "layer": "-1", "lit": "yes", "maxheight": "default", "maxspeed": "50", "name": "Avinguda d'Isabel la Cat\u00f2lica", "name:ca": "Avinguda d'Isabel la Cat\u00f2lica", "name:etymology:wikidata": "Q45859", "oneway": "yes", "sidewalk:left": "no", "sidewalk:right": "separate", "surface": "asphalt", "tunnel": "yes", "length": 95.26432345630278}}, {"type": "Feature", "geometry": {"type": "LineString", "coordinates": [[2.105006, 41.3718714], [2.1040062, 41.3706888]]}, "properties": {"cycleway:both": "no", "foot": "yes", "highway": "tertiary", "lanes": "2", "layer": "-1", "lit": "yes", "maxheight": "4.4", "maxspeed": "50", "name": "Avinguda d'Isabel la Cat\u00f2lica", "name:ca": "Avinguda d'Isabel la Cat\u00f2lica", "name:etymology:wikidata": "Q45859", "oneway": "yes", "sidewalk": "no", "surface": "asphalt", "tunnel": "yes", "length": 155.7139362374832}}, {"type": "Feature", "geometry": {"type": "LineString", "coordinates": [[2.1040737, 41.370654], [2.1047576, 41.3714405]]}, "properties": {"cycleway:both": "no", "highway": "tertiary", "lanes": "2", "layer": "-1", "maxheight": "4.4", "maxspeed": "50", "name": "Avinguda d'Isabel la Cat\u00f2lica", "name:ca": "Avinguda d'Isabel la Cat\u00f2lica", "name:etymology:wikidata": "Q45859", "oneway": "yes", "parking:lane:both": "no", "surface": "asphalt", "tunnel": "yes", "length": 104.42045741586843}}, {"type": "Feature", "geometry": {"type": "LineString", "coordinates": [[2.0646387, 41.4691069], [2.0645379, 41.4685023]]}, "properties": {"highway": "motorway", "int_ref": "E 09", "lanes": "2", "layer": "-1", "lit": "yes", "maxspeed": "110", "maxweight": "20", "name": "Eix del Llobregat", "name:ca": "Eix del Llobregat", "oneway": "yes", "ref": "C-16", "tunnel": "yes", "length": 67.67458118825044}}, {"type": "Feature", "geometry": {"type": "LineString", "coordinates": [[2.0646681, 41.4684905], [2.0647825, 41.4691001]]}, "properties": {"highway": "motorway", "int_ref": "E 09", "lanes": "2", "layer": "-1", "lit": "yes", "maxspeed": "110", "name": "Eix del Llobregat", "name:ca": "Eix del Llobregat", "oneway": "yes", "ref": "C-16", "tunnel": "yes", "length": 68.37512837509436}}, {"type": "Feature", "geometry": {"type": "LineString", "coordinates": [[2.1171885, 41.404937], [2.117351, 41.4047284], [2.1174743, 41.4045686], [2.1175624, 41.4044036], [2.1176121, 41.4043626], [2.1176762, 41.4043288], [2.1177304, 41.4043163], [2.1177907, 41.4043175], [2.1178583, 41.4043326], [2.1179133, 41.4043668]]}, "properties": {"bicycle": "no", "destination": "Ronda de Dalt;Bes\u00f2s", "destination:ref": "B-20", "foot": "no", "highway": "trunk_link", "lanes": "1", "layer": "-2", "lit": "yes", "maxspeed": "40", "oneway": "yes", "tunnel": "yes", "length": 101.48739906456532}}, {"type": "Feature", "geometry": {"type": "LineString", "coordinates": [[2.1182335, 41.4044062], [2.118206, 41.4045638], [2.1182139, 41.4047002], [2.1182462, 41.4047848], [2.1183457, 41.4048729], [2.1185778, 41.4050105], [2.1187919, 41.4051149], [2.1188618, 41.4052251]]}, "properties": {"bicycle": "no", "foot": "no", "highway": "trunk_link", "layer": "-1", "lit": "yes", "maxspeed": "80", "oneway": "yes", "tunnel": "yes", "length": 115.0316948148751}}, {"type": "Feature", "geometry": {"type": "LineString", "coordinates": [[2.1184642, 41.4051422], [2.1182787, 41.40505], [2.1181828, 41.4050067], [2.1180783, 41.40498], [2.1179566, 41.4049656], [2.1178306, 41.40497], [2.1175984, 41.4050321]]}, "properties": {"bicycle": "no", "foot": "no", "highway": "trunk_link", "lanes": "1", "layer": "-1", "lit": "yes", "maxspeed": "50", "oneway": "yes", "toll": "yes", "tunnel": "yes", "length": 78.61737575490437}}, {"type": "Feature", "geometry": {"type": "LineString", "coordinates": [[2.1287877, 41.3802275], [2.1287243, 41.3801027], [2.1285634, 41.3799337]]}, "properties": {"bicycle": "no", "foot": "no", "hazmat": "no", "highway": "primary_link", "horse": "no", "layer": "-1", "maxspeed": "50", "oneway": "yes", "surface": "asphalt", "tunnel": "yes", "length": 37.93676915888187}}, {"type": "Feature", "geometry": {"type": "LineString", "coordinates": [[2.1285902, 41.3798713], [2.128676, 41.3798894], [2.1287887, 41.3798632], [2.1288665, 41.379827], [2.128939, 41.3797913]]}, "properties": {"bicycle": "no", "foot": "no", "hazmat": "no", "highway": "primary_link", "horse": "no", "layer": "-1", "maxheight": "4", "maxspeed": "50", "oneway": "yes", "surface": "asphalt", "tunnel": "yes", "length": 32.215025434483145}}, {"type": "Feature", "geometry": {"type": "LineString", "coordinates": [[2.1339397, 41.3957505], [2.1339776, 41.3956661], [2.1339998, 41.3955881], [2.1340108, 41.3954995], [2.1340102, 41.3954617], [2.1340015, 41.3954073], [2.1339879, 41.3953569], [2.1339558, 41.3952966], [2.1339148, 41.3952325], [2.1338298, 41.3951315], [2.1336892, 41.3949858], [2.1334011, 41.3946778], [2.1330212, 41.3942908], [2.1326496, 41.3939957], [2.1322147, 41.3936866], [2.1320681, 41.3936068], [2.1315791, 41.3933447], [2.1307517, 41.392917], [2.1303936, 41.3927391], [2.1301588, 41.3926253], [2.1295478, 41.3923481], [2.1294118, 41.3922681]]}, "properties": {"bicycle": "no", "foot": "no", "highway": "primary", "horse": "no", "lanes": "2", "layer": "-1", "lit": "24/7", "maxheight": "4", "maxspeed": "50", "name": "Ronda del Mig", "name:ca": "Ronda del Mig", "oneway": "yes", "source": "bing", "surface": "asphalt", "tunnel": "yes", "length": 566.0850428398245}}, {"type": "Feature", "geometry": {"type": "LineString", "coordinates": [[2.1294753, 41.3922031], [2.1295722, 41.3922642], [2.1297389, 41.392342], [2.1303955, 41.3926933], [2.1313642, 41.3931903], [2.1317566, 41.3933992], [2.1321928, 41.3936326], [2.1325586, 41.3938773], [2.1326776, 41.3939724], [2.1330247, 41.3942351], [2.1332205, 41.3944242], [2.1339169, 41.3951622], [2.1339647, 41.3952276], [2.1340251, 41.3953255], [2.1340554, 41.3953838], [2.1340729, 41.3954388], [2.1340797, 41.395488], [2.1340669, 41.3955974], [2.1340489, 41.3956954], [2.1340198, 41.3957635]]}, "properties": {"access": "yes", "bicycle": "no", "foot": "no", "hazmat": "no", "highway": "primary", "horse": "no", "lanes": "2", "layer": "-1", "lit": "24/7", "maxheight": "4", "maxspeed": "50", "name": "Ronda del Mig", "name:ca": "Ronda del Mig", "oneway": "yes", "source": "bing", "surface": "asphalt", "tunnel": "yes", "length": 571.2177671855325}}, {"type": "Feature", "geometry": {"type": "LineString", "coordinates": [[2.1576418, 41.4274228], [2.1575516, 41.4278435], [2.1573998, 41.4284929], [2.1572044, 41.4288142], [2.1571286, 41.4289389]]}, "properties": {"highway": "secondary", "lanes": "2", "layer": "-1", "maxheight": "default", "maxspeed": "40", "name": "Avinguda de l'Estatut de Catalunya", "name:ca": "Avinguda de l'Estatut de Catalunya", "oneway": "yes", "surface": "asphalt", "tunnel": "yes", "length": 175.03425659322713}}, {"type": "Feature", "geometry": {"type": "LineString", "coordinates": [[2.1972362, 41.4498551], [2.1972675, 41.449668], [2.1973132, 41.4494158]]}, "properties": {"bicycle": "no", "foot": "no", "highway": "trunk_link", "lanes": "1", "layer": "-1", "lit": "yes", "oneway": "yes", "tunnel": "yes", "length": 49.212868545846604}}, {"type": "Feature", "geometry": {"type": "LineString", "coordinates": [[2.1826565, 41.4465463], [2.1822744, 41.4465481], [2.1820318, 41.4465458]]}, "properties": {"bicycle": "no", "foot": "no", "highway": "trunk_link", "lanes": "1", "layer": "-1", "lit": "24/7", "maxheight": "4.5", "maxspeed": "60", "motorroad": "no", "oneway": "yes", "ref": "2", "tunnel": "yes", "length": 52.205158865227624}}, {"type": "Feature", "geometry": {"type": "LineString", "coordinates": [[2.1820846, 41.4463288], [2.1822789, 41.4463726], [2.1826774, 41.4464391]]}, "properties": {"bicycle": "no", "foot": "no", "highway": "trunk_link", "lanes": "1", "layer": "-1", "lit": "24/7", "maxheight": "4.5", "maxspeed": "60", "motorroad": "no", "oneway": "yes", "tunnel": "yes", "length": 51.05957426626938}}, {"type": "Feature", "geometry": {"type": "LineString", "coordinates": [[2.1423327, 41.4246276], [2.1424527, 41.424856]]}, "properties": {"bicycle": "no", "foot": "no", "highway": "trunk", "horse": "no", "lanes": "3", "layer": "-2", "lit": "yes", "maxheight": "4.5", "maxspeed": "80", "motorroad": "yes", "name": "Ronda de Dalt", "name:ca": "Ronda de Dalt", "old_ref": "B-20", "oneway": "yes", "ref": "B-20", "tunnel": "yes", "wikidata": "Q924181", "wikipedia": "ca:Ronda de Dalt", "length": 27.277966740868795}}, {"type": "Feature", "geometry": {"type": "LineString", "coordinates": [[2.1422309, 41.4249146], [2.1421801, 41.4246616]]}, "properties": {"access": "yes", "bicycle": "no", "foot": "no", "highway": "trunk_link", "horse": "no", "layer": "-1", "maxheight": "4.5", "maxspeed": "80", "oneway": "yes", "surface": "asphalt", "tunnel": "yes", "length": 28.417790361117117}}, {"type": "Feature", "geometry": {"type": "LineString", "coordinates": [[2.2222051, 41.4102201], [2.2222298, 41.4106476], [2.222659, 41.4114101], [2.2230552, 41.4119647], [2.2233772, 41.4124271]]}, "properties": {"highway": "secondary", "lanes": "3", "layer": "-1", "level": "-1", "lit": "yes", "maxspeed": "50", "name": "Avinguda del Litoral", "name:ca": "Avinguda del Litoral", "oneway": "yes", "surface": "asphalt", "tunnel": "yes", "length": 267.4196425730852}}, {"type": "Feature", "geometry": {"type": "LineString", "coordinates": [[2.1134757, 41.399511], [2.1135083, 41.3995548], [2.1135343, 41.399582], [2.1135648, 41.3996147], [2.1136014, 41.3996532], [2.113618, 41.3996813], [2.1136301, 41.3997135], [2.1136453, 41.3997659]]}, "properties": {"bicycle": "no", "foot": "no", "highway": "trunk_link", "lanes": "1", "layer": "-1", "lit": "24/7", "name": "Sarri\u00e0", "name:ca": "Sarri\u00e0", "oneway": "yes", "ref": "9", "tunnel": "yes", "length": 32.083622593844225}}, {"type": "Feature", "geometry": {"type": "LineString", "coordinates": [[2.1133133, 41.3997998], [2.1133094, 41.399737], [2.11331, 41.3996823], [2.1133139, 41.3996404], [2.1133185, 41.3996055], [2.1133208, 41.3995655], [2.113324, 41.3995182]]}, "properties": {"bicycle": "no", "foot": "no", "highway": "trunk_link", "lanes": "1", "layer": "-1", "lit": "24/7", "maxheight": "4.5", "name": "Sarri\u00e0", "name:ca": "Sarri\u00e0", "oneway": "yes", "ref": "9", "tunnel": "yes", "length": 31.324215436061092}}, {"type": "Feature", "geometry": {"type": "LineString", "coordinates": [[2.1408147, 41.4217567], [2.140973, 41.4221092]]}, "properties": {"bicycle": "no", "foot": "no", "highway": "trunk", "horse": "no", "lanes": "3", "layer": "-1", "lit": "yes", "maxspeed": "80", "motorroad": "yes", "name": "Ronda de Dalt", "name:ca": "Ronda de Dalt", "old_ref": "B-20", "oneway": "yes", "ref": "B-20", "tunnel": "yes", "wikidata": "Q924181", "wikipedia": "ca:Ronda de Dalt", "length": 41.32546833420747}}, {"type": "Feature", "geometry": {"type": "LineString", "coordinates": [[2.1408883, 41.4221264], [2.1407177, 41.4217651]]}, "properties": {"bicycle": "no", "foot": "no", "highway": "trunk", "horse": "no", "lanes": "3", "layer": "-1", "lit": "yes", "maxspeed": "80", "motorroad": "yes", "name": "Ronda de Dalt", "name:ca": "Ronda de Dalt", "old_ref": "B-20", "oneway": "yes", "ref": "B-20", "tunnel": "yes", "wikidata": "Q924181", "wikipedia": "ca:Ronda de Dalt", "length": 42.58574448438983}}, {"type": "Feature", "geometry": {"type": "LineString", "coordinates": [[2.09464, 41.4218104], [2.0955096, 41.4209316], [2.096993, 41.4193374], [2.0985732, 41.4181592], [2.0999779, 41.4171195], [2.1016471, 41.4154689], [2.1033889, 41.412824], [2.1039384, 41.4119155], [2.1045933, 41.4110616]]}, "properties": {"bicycle": "no", "foot": "no", "highway": "trunk", "int_ref": "E 09", "lanes": "2", "lanes:backward": "1", "lanes:forward": "1", "lanes:reversible": "1", "layer": "-1", "lit": "yes", "maxheight": "4", "maxspeed": "80", "maxweight": "20", "name": "T\u00fanel de Vallvidrera", "name:ca": "T\u00fanel de Vallvidrera", "oneway": "no", "ref": "C-16", "toll": "yes", "tunnel": "yes", "wikidata": "Q3542197", "wikipedia": "ca:T\u00fanels de Vallvidrera", "length": 1467.131961352296}}, {"type": "Feature", "geometry": {"type": "LineString", "coordinates": [[2.1179133, 41.4043668], [2.1180356, 41.4045313], [2.11821, 41.4047448], [2.1182462, 41.4047848]]}, "properties": {"bicycle": "no", "foot": "no", "highway": "trunk_link", "layer": "-1", "lit": "yes", "maxspeed": "50", "oneway": "yes", "tunnel": "yes", "length": 54.150029060380476}}, {"type": "Feature", "geometry": {"type": "LineString", "coordinates": [[2.1325586, 41.3938773], [2.1326439, 41.3938942], [2.1326789, 41.3939065], [2.1327182, 41.3939252], [2.1327746, 41.3939583], [2.1328282, 41.393996], [2.1329033, 41.3940503], [2.132977, 41.3941022], [2.1330619, 41.3941594], [2.1331154, 41.3942007], [2.1331597, 41.3942387]]}, "properties": {"bicycle": "no", "foot": "no", "hgv": "no", "highway": "primary_link", "horse": "no", "layer": "-1", "maxspeed": "50", "oneway": "yes", "surface": "asphalt", "tunnel": "yes", "length": 65.30610959783812}}, {"type": "Feature", "geometry": {"type": "LineString", "coordinates": [[2.1266005, 41.3855363], [2.1266967, 41.385541], [2.1267924, 41.3855265], [2.1268737, 41.3854906], [2.1269507, 41.3854339], [2.1270132, 41.3853639], [2.1270963, 41.3852451], [2.1271461, 41.3851362], [2.1271878, 41.3850061], [2.1272465, 41.3848386], [2.1272947, 41.384709]]}, "properties": {"bicycle": "no", "destination": "Pl. Cerd\u00e0;Zona Franca", "foot": "no", "hazmat": "no", "highway": "primary_link", "horse": "no", "lanes": "1", "layer": "-1", "maxheight": "4", "maxspeed": "60", "oneway": "yes", "surface": "asphalt", "tunnel": "yes", "length": 119.24343497535983}}, {"type": "Feature", "geometry": {"type": "LineString", "coordinates": [[2.129219, 41.3921895], [2.1291668, 41.3921773], [2.1291085, 41.3921584], [2.1290666, 41.3921368], [2.1290169, 41.3920975], [2.1289762, 41.3920494], [2.1289256, 41.3919864], [2.1288604, 41.3919055]]}, "properties": {"foot": "no", "highway": "primary_link", "layer": "-1", "lit": "24/7", "maxspeed": "50", "oneway": "yes", "surface": "asphalt", "tunnel": "yes", "length": 45.1753673954568}}, {"type": "Feature", "geometry": {"type": "LineString", "coordinates": [[2.0462641, 41.3912983], [2.0462183, 41.3912905], [2.0455976, 41.3911854], [2.0452341, 41.3911494]]}, "properties": {"highway": "tertiary", "lanes": "2", "layer": "-1", "maxspeed": "50", "name": "Carrer del Comer\u00e7", "name:ca": "Carrer del Comer\u00e7", "tunnel": "yes", "length": 87.79943957863102}}, {"type": "Feature", "geometry": {"type": "LineString", "coordinates": [[2.1582482, 41.4116174], [2.158275, 41.4116344], [2.1583715, 41.4116955], [2.1584782, 41.4117631], [2.1590392, 41.412058], [2.1597511, 41.4122671], [2.1601707, 41.4123384], [2.1608615, 41.4124039], [2.1612905, 41.4124498], [2.161845, 41.4124641], [2.1620158, 41.4124216], [2.1625344, 41.4123107]]}, "properties": {"bicycle": "no", "foot": "no", "hazmat": "no", "highway": "primary", "horse": "no", "lanes": "2", "layer": "-1", "lit": "yes", "maxspeed": "50", "name": "Travessera de Dalt", "name:ca": "Travessera de Dalt", "oneway": "yes", "tunnel": "yes", "wikidata": "Q7836178", "wikipedia": "ca:Travessera de Dalt", "length": 383.1414724757265}}, {"type": "Feature", "geometry": {"type": "LineString", "coordinates": [[2.1625762, 41.4124106], [2.162052, 41.4125215], [2.1612908, 41.4125509], [2.1601588, 41.4124441], [2.1596823, 41.4123567], [2.1590344, 41.4121523], [2.1584529, 41.4118326], [2.158192, 41.4116658]]}, "properties": {"bicycle": "no", "foot": "no", "highway": "primary", "lanes": "2", "layer": "-1", "lit": "yes", "maxspeed": "50", "name": "Travessera de Dalt", "name:ca": "Travessera de Dalt", "oneway": "yes", "tunnel": "yes", "wikidata": "Q7836178", "wikipedia": "ca:Travessera de Dalt", "length": 393.19860899929813}}, {"type": "Feature", "geometry": {"type": "LineString", "coordinates": [[2.1666108, 41.4138053], [2.166603, 41.4138186], [2.1660715, 41.4144575], [2.1653498, 41.4153936], [2.1646638, 41.4162579], [2.1640133, 41.4170467], [2.163187, 41.4180272], [2.1625273, 41.4187162], [2.1620525, 41.4191741], [2.1607546, 41.4204773], [2.159557, 41.421683], [2.159056, 41.4222415], [2.1587437, 41.4227827], [2.1585375, 41.423331], [2.1584573, 41.4235244], [2.1583921, 41.4237388]]}, "properties": {"bicycle": "no", "foot": "no", "hazmat": "no", "highway": "secondary", "lanes": "2", "layer": "-5", "lit": "yes", "location": "underground", "maxspeed": "60", "name": "T\u00fanel de la Rovira", "name:ca": "T\u00fanel de la Rovira", "oneway": "yes", "surface": "asphalt", "tunnel": "yes", "length": 1306.952015280014}}, {"type": "Feature", "geometry": {"type": "LineString", "coordinates": [[2.0669775, 41.4814123], [2.0668613, 41.4814763], [2.0666103, 41.4816212], [2.0663833, 41.4817797], [2.0659516, 41.4821347], [2.0655988, 41.4824818], [2.0654138, 41.4826918], [2.0652594, 41.4829045], [2.0651068, 41.4831213], [2.0649823, 41.4833033]]}, "properties": {"highway": "tertiary", "name": "T\u00fanel de Can Bellet", "name:ca": "T\u00fanel de Can Bellet", "oneway": "yes", "tunnel": "yes", "length": 271.1432188127688}}, {"type": "Feature", "geometry": {"type": "LineString", "coordinates": [[2.0648993, 41.4832137], [2.064979, 41.4830754], [2.0651346, 41.4828544], [2.0652923, 41.4826372], [2.0654833, 41.4824204], [2.065815, 41.482094], [2.0658427, 41.4820667], [2.0662825, 41.481705], [2.0665186, 41.4815402], [2.0667761, 41.4813915], [2.0668899, 41.4813289]]}, "properties": {"highway": "tertiary", "name": "T\u00fanel de Can Bellet", "name:ca": "T\u00fanel de Can Bellet", "oneway": "yes", "tunnel": "yes", "length": 270.54899609382295}}, {"type": "Feature", "geometry": {"type": "LineString", "coordinates": [[2.0784063, 41.4681459], [2.0784536, 41.4680848], [2.0784846, 41.4680514], [2.0785206, 41.4680124], [2.0786145, 41.467918], [2.0786896, 41.4678496], [2.0787942, 41.4677753], [2.0788793, 41.4677231], [2.0789373, 41.4676876]]}, "properties": {"cycleway:right": "no", "highway": "tertiary", "layer": "-1", "maxspeed": "30", "name": "Avinguda de Llu\u00eds Companys", "name:ca": "Avinguda de Llu\u00eds Companys", "name:etymology:wikidata": "Q7981", "oneway": "yes", "surface": "asphalt", "tunnel": "yes", "length": 68.03458256651794}}, {"type": "Feature", "geometry": {"type": "LineString", "coordinates": [[2.0684465, 41.4570476], [2.0680698, 41.4570392]]}, "properties": {"highway": "tertiary", "layer": "-1", "name": "Carrer de l'Esp\u00edgol", "name:ca": "Carrer de l'Esp\u00edgol", "tunnel": "yes", "length": 31.487605928056745}}, {"type": "Feature", "geometry": {"type": "LineString", "coordinates": [[2.194794, 41.3868484], [2.1942221, 41.3865411], [2.1936417, 41.3861953]]}, "properties": {"bicycle": "no", "foot": "no", "highway": "trunk_link", "layer": "-1", "lit": "yes", "maxheight": "4.5", "oneway": "yes", "tunnel": "yes", "length": 120.6620360159769}}, {"type": "Feature", "geometry": {"type": "LineString", "coordinates": [[2.125828, 41.4100225], [2.1258651, 41.4102923], [2.1259077, 41.4103928], [2.125983, 41.4104812], [2.1260531, 41.4105353]]}, "properties": {"bicycle": "no", "foot": "no", "highway": "trunk_link", "lanes": "1", "layer": "-1", "maxspeed": "50", "oneway": "yes", "ref": "7", "tunnel": "yes", "length": 61.89772901257417}}, {"type": "Feature", "geometry": {"type": "LineString", "coordinates": [[2.1612905, 41.4124498], [2.1619367, 41.4123566], [2.1623204, 41.4122068], [2.1623945, 41.4121462]]}, "properties": {"bicycle": "no", "foot": "no", "hazmat": "no", "highway": "tertiary_link", "horse": "no", "layer": "-1", "maxspeed": "40", "oneway": "yes", "tunnel": "yes", "length": 100.29629374212682}}, {"type": "Feature", "geometry": {"type": "LineString", "coordinates": [[2.1320094, 41.3711316], [2.1321009, 41.3706205]]}, "properties": {"bicycle": "no", "foot": "no", "highway": "primary_link", "horse": "no", "maxspeed": "50", "name": "Rambla de Badal", "oneway": "yes", "surface": "asphalt", "tunnel": "yes", "length": 57.277171183700325}}, {"type": "Feature", "geometry": {"type": "LineString", "coordinates": [[2.1266005, 41.3855363], [2.1268032, 41.3856029], [2.1269327, 41.3856718], [2.1270767, 41.3858283], [2.1271687, 41.3859636], [2.127276, 41.3861728], [2.1273035, 41.3862293], [2.1273179, 41.3862725], [2.1273259, 41.3863108], [2.1273259, 41.3863923], [2.1273259, 41.3866081], [2.1273323, 41.3866848], [2.1273434, 41.386873], [2.1273498, 41.387036], [2.1273626, 41.3871631], [2.1273834, 41.3872974], [2.1274074, 41.3874544], [2.1274409, 41.3876402], [2.1274808, 41.3878548], [2.1275224, 41.3880585], [2.1275639, 41.3882], [2.1276582, 41.3885704], [2.127687, 41.3886831], [2.1277093, 41.3887753], [2.1277205, 41.3888293], [2.1277429, 41.3889192], [2.1277509, 41.3889695], [2.1277738, 41.3891146]]}, "properties": {"bicycle": "no", "destination": "Rda. Gral. Mitre;Pl. Lesseps", "foot": "no", "hazmat": "no", "highway": "primary_link", "horse": "no", "lanes": "1", "layer": "-1", "maxheight": "4", "maxspeed": "60", "oneway": "yes", "surface": "asphalt", "tunnel": "yes", "length": 424.94221725051443}}, {"type": "Feature", "geometry": {"type": "LineString", "coordinates": [[2.1886776, 41.4489934], [2.1887761, 41.449263], [2.1888866, 41.4495655]]}, "properties": {"bicycle": "no", "foot": "no", "highway": "trunk_link", "lanes": "1", "layer": "-1", "maxspeed": "50", "oneway": "yes", "tunnel": "yes", "length": 65.8953392119061}}, {"type": "Feature", "geometry": {"type": "LineString", "coordinates": [[2.2189056, 41.4258396], [2.2183376, 41.4262993]]}, "properties": {"highway": "tertiary", "lanes": "2", "layer": "-1", "maxspeed": "50", "name": "Carretera la catalana", "name:ca": "Carretera la catalana", "tunnel": "yes", "length": 69.7206185249619}}, {"type": "Feature", "geometry": {"type": "LineString", "coordinates": [[2.168945, 41.442284], [2.1696466, 41.4426467]]}, "properties": {"bicycle": "no", "foot": "no", "highway": "trunk_link", "layer": "-1", "lit": "24/7", "oneway": "yes", "tunnel": "yes", "length": 71.13694834238292}}, {"type": "Feature", "geometry": {"type": "LineString", "coordinates": [[2.1695528, 41.442726], [2.1689684, 41.4426097], [2.1687571, 41.44256]]}, "properties": {"bicycle": "no", "foot": "no", "highway": "trunk_link", "layer": "-1", "lit": "24/7", "oneway": "yes", "tunnel": "yes", "length": 69.01829696949217}}, {"type": "Feature", "geometry": {"type": "LineString", "coordinates": [[2.1643486, 41.4409066], [2.1635743, 41.4405255]]}, "properties": {"bicycle": "no", "foot": "no", "highway": "trunk_link", "layer": "-1", "lit": "24/7", "oneway": "yes", "tunnel": "yes", "length": 77.3231310391134}}, {"type": "Feature", "geometry": {"type": "LineString", "coordinates": [[2.1634862, 41.4403539], [2.1645507, 41.4406093]]}, "properties": {"bicycle": "no", "foot": "no", "highway": "trunk_link", "layer": "-1", "lit": "24/7", "maxspeed": "50", "oneway": "yes", "tunnel": "yes", "length": 93.3756313033333}}, {"type": "Feature", "geometry": {"type": "LineString", "coordinates": [[2.1165009, 41.3397663], [2.1164824, 41.3396569], [2.1164698, 41.3395071], [2.1164681, 41.339379]]}, "properties": {"highway": "tertiary", "layer": "-1", "maxheight": "4.5", "maxspeed": "30", "noname": "yes", "surface": "asphalt", "tunnel": "yes", "length": 43.14610602112147}}, {"type": "Feature", "geometry": {"type": "LineString", "coordinates": [[2.11762, 41.4046], [2.1172759, 41.4043077], [2.1169933, 41.4040415], [2.1168399, 41.4038974], [2.1165166, 41.4035969], [2.1160029, 41.4031249], [2.1159201, 41.4030502]]}, "properties": {"bicycle": "no", "foot": "no", "highway": "trunk", "horse": "no", "lanes": "3", "layer": "-1", "lit": "yes", "maxspeed": "80", "motorroad": "yes", "name": "Ronda de Dalt", "name:ca": "Ronda de Dalt", "old_ref": "B-20", "oneway": "yes", "ref": "B-20", "tunnel": "yes", "wikidata": "Q924181", "wikipedia": "ca:Ronda de Dalt", "length": 223.26609373324476}}, {"type": "Feature", "geometry": {"type": "LineString", "coordinates": [[2.1180441, 41.404775], [2.1182191, 41.4048826], [2.1188618, 41.4052251], [2.1200253, 41.4058072], [2.1203974, 41.4060112]]}, "properties": {"bicycle": "no", "foot": "no", "highway": "trunk", "horse": "no", "lanes": "3", "layer": "-1", "lit": "yes", "maxspeed": "80", "motorroad": "yes", "name": "Ronda de Dalt", "name:ca": "Ronda de Dalt", "old_ref": "B-20", "oneway": "yes", "ref": "B-20", "tunnel": "yes", "wikidata": "Q924181", "wikipedia": "ca:Ronda de Dalt", "length": 240.03310620755528}}, {"type": "Feature", "geometry": {"type": "LineString", "coordinates": [[2.1582059, 41.4237227], [2.1582107, 41.4237069], [2.1583347, 41.4232973], [2.1584387, 41.4229944], [2.1584926, 41.422854], [2.1587635, 41.4223485], [2.1591015, 41.421913], [2.1602313, 41.4207256], [2.1609564, 41.4199641], [2.1618178, 41.4191341], [2.1625188, 41.4184243], [2.163154, 41.4177356], [2.1634364, 41.4174082], [2.1639038, 41.4168406], [2.1647658, 41.4158083], [2.1653972, 41.4150254], [2.1658605, 41.4144049], [2.1662966, 41.4138946]]}, "properties": {"bicycle": "no", "foot": "no", "hazmat": "no", "highway": "secondary", "lanes": "2", "layer": "-5", "lit": "yes", "location": "underground", "maxspeed": "60", "name": "T\u00fanel de la Rovira", "name:ca": "T\u00fanel de la Rovira", "oneway": "yes", "surface": "asphalt", "tunnel": "yes", "length": 1291.6714984878945}}, {"type": "Feature", "geometry": {"type": "LineString", "coordinates": [[2.1577374, 41.428398], [2.1575806, 41.4285928], [2.1574533, 41.4287096], [2.1571367, 41.4289327], [2.1571286, 41.4289389]]}, "properties": {"highway": "secondary_link", "lanes": "1", "layer": "-1", "maxspeed": "40", "oneway": "yes", "surface": "asphalt", "tunnel": "yes", "length": 79.29195713269489}}, {"type": "Feature", "geometry": {"type": "LineString", "coordinates": [[2.1570336, 41.4289084], [2.1570816, 41.428768], [2.1571076, 41.4286296], [2.1571031, 41.4285208], [2.1570888, 41.4283722], [2.1571013, 41.428273], [2.1572033, 41.4277712], [2.1572122, 41.4276962], [2.1571963, 41.4276543]]}, "properties": {"highway": "secondary_link", "layer": "-1", "maxspeed": "50", "oneway": "yes", "surface": "asphalt", "tunnel": "yes", "length": 140.91003891020708}}, {"type": "Feature", "geometry": {"type": "LineString", "coordinates": [[2.1109312, 41.3407457], [2.1101374, 41.3406883]]}, "properties": {"bicycle": "no", "foot": "no", "highway": "trunk_link", "lanes": "1", "layer": "-1", "lit": "yes", "oneway": "yes", "tunnel": "yes", "length": 66.74652935835427}}, {"type": "Feature", "geometry": {"type": "LineString", "coordinates": [[2.1936159, 41.4490217], [2.1936609, 41.4488165], [2.1937194, 41.4486131]]}, "properties": {"bicycle": "no", "foot": "no", "highway": "trunk", "horse": "no", "lanes": "4", "layer": "-1", "lit": "yes", "maxspeed": "60", "motorroad": "yes", "name": "Ronda de Dalt", "name:ca": "Ronda de Dalt", "old_ref": "B-20", "oneway": "yes", "ref": "B-20", "tunnel": "yes", "length": 46.211166755917525}}, {"type": "Feature", "geometry": {"type": "LineString", "coordinates": [[2.1356558, 41.3648481], [2.1359357, 41.3650666]]}, "properties": {"bicycle": "no", "foot": "no", "highway": "trunk", "lanes": "2", "layer": "-1", "maxspeed": "50", "name": "Gran Via de les Corts Catalanes", "name:ca": "Gran Via de les Corts Catalanes", "name:etymology:wikidata": "Q1902969", "oneway": "yes", "ref": "C-31", "tunnel": "yes", "width": "5", "wikidata": "Q263293", "wikipedia": "ca:Gran Via de les Corts Catalanes", "length": 33.72433995226433}}, {"type": "Feature", "geometry": {"type": "LineString", "coordinates": [[2.1355878, 41.3649011], [2.134911, 41.3644062]]}, "properties": {"bicycle": "no", "foot": "no", "highway": "trunk", "lanes": "3", "layer": "-1", "lit": "yes", "maxheight": "default", "maxspeed": "50", "name": "Gran Via de les Corts Catalanes", "name:ca": "Gran Via de les Corts Catalanes", "name:etymology:wikidata": "Q1902969", "oneway": "yes", "ref": "C-31", "shoulder": "no", "tunnel": "yes", "width": "9", "wikidata": "Q263293", "wikipedia": "ca:Gran Via de les Corts Catalanes", "length": 78.91607030061977}}, {"type": "Feature", "geometry": {"type": "LineString", "coordinates": [[2.1356558, 41.3648481], [2.1359692, 41.3650188]]}, "properties": {"bicycle": "no", "foot": "no", "highway": "trunk_link", "lanes": "1", "layer": "-1", "maxspeed": "50", "oneway": "yes", "tunnel": "yes", "width": "3", "length": 32.357424503619306}}, {"type": "Feature", "geometry": {"type": "LineString", "coordinates": [[2.1349907, 41.3643469], [2.1356558, 41.3648481]]}, "properties": {"bicycle": "no", "foot": "no", "highway": "trunk", "lanes": "3", "layer": "-1", "lit": "yes", "maxheight": "default", "maxspeed": "50", "name": "Gran Via de les Corts Catalanes", "name:ca": "Gran Via de les Corts Catalanes", "name:etymology:wikidata": "Q1902969", "oneway": "yes", "ref": "C-31", "tunnel": "yes", "width": "9", "wikidata": "Q263293", "wikipedia": "ca:Gran Via de les Corts Catalanes", "length": 78.70987493219735}}, {"type": "Feature", "geometry": {"type": "LineString", "coordinates": [[2.135897, 41.3651217], [2.1355878, 41.3649011]]}, "properties": {"bicycle": "no", "foot": "no", "highway": "trunk", "lanes": "2", "layer": "-1", "maxspeed": "50", "name": "Gran Via de les Corts Catalanes", "name:ca": "Gran Via de les Corts Catalanes", "name:etymology:wikidata": "Q1902969", "oneway": "yes", "ref": "C-31", "tunnel": "yes", "width": "5", "wikidata": "Q263293", "wikipedia": "ca:Gran Via de les Corts Catalanes", "length": 35.63057679672774}}, {"type": "Feature", "geometry": {"type": "LineString", "coordinates": [[2.135865, 41.3651672], [2.1357017, 41.3650013], [2.1355878, 41.3649011]]}, "properties": {"bicycle": "no", "foot": "no", "highway": "trunk_link", "lanes": "1", "layer": "-1", "maxspeed": "50", "oneway": "yes", "tunnel": "yes", "width": "3", "length": 37.58950978790187}}, {"type": "Feature", "geometry": {"type": "LineString", "coordinates": [[2.1337999, 41.3635707], [2.1330989, 41.3630131], [2.1322107, 41.3623065]]}, "properties": {"bicycle": "no", "foot": "no", "highway": "trunk", "layer": "-1", "lit": "yes", "maxheight": "default", "maxspeed": "50", "name": "Avinguda de la Granvia de l'Hospitalet", "name:ca": "Avinguda de la Granvia de l'Hospitalet", "oneway": "yes", "ref": "C-31", "tunnel": "yes", "length": 193.37654195717255}}, {"type": "Feature", "geometry": {"type": "LineString", "coordinates": [[2.1303446, 41.3762593], [2.1300415, 41.3769253]]}, "properties": {"bicycle": "no", "foot": "no", "hazmat": "no", "highway": "primary_link", "horse": "no", "lit": "yes", "maxheight": "4", "maxspeed": "50", "oneway": "yes", "tunnel": "yes", "length": 78.19201422156006}}, {"type": "Feature", "geometry": {"type": "LineString", "coordinates": [[2.1800152, 41.4624572], [2.179767, 41.4623737]]}, "properties": {"bicycle": "no", "foot": "no", "highway": "trunk_link", "layer": "-1", "maxspeed": "40", "oneway": "yes", "tunnel": "yes", "length": 22.71503385546349}}, {"type": "Feature", "geometry": {"type": "LineString", "coordinates": [[2.1296163, 41.3603022], [2.1288298, 41.3597275]]}, "properties": {"highway": "motorway", "lanes": "4", "layer": "-2", "maxheight": "4.5", "maxspeed": "80", "name": "Autovia de Castelldefels", "name:ca": "Autovia de Castelldefels", "oneway": "yes", "ref": "C-31", "tunnel": "yes", "length": 91.6783902873341}}, {"type": "Feature", "geometry": {"type": "LineString", "coordinates": [[2.0380355, 41.4733271], [2.0378705, 41.4734514], [2.0376494, 41.4736068], [2.0374541, 41.4737304]]}, "properties": {"highway": "tertiary", "lanes": "1", "name": "Carrer de Josep Trueta", "name:ca": "Carrer de Josep Trueta", "name:etymology:wikidata": "Q3752290", "oneway": "yes", "tunnel": "yes", "length": 66.10581283617628}}, {"type": "Feature", "geometry": {"type": "LineString", "coordinates": [[2.0374004, 41.4736701], [2.0376742, 41.4734798], [2.0379583, 41.4732792]]}, "properties": {"highway": "tertiary", "name": "Carrer de Josep Trueta", "name:ca": "Carrer de Josep Trueta", "name:etymology:wikidata": "Q3752290", "oneway": "yes", "tunnel": "yes", "length": 63.691345413487426}}, {"type": "Feature", "geometry": {"type": "LineString", "coordinates": [[2.1195188, 41.352748], [2.1190783, 41.3524331]]}, "properties": {"highway": "motorway", "lanes": "4", "layer": "-2", "maxheight": "default", "maxspeed": "80", "name": "Autovia de Castelldefels", "name:ca": "Autovia de Castelldefels", "oneway": "yes", "ref": "C-31", "tunnel": "yes", "length": 50.81356587186056}}, {"type": "Feature", "geometry": {"type": "LineString", "coordinates": [[2.0770554, 41.3767823], [2.07728, 41.3763065]]}, "properties": {"highway": "tertiary", "layer": "-1", "maxspeed": "50", "name": "Rambla Gespar Modolell", "tunnel": "yes", "length": 56.083804722040426}}, {"type": "Feature", "geometry": {"type": "LineString", "coordinates": [[2.18279, 41.3763198], [2.1826544, 41.3761488], [2.1824967, 41.3759499]]}, "properties": {"highway": "tertiary", "lanes": "2", "layer": "-1", "maxheight": "4.5", "maxspeed": "30", "name": "Moll d'Espanya", "name:ca": "Moll d'Espanya", "name:etymology:wikidata": "Q29", "oneway": "no", "shoulder": "no", "surface": "asphalt", "tunnel": "yes", "length": 47.85090565625756}}, {"type": "Feature", "geometry": {"type": "LineString", "coordinates": [[2.113257, 41.3990612], [2.1131212, 41.3985255], [2.1128479, 41.3980456], [2.1126065, 41.3977488], [2.1124675, 41.3975711], [2.1121099, 41.3970711], [2.1117789, 41.3966614], [2.1113242, 41.3962035], [2.1111387, 41.3959761], [2.1108546, 41.39568], [2.1107021, 41.3955049], [2.1102323, 41.3948172], [2.1099424, 41.3942568], [2.1095171, 41.3934319]]}, "properties": {"bicycle": "no", "foot": "no", "highway": "trunk", "horse": "no", "lanes": "3", "layer": "-1", "lit": "yes", "maxspeed": "80", "motorroad": "yes", "name": "Ronda de Dalt", "name:ca": "Ronda de Dalt", "old_ref": "B-20", "oneway": "yes", "ref": "B-20", "tunnel": "yes", "wikidata": "Q924181", "wikipedia": "ca:Ronda de Dalt", "length": 704.3790003173067}}, {"type": "Feature", "geometry": {"type": "LineString", "coordinates": [[2.0960849, 41.4774236], [2.0967172, 41.4769037]]}, "properties": {"highway": "secondary", "lanes": "2", "layer": "-1", "maxspeed": "50", "name": "Carrer Cald\u00e9s i Ar\u00fas", "name:ca": "Carrer Cald\u00e9s i Ar\u00fas", "ref": "BP-1503", "tunnel": "yes", "length": 78.25176044128553}}, {"type": "Feature", "geometry": {"type": "LineString", "coordinates": [[2.1480111, 41.3740988], [2.1483119, 41.374344], [2.1485933, 41.3745262], [2.1487656, 41.3745944], [2.14893, 41.3746236], [2.149095, 41.3746344], [2.1492046, 41.3746427], [2.1493201, 41.3746652], [2.1494055, 41.374693], [2.1494751, 41.3747275], [2.1495518, 41.3747825], [2.1496081, 41.3748435], [2.1496544, 41.3749155], [2.1497244, 41.375112], [2.1497887, 41.3752635], [2.1498154, 41.3753145], [2.14985, 41.3753808]]}, "properties": {"highway": "primary", "lanes": "3", "layer": "-1", "lit": "yes", "maxspeed": "40", "name": "Gran Via de les Corts Catalanes", "name:ca": "Gran Via de les Corts Catalanes", "name:etymology:wikidata": "Q1902969", "oneway": "yes", "ref": "C-31", "surface": "asphalt", "tunnel": "yes", "width": "7", "wikidata": "Q263293", "wikipedia": "ca:Gran Via de les Corts Catalanes", "length": 226.59460793177038}}, {"type": "Feature", "geometry": {"type": "LineString", "coordinates": [[2.1347056, 41.3662088], [2.1341115, 41.3670183], [2.1334317, 41.368073], [2.1330013, 41.3689471], [2.132122, 41.37122]]}, "properties": {"bicycle": "no", "foot": "no", "hazmat": "no", "highway": "primary", "horse": "no", "lane_markings": "no", "layer": "-2", "maxheight": "4", "maxspeed": "60", "name": "Ronda del Mig", "name:ca": "Ronda del Mig", "oneway": "yes", "surface": "asphalt", "tunnel": "yes", "length": 599.4177156838167}}, {"type": "Feature", "geometry": {"type": "LineString", "coordinates": [[2.129028, 41.3798716], [2.1286123, 41.3811167], [2.1278177, 41.3833306], [2.1275409, 41.3842373], [2.1273436, 41.3851789]]}, "properties": {"bicycle": "no", "foot": "no", "hazmat": "no", "highway": "primary", "horse": "no", "layer": "-1", "maxheight": "4", "maxspeed": "60", "name": "Ronda del Mig", "name:ca": "Ronda del Mig", "oneway": "yes", "tunnel": "yes", "length": 606.4875507430626}}, {"type": "Feature", "geometry": {"type": "LineString", "coordinates": [[2.1320094, 41.3711316], [2.1322013, 41.37064], [2.1328734, 41.3689187], [2.133303, 41.3680367], [2.1339925, 41.3669737], [2.1346023, 41.3661678]]}, "properties": {"bicycle": "no", "foot": "no", "hazmat": "no", "highway": "primary", "horse": "no", "layer": "-2", "maxheight": "4", "maxspeed": "60", "name": "Ronda del Mig", "name:ca": "Ronda del Mig", "oneway": "yes", "surface": "asphalt", "tunnel": "yes", "length": 594.9414210622883}}, {"type": "Feature", "geometry": {"type": "LineString", "coordinates": [[2.127226, 41.3851179], [2.1272947, 41.384709], [2.1274149, 41.3841659], [2.1284987, 41.3810481], [2.1287877, 41.3802275], [2.1289243, 41.3798396], [2.128939, 41.3797913]]}, "properties": {"bicycle": "no", "foot": "no", "hazmat": "no", "highway": "primary", "horse": "no", "layer": "-1", "maxheight": "4", "maxspeed": "60", "name": "Ronda del Mig", "name:ca": "Ronda del Mig", "oneway": "yes", "tunnel": "yes", "length": 609.2246966329924}}, {"type": "Feature", "geometry": {"type": "LineString", "coordinates": [[2.1134757, 41.399511], [2.1135376, 41.399762]]}, "properties": {"bicycle": "no", "foot": "no", "highway": "trunk", "horse": "no", "lanes": "3", "layer": "-1", "lit": "yes", "maxspeed": "80", "motorroad": "yes", "name": "Ronda de Dalt", "name:ca": "Ronda de Dalt", "old_ref": "B-20", "oneway": "yes", "ref": "B-20", "tunnel": "yes", "wikidata": "Q924181", "wikipedia": "ca:Ronda de Dalt", "length": 28.35300041286741}}, {"type": "Feature", "geometry": {"type": "LineString", "coordinates": [[2.1133896, 41.3997961], [2.113324, 41.3995182]]}, "properties": {"bicycle": "no", "foot": "no", "highway": "trunk", "horse": "no", "lanes": "3", "layer": "-1", "lit": "yes", "maxspeed": "80", "motorroad": "yes", "name": "Ronda de Dalt", "name:ca": "Ronda de Dalt", "old_ref": "B-20", "oneway": "yes", "ref": "B-20", "tunnel": "yes", "wikidata": "Q924181", "wikipedia": "ca:Ronda de Dalt", "length": 31.347763768881418}}, {"type": "Feature", "geometry": {"type": "LineString", "coordinates": [[2.0783332, 41.4686034], [2.0783392, 41.468377], [2.0783499, 41.4682906], [2.0784063, 41.4681459]]}, "properties": {"highway": "tertiary", "layer": "-1", "maxspeed": "30", "name": "Avinguda de Llu\u00eds Companys", "name:ca": "Avinguda de Llu\u00eds Companys", "name:etymology:wikidata": "Q7981", "oneway": "yes", "surface": "asphalt", "tunnel": "yes", "length": 51.53424469585821}}, {"type": "Feature", "geometry": {"type": "LineString", "coordinates": [[2.1957327, 41.4388207], [2.1956055, 41.4388684], [2.1955135, 41.4389718], [2.1954922, 41.4391098], [2.1955555, 41.4392883]]}, "properties": {"bicycle": "no", "foot": "no", "highway": "trunk_link", "layer": "-1", "maxspeed": "50", "oneway": "yes", "tunnel": "yes", "length": 61.64577432210346}}, {"type": "Feature", "geometry": {"type": "LineString", "coordinates": [[2.1045933, 41.4110616], [2.1058205, 41.4098965], [2.1068694, 41.4091635], [2.1081861, 41.4084292], [2.1100222, 41.4076999], [2.1127219, 41.4070799], [2.1147061, 41.4065727], [2.1150597, 41.4064209]]}, "properties": {"bicycle": "no", "foot": "no", "highway": "trunk", "int_ref": "E 09", "lanes": "2", "lanes:backward": "1", "lanes:forward": "1", "lanes:reversible": "1", "layer": "-1", "lit": "yes", "maxheight": "4", "maxspeed": "80", "maxweight": "20", "name": "T\u00fanel de Vallvidrera", "name:ca": "T\u00fanel de Vallvidrera", "oneway": "no", "ref": "C-16", "toll": "yes", "tunnel": "yes", "wikidata": "Q3542197", "wikipedia": "ca:T\u00fanels de Vallvidrera", "length": 1040.6453109646454}}, {"type": "Feature", "geometry": {"type": "LineString", "coordinates": [[2.0819899, 41.4317097], [2.0818025, 41.4316796], [2.0816958, 41.4316624]]}, "properties": {"bicycle": "yes", "cycleway": "no", "highway": "secondary", "layer": "-1", "maxspeed": "30", "name": "Carretera de Sarria a Vallvidrera", "oneway": "no", "ref": "BV-1462", "ref:colour": "yellow", "ref:colour_tx": "black", "surface": "asphalt", "tunnel": "yes", "length": 25.13706329254292}}, {"type": "Feature", "geometry": {"type": "LineString", "coordinates": [[2.1324353, 41.3706887], [2.132122, 41.37122]]}, "properties": {"bicycle": "no", "foot": "no", "hazmat": "no", "highway": "primary_link", "horse": "no", "lane_markings": "no", "maxheight": "4", "maxspeed": "50", "name": "Rambla de Badal", "oneway": "yes", "surface": "asphalt", "tunnel": "yes", "length": 64.5664366621163}}, {"type": "Feature", "geometry": {"type": "LineString", "coordinates": [[2.1415293, 41.4232275], [2.1423327, 41.4246276]]}, "properties": {"bicycle": "no", "foot": "no", "highway": "trunk", "horse": "no", "lanes": "3", "layer": "-1", "lit": "yes", "maxheight": "4.5", "maxspeed": "80", "motorroad": "yes", "name": "Ronda de Dalt", "name:ca": "Ronda de Dalt", "old_ref": "B-20", "oneway": "yes", "ref": "B-20", "tunnel": "yes", "wikidata": "Q924181", "wikipedia": "ca:Ronda de Dalt", "length": 169.38126732208835}}, {"type": "Feature", "geometry": {"type": "LineString", "coordinates": [[2.1047576, 41.3714405], [2.1050946, 41.3718299]]}, "properties": {"cycleway:right": "no", "highway": "tertiary", "lanes": "2", "layer": "-1", "lit": "yes", "maxheight": "4.4", "maxspeed": "50", "name": "Avinguda d'Isabel la Cat\u00f2lica", "name:ca": "Avinguda d'Isabel la Cat\u00f2lica", "name:etymology:wikidata": "Q45859", "oneway": "yes", "parking:lane:both": "no", "surface": "asphalt", "tunnel": "yes", "length": 51.625617425552534}}, {"type": "Feature", "geometry": {"type": "LineString", "coordinates": [[2.1276536, 41.3588345], [2.1272204, 41.358509], [2.1270263, 41.3583628]]}, "properties": {"highway": "motorway", "lanes": "3", "layer": "-2", "maxheight": "4.5", "maxspeed": "80", "maxspeed:type": "sign", "name": "Autovia de Castelldefels", "name:ca": "Autovia de Castelldefels", "oneway": "yes", "ref": "C-31", "tunnel": "yes", "length": 74.16021782183063}}, {"type": "Feature", "geometry": {"type": "LineString", "coordinates": [[2.1221198, 41.3546783], [2.1213917, 41.3541448]]}, "properties": {"highway": "motorway", "lanes": "3", "layer": "-2", "maxheight": "4.5", "maxspeed": "80", "name": "Autovia de Castelldefels", "name:ca": "Autovia de Castelldefels", "oneway": "yes", "ref": "C-31", "tunnel": "yes", "length": 84.98868960036164}}, {"type": "Feature", "geometry": {"type": "LineString", "coordinates": [[2.1335987, 41.363255], [2.1339641, 41.3635706]]}, "properties": {"bicycle": "no", "foot": "no", "highway": "trunk", "lanes": "3", "layer": "-1", "lit": "yes", "maxheight": "default", "maxspeed": "50", "name": "Avinguda de la Granvia de l'Hospitalet", "name:ca": "Avinguda de la Granvia de l'Hospitalet", "oneway": "yes", "ref": "C-31", "tunnel": "yes", "length": 46.511297994036475}}, {"type": "Feature", "geometry": {"type": "LineString", "coordinates": [[2.1161325, 41.3646835], [2.116576, 41.3648889]]}, "properties": {"highway": "tertiary", "lanes": "2", "lanes:backward": "1", "lanes:forward": "1", "layer": "-1", "maxheight": "default", "maxspeed": "30", "name": "Carrer de Santa Eul\u00e0lia", "name:ca": "Carrer de Santa Eul\u00e0lia", "oneway": "no", "parking:lane": "no_parking", "surface": "asphalt", "tunnel": "yes", "length": 43.55856103738229}}, {"type": "Feature", "geometry": {"type": "LineString", "coordinates": [[2.2130205, 41.4232547], [2.2128867, 41.423141], [2.2124091, 41.4227694], [2.2118098, 41.4223177]]}, "properties": {"bicycle": "no", "foot": "no", "highway": "trunk_link", "lanes": "1", "layer": "-1", "maxspeed": "80", "oneway": "yes", "tunnel": "yes", "length": 145.18940319411604}}, {"type": "Feature", "geometry": {"type": "LineString", "coordinates": [[2.13146, 41.3726583], [2.1317409, 41.3717806], [2.1319743, 41.3712164], [2.1320094, 41.3711316]]}, "properties": {"bicycle": "no", "foot": "no", "hazmat": "no", "highway": "primary", "horse": "no", "layer": "-2", "maxheight": "4", "maxspeed": "60", "name": "Ronda del Mig", "name:ca": "Ronda del Mig", "oneway": "yes", "tunnel": "yes", "length": 175.76884171093906}}, {"type": "Feature", "geometry": {"type": "LineString", "coordinates": [[2.132122, 41.37122], [2.1315593, 41.3727029]]}, "properties": {"bicycle": "no", "foot": "no", "hazmat": "no", "highway": "primary", "horse": "no", "layer": "-2", "maxheight": "4", "maxspeed": "60", "name": "Ronda del Mig", "name:ca": "Ronda del Mig", "oneway": "yes", "surface": "asphalt", "tunnel": "yes", "length": 171.288489128703}}, {"type": "Feature", "geometry": {"type": "LineString", "coordinates": [[2.2220169, 41.4085326], [2.222181, 41.4088412]]}, "properties": {"highway": "secondary", "lanes": "3", "lanes:backward": "1", "lanes:forward": "2", "layer": "-1", "level": "-1", "lit": "yes", "maxheight": "4.5", "maxspeed": "50", "name": "Avinguda del Litoral", "name:ca": "Avinguda del Litoral", "oneway": "no", "surface": "asphalt", "tunnel": "yes", "length": 36.91814417367742}}, {"type": "Feature", "geometry": {"type": "LineString", "coordinates": [[2.1173693, 41.4048357], [2.1174177, 41.4047525], [2.1174293, 41.4046334], [2.1174157, 41.4045379], [2.1173667, 41.404422], [2.1173239, 41.4043637], [2.1172759, 41.4043077]]}, "properties": {"bicycle": "no", "destination": "Ronda de Dalt;Llobregat", "destination:ref": "B-20", "foot": "no", "highway": "trunk_link", "lanes": "1", "layer": "-1", "lit": "yes", "maxspeed": "50", "oneway": "yes", "tunnel": "yes", "length": 62.32664673677593}}, {"type": "Feature", "geometry": {"type": "LineString", "coordinates": [[2.069233, 41.4483642], [2.0696406, 41.4488707]]}, "properties": {"bicycle": "yes", "highway": "secondary", "lanes": "2", "layer": "-1", "name": "Carretera de Vallvidrera", "name:ca": "Carretera de Vallvidrera", "oneway": "no", "ref": "BV-1462", "ref:colour": "yellow", "ref:colour_tx": "black", "surface": "asphalt", "tunnel": "yes", "length": 65.76093960390953}}, {"type": "Feature", "geometry": {"type": "LineString", "coordinates": [[2.1662966, 41.4138946], [2.166431, 41.4137161]]}, "properties": {"bicycle": "no", "foot": "no", "hazmat": "no", "highway": "secondary", "lanes": "3", "layer": "-5", "lit": "yes", "location": "underground", "maxspeed": "60", "name": "T\u00fanel de la Rovira", "name:ca": "T\u00fanel de la Rovira", "oneway": "yes", "surface": "asphalt", "tunnel": "yes", "length": 22.78766000651241}}, {"type": "Feature", "geometry": {"type": "LineString", "coordinates": [[2.1159228, 41.4027428], [2.1159405, 41.4027647], [2.115959, 41.4027925], [2.1159856, 41.402839], [2.116005, 41.4028768], [2.1160254, 41.4029107], [2.1160484, 41.4029492], [2.1160974, 41.4030108]]}, "properties": {"bicycle": "no", "foot": "no", "highway": "trunk_link", "lanes": "1", "layer": "-1", "lit": "yes", "maxspeed": "80", "oneway": "yes", "ref": "9", "tunnel": "yes", "length": 33.22074791767375}}, {"type": "Feature", "geometry": {"type": "LineString", "coordinates": [[2.1159201, 41.4030502], [2.115882, 41.4030275], [2.1158504, 41.4030107], [2.1158088, 41.4029901], [2.1157691, 41.4029703], [2.1157397, 41.402955], [2.1157143, 41.4029406], [2.1156817, 41.4029223], [2.1156477, 41.4029006]]}, "properties": {"bicycle": "no", "foot": "no", "highway": "trunk_link", "lanes": "1", "layer": "-1", "lit": "yes", "maxspeed": "50", "name": "Sarri\u00e0", "name:ca": "Sarri\u00e0", "oneway": "yes", "ref": "9", "tunnel": "yes", "length": 28.21782857786202}}, {"type": "Feature", "geometry": {"type": "LineString", "coordinates": [[2.1159201, 41.4030502], [2.115718, 41.402857]]}, "properties": {"bicycle": "no", "foot": "no", "highway": "trunk", "horse": "no", "lanes": "3", "layer": "-1", "lit": "yes", "maxspeed": "80", "motorroad": "yes", "name": "Ronda de Dalt", "name:ca": "Ronda de Dalt", "old_ref": "B-20", "oneway": "yes", "ref": "B-20", "tunnel": "yes", "wikidata": "Q924181", "wikipedia": "ca:Ronda de Dalt", "length": 27.313172184175883}}, {"type": "Feature", "geometry": {"type": "LineString", "coordinates": [[2.2225182, 41.4123342], [2.2220846, 41.4116543]]}, "properties": {"highway": "secondary", "lanes": "1", "layer": "-1", "maxspeed": "50", "name": "Passeig de Garcia F\u00e0ria", "name:ca": "Passeig de Garcia F\u00e0ria", "oneway": "yes", "surface": "asphalt", "tunnel": "yes", "length": 83.76264271336875}}, {"type": "Feature", "geometry": {"type": "LineString", "coordinates": [[2.1845941, 41.4015672], [2.1849345, 41.4018073], [2.1855833, 41.4022648], [2.1862888, 41.4027623], [2.1871831, 41.4034313], [2.1879826, 41.4041302], [2.1919788, 41.407132]]}, "properties": {"bicycle": "no", "foot": "no", "hazmat": "no", "highway": "primary", "lanes": "3", "layer": "-4", "lit": "yes", "maxheight": "5", "maxspeed": "50", "name": "T\u00fanel Gl\u00f2ries", "name:ca": "T\u00fanel Gl\u00f2ries", "oneway": "yes", "opening_date": "2021-11-06", "psv:lanes:forward": "yes|yes|designated", "ref": "C-31", "surface": "concrete", "tunnel": "yes", "wikidata": "Q23499067", "wikipedia": "ca:T\u00fanels de les Gl\u00f2ries Catalanes", "length": 874.044766315814}}, {"type": "Feature", "geometry": {"type": "LineString", "coordinates": [[2.1925836, 41.4077563], [2.1923627, 41.4075788], [2.1908423, 41.4064553], [2.1890935, 41.405151], [2.1878961, 41.4042175], [2.1864876, 41.4031293], [2.1849623, 41.4019852], [2.1844989, 41.401651]]}, "properties": {"bicycle": "no", "foot": "no", "hazmat": "no", "highway": "primary", "lanes": "3", "layer": "-4", "lit": "yes", "maxheight": "5", "maxspeed": "50", "name": "T\u00fanel Gl\u00f2ries", "name:ca": "T\u00fanel Gl\u00f2ries", "oneway": "yes", "opening_date": "2022-04-03", "psv:lanes:forward": "designated|yes|yes|", "ref": "C-31", "surface": "concrete", "tunnel": "yes", "wikidata": "Q23499067", "wikipedia": "ca:T\u00fanels de les Gl\u00f2ries Catalanes", "length": 957.5630243902499}}, {"type": "Feature", "geometry": {"type": "LineString", "coordinates": [[2.1748195, 41.4447383], [2.1744853, 41.4446162]]}, "properties": {"bicycle": "no", "foot": "no", "highway": "trunk", "horse": "no", "lanes": "3", "layer": "-1", "lit": "yes", "maxspeed": "80", "motorroad": "yes", "name": "Ronda de Dalt", "name:ca": "Ronda de Dalt", "old_ref": "B-20", "oneway": "yes", "ref": "B-20", "tunnel": "yes", "wikidata": "Q924181", "wikipedia": "ca:Ronda de Dalt", "length": 31.046340813325898}}, {"type": "Feature", "geometry": {"type": "LineString", "coordinates": [[2.1747825, 41.444793], [2.1744853, 41.4446162]]}, "properties": {"bicycle": "no", "foot": "no", "highway": "trunk_link", "layer": "-1", "lit": "yes", "oneway": "yes", "tunnel": "yes", "length": 31.66072390327198}}, {"type": "Feature", "geometry": {"type": "LineString", "coordinates": [[2.1967664, 41.4478541], [2.1966488, 41.4472542], [2.1966246, 41.4471942]]}, "properties": {"bicycle": "no", "foot": "no", "highway": "trunk_link", "lanes": "2", "layer": "-1", "maxspeed": "50", "motorroad": "no", "oneway": "yes", "tunnel": "yes", "length": 74.31109941638255}}, {"type": "Feature", "geometry": {"type": "LineString", "coordinates": [[2.1963046, 41.4474673], [2.1963887, 41.4474493], [2.196465, 41.4474115], [2.196515, 41.447363], [2.1965473, 41.4472932], [2.19655, 41.4472265], [2.1965325, 41.4471577]]}, "properties": {"bicycle": "no", "foot": "no", "highway": "trunk_link", "lanes": "1", "layer": "-1", "maxspeed": "20", "oneway": "yes", "tunnel": "yes", "length": 45.15716891219141}}, {"type": "Feature", "geometry": {"type": "LineString", "coordinates": [[2.1919788, 41.407132], [2.1925949, 41.4076207], [2.1926853, 41.4076832]]}, "properties": {"bicycle": "no", "foot": "no", "hazmat": "no", "highway": "primary", "lanes": "3", "layer": "-4", "lit": "yes", "maxheight": "5", "maxspeed": "50", "name": "T\u00fanel Gl\u00f2ries", "name:ca": "T\u00fanel Gl\u00f2ries", "oneway": "yes", "ref": "C-31", "surface": "concrete", "tunnel": "yes", "wikidata": "Q23499067", "wikipedia": "ca:T\u00fanels de les Gl\u00f2ries Catalanes", "length": 85.09351127519992}}, {"type": "Feature", "geometry": {"type": "LineString", "coordinates": [[2.1765085, 41.3727094], [2.176588, 41.3728254], [2.1770225, 41.3733367], [2.1771245, 41.3734615], [2.17717, 41.3735371], [2.177191, 41.3735809], [2.1772027, 41.3737018], [2.1771924, 41.3738981]]}, "properties": {"bicycle": "no", "foot": "no", "highway": "trunk", "horse": "no", "lanes": "2", "layer": "-1", "lit": "yes", "maxheight": "4.5", "maxspeed": "60", "motorroad": "yes", "name": "Ronda Litoral", "name:ca": "Ronda Litoral", "oneway": "yes", "ref": "B-10", "tunnel": "yes", "wikidata": "Q2714667", "wikipedia": "ca:Ronda del Litoral", "length": 147.87051052187243}}, {"type": "Feature", "geometry": {"type": "LineString", "coordinates": [[2.1771374, 41.3738999], [2.177133, 41.3736733], [2.1770872, 41.373581], [2.1770222, 41.3734902], [2.1768891, 41.3733169], [2.1765158, 41.3728992], [2.1763825, 41.3727673]]}, "properties": {"bicycle": "no", "foot": "no", "highway": "trunk", "horse": "no", "lanes": "2", "layer": "-1", "lit": "yes", "maxheight": "4.5", "maxspeed": "60", "motorroad": "yes", "name": "Ronda Litoral", "name:ca": "Ronda Litoral", "oneway": "yes", "ref": "B-10", "tunnel": "yes", "wikidata": "Q2714667", "wikipedia": "ca:Ronda del Litoral", "length": 144.13909437009642}}, {"type": "Feature", "geometry": {"type": "LineString", "coordinates": [[2.1946502, 41.4367866], [2.1949135, 41.4375796]]}, "properties": {"bicycle": "no", "foot": "no", "highway": "trunk_link", "lanes": "2", "layer": "-1", "maxspeed": "50", "oneway": "yes", "surface": "paved", "tunnel": "yes", "length": 90.78001864364272}}, {"type": "Feature", "geometry": {"type": "LineString", "coordinates": [[2.2204773, 41.4621045], [2.2209662, 41.4620352], [2.2223273, 41.4618141]]}, "properties": {"alt_name": "t\u00fanel de Can Butiny\u00e0", "highway": "motorway", "lanes": "3", "layer": "-1", "lit": "yes", "maxspeed": "80", "name": "T\u00fanel de la Pallaresa", "name:ca": "T\u00fanel de la Pallaresa", "name:etymology:wikidata": "Q9088837", "name:wikipedia": "ca:Torre Pallaresa", "old_ref": "B-20", "oneway": "yes", "ref": "B-20", "surface": "paved", "tunnel": "yes", "length": 157.8982810722049}}, {"type": "Feature", "geometry": {"type": "LineString", "coordinates": [[2.1271458, 41.3582585], [2.1279062, 41.3588301]]}, "properties": {"highway": "motorway", "lanes": "3", "layer": "-2", "maxheight": "default", "maxspeed": "80", "name": "Autovia de Castelldefels", "name:ca": "Autovia de Castelldefels", "oneway": "yes", "ref": "C-31", "tunnel": "yes", "length": 89.88098839831565}}, {"type": "Feature", "geometry": {"type": "LineString", "coordinates": [[2.1288553, 41.3595399], [2.1289139, 41.3595838], [2.1297199, 41.3602044]]}, "properties": {"highway": "motorway", "lanes": "3", "layer": "-2", "maxheight": "default", "maxspeed": "80", "name": "Autovia de Castelldefels", "name:ca": "Autovia de Castelldefels", "oneway": "yes", "ref": "C-31", "tunnel": "yes", "length": 103.34664233211201}}, {"type": "Feature", "geometry": {"type": "LineString", "coordinates": [[2.1401248, 41.4203092], [2.1402879, 41.4206515]]}, "properties": {"bicycle": "no", "foot": "no", "highway": "trunk", "horse": "no", "lanes": "3", "layer": "-1", "lit": "yes", "maxheight": "4.5", "maxspeed": "80", "motorroad": "yes", "name": "Ronda de Dalt", "name:ca": "Ronda de Dalt", "old_ref": "B-20", "oneway": "yes", "ref": "B-20", "tunnel": "yes", "wikidata": "Q924181", "wikipedia": "ca:Ronda de Dalt", "length": 40.38770649808109}}, {"type": "Feature", "geometry": {"type": "LineString", "coordinates": [[2.1401924, 41.4206754], [2.1400287, 41.420336]]}, "properties": {"bicycle": "no", "foot": "no", "highway": "trunk", "horse": "no", "lanes": "3", "layer": "-1", "lit": "yes", "maxheight": "4.5", "maxspeed": "80", "motorroad": "yes", "name": "Ronda de Dalt", "name:ca": "Ronda de Dalt", "old_ref": "B-20", "oneway": "yes", "ref": "B-20", "tunnel": "yes", "wikidata": "Q924181", "wikipedia": "ca:Ronda de Dalt", "length": 40.101771136045095}}]}