{"type": "FeatureCollection", "features": [{"type": "Feature", "geometry": {"type": "LineString", "coordinates": [[18.0078888, 59.3271899], [18.0083187, 59.3276116], [18.0086384, 59.32805], [18.0092516, 59.3289366]]}, "properties": {"change:lanes": "yes|yes|not_right|no", "highway": "motorway", "int_ref": "E 04;E 20", "lanes": "4", "layer": "-1", "lit": "24/7", "maxspeed": "70", "name": "Fredh\u00e4llstunneln", "oneway": "yes", "ref": "E 4;E 20", "start_date": "1966", "surface": "asphalt", "tunnel": "yes", "turn:lanes": "through|through|through|through;slight_right", "wikidata": "Q10498702", "wikipedia": "sv:Fredh\u00e4llstunneln", "length": 209.84465532092588}}, {"type": "Feature", "geometry": {"type": "LineString", "coordinates": [[18.012975, 59.3786904], [18.0121134, 59.378509]]}, "properties": {"foot": "no", "highway": "secondary", "lanes": "4", "layer": "-1", "maxheight": "4.7", "maxspeed": "50", "name": "Bergshamrav\u00e4gen", "oneway": "yes", "source:maxheight": "laser_rangefinder", "surface": "asphalt", "tunnel": "yes", "turn:lanes": "through|through|right|right", "length": 52.98134686056407}}, {"type": "Feature", "geometry": {"type": "LineString", "coordinates": [[18.0122433, 59.3783856], [18.0131103, 59.3785716]]}, "properties": {"foot": "no", "highway": "trunk", "int_ref": "E 18", "lanes": "3", "layer": "-1", "maxheight": "4.7", "maxspeed": "50", "name": "Bergshamrav\u00e4gen", "oneway": "yes", "ref": "E 18", "source:maxheight": "laser_rangefinder", "surface": "asphalt", "tunnel": "yes", "turn:lanes": "left||", "length": 53.4619044155667}}, {"type": "Feature", "geometry": {"type": "LineString", "coordinates": [[18.065169, 59.3332499], [18.0657031, 59.3322105]]}, "properties": {"bicycle": "no", "foot": "no", "highway": "secondary", "lanes": "1", "layer": "-1", "lit": "24/7", "maxheight": "3", "maxspeed": "50", "name": "Klaratunneln", "oneway": "yes", "start_date": "1976", "surface": "asphalt", "tunnel": "yes", "wikidata": "Q10546062", "wikipedia": "sv:Klaratunneln", "length": 119.71446419831769}}, {"type": "Feature", "geometry": {"type": "LineString", "coordinates": [[18.0720645, 59.3132154], [18.0724293, 59.3125626], [18.073301, 59.310768], [18.0744241, 59.3081743], [18.075159, 59.3065603]]}, "properties": {"bicycle": "no", "foot": "no", "highway": "trunk", "lanes": "2", "layer": "-2", "lit": "24/7", "maxheight": "4.5", "maxspeed": "60", "name": "S\u00f6derledstunneln", "oneway": "yes", "ref": "E 4.25", "sidewalk": "no", "source": "interpolation", "surface": "asphalt", "tunnel": "yes", "wikidata": "Q847218", "wikipedia": "sv:S\u00f6derledstunneln", "length": 762.1690490696648}}, {"type": "Feature", "geometry": {"type": "LineString", "coordinates": [[18.0089922, 59.3289799], [18.0087129, 59.3285915], [18.00837, 59.3280977], [18.0080111, 59.3276654], [18.007537, 59.3272295]]}, "properties": {"change:lanes": "yes|yes|not_right|no", "highway": "motorway", "int_ref": "E 04;E 20", "lanes": "4", "layer": "-1", "lit": "24/7", "maxspeed": "70", "name": "Fredh\u00e4llstunneln", "oneway": "yes", "ref": "E 4;E 20", "start_date": "1967", "surface": "asphalt", "tunnel": "yes", "wikidata": "Q10498702", "wikipedia": "sv:Fredh\u00e4llstunneln", "length": 212.3369008905838}}, {"type": "Feature", "geometry": {"type": "LineString", "coordinates": [[18.0512115, 59.3326236], [18.0514887, 59.3322192], [18.0522974, 59.3312606], [18.0534683, 59.3300806], [18.0537611, 59.3298656]]}, "properties": {"bicycle": "no", "cycleway:both": "no", "foot": "no", "highway": "trunk", "lanes": "2", "layer": "-1", "lit": "yes", "maxspeed": "50", "name": "Blekholmstunneln", "oneway": "yes", "ref": "E 4.25", "surface": "asphalt", "tunnel": "yes", "length": 340.58616585800974}}, {"type": "Feature", "geometry": {"type": "LineString", "coordinates": [[18.0534683, 59.3300806], [18.0536209, 59.3298356]]}, "properties": {"highway": "trunk_link", "lanes": "1", "layer": "-1", "lit": "yes", "maxheight": "default", "maxspeed": "50", "name": "Norra Klarabergskopplet", "oneway": "yes", "surface": "asphalt", "tunnel": "yes", "length": 28.64222679288325}}, {"type": "Feature", "geometry": {"type": "LineString", "coordinates": [[18.0686689, 59.3194749], [18.0690404, 59.3187359], [18.0704964, 59.3158392], [18.0711558, 59.3145273]]}, "properties": {"bicycle": "no", "cycleway:both": "no", "foot": "no", "highway": "tertiary", "lane_markings": "no", "layer": "-2", "lit": "yes", "maxheight": "4.5", "maxspeed": "50", "name": "S\u00f6derledstunneln", "oneway": "yes", "surface": "asphalt", "tunnel": "yes", "wikidata": "Q847218", "wikipedia": "sv:S\u00f6derledstunneln", "length": 569.0690372172442}}, {"type": "Feature", "geometry": {"type": "LineString", "coordinates": [[18.0659693, 59.3322515], [18.0656524, 59.3328665], [18.0656144, 59.3329994], [18.0655801, 59.3331406], [18.0655873, 59.3332827], [18.0656144, 59.3334247], [18.0656705, 59.3335816], [18.0657628, 59.3337145], [18.0658876, 59.3338409], [18.0660142, 59.3339544], [18.0661807, 59.3340808], [18.0663417, 59.3341767], [18.0665298, 59.3342727], [18.066765, 59.3343575], [18.0669893, 59.3344221], [18.0671847, 59.3344683], [18.0674578, 59.3345079], [18.0677961, 59.3345411], [18.0689842, 59.3345872], [18.0691652, 59.3345862], [18.0693304, 59.3345672], [18.0694689, 59.3345438], [18.0696265, 59.3344844], [18.0697426, 59.3344267], [18.0698113, 59.3343788], [18.0698457, 59.3343271], [18.0698613, 59.3342273]]}, "properties": {"bicycle": "no", "foot": "no", "highway": "secondary", "lanes": "1", "layer": "-2", "lit": "24/7", "maxheight": "3", "maxspeed": "50", "name": "Klaratunneln", "oneway": "yes", "start_date": "1979", "surface": "asphalt", "tunnel": "yes", "wikidata": "Q10546062", "wikipedia": "sv:Klaratunneln", "length": 462.70849472560684}}, {"type": "Feature", "geometry": {"type": "LineString", "coordinates": [[18.0539624, 59.3299266], [18.0536394, 59.3301811], [18.0516936, 59.3322526], [18.0513375, 59.3326476]]}, "properties": {"bicycle": "no", "cycleway:both": "no", "foot": "no", "highway": "trunk", "lanes": "1", "layer": "-2", "lit": "yes", "maxspeed": "50", "name": "Blekholmstunneln", "oneway": "yes", "ref": "E 4.25", "source": "survey", "tunnel": "yes", "length": 338.20962137615186}}, {"type": "Feature", "geometry": {"type": "LineString", "coordinates": [[18.12063, 59.3088032], [18.1202053, 59.3087021], [18.1198337, 59.3085815], [18.1193266, 59.3084063], [18.1188888, 59.3082198], [18.1184038, 59.3079497], [18.1180416, 59.3076459], [18.1177865, 59.3073999], [18.1175503, 59.3070848]]}, "properties": {"alt_name": "S\u00f6dra l\u00e4nken", "highway": "motorway", "lanes": "2", "layer": "-1", "lit": "24/7", "maxheight": "default", "maxspeed": "70", "name": "Sicklatunneln", "oneway": "yes", "ref": "75", "surface": "asphalt", "tunnel": "yes", "length": 268.1682065694571}}, {"type": "Feature", "geometry": {"type": "LineString", "coordinates": [[18.0391864, 59.2958303], [18.039878, 59.29585], [18.0407035, 59.295897]]}, "properties": {"alt_name": "S\u00f6dra l\u00e4nken", "highway": "motorway", "lanes": "2", "layer": "-1", "length": 86.79815354675063, "lit": "24/7", "maxheight": "4.5", "maxspeed": "70", "name": "Hammarbytunneln", "oneway": "yes", "ref": "75", "surface": "asphalt", "tunnel": "yes"}}, {"type": "Feature", "geometry": {"type": "LineString", "coordinates": [[18.1041724, 59.3006669], [18.0987863, 59.2991154]]}, "properties": {"alt_name": "S\u00f6dra l\u00e4nken", "highway": "motorway", "lanes": "2", "layer": "-1", "length": 352.1973971950126, "lit": "24/7", "maxheight": "4.5", "maxspeed": "70", "name": "\u00c5rstatunneln", "oneway": "yes", "ref": "75", "surface": "asphalt", "tunnel": "yes"}}, {"type": "Feature", "geometry": {"type": "LineString", "coordinates": [[18.0965403, 59.2981607], [18.0981236, 59.298513], [18.0987774, 59.2986284], [18.0992478, 59.2986954], [18.0998374, 59.2987797]]}, "properties": {"destination": "Hammarby Sj\u00f6stad", "highway": "motorway_link", "layer": "-1", "maxheight": "4.5", "maxspeed": "70", "name": "S\u00e5gtunneln", "oneway": "yes", "surface": "asphalt", "tunnel": "yes", "length": 200.48996029463493}}, {"type": "Feature", "geometry": {"type": "LineString", "coordinates": [[18.1012022, 59.3008012], [18.1012152, 59.3006459], [18.101203, 59.3005624], [18.1011373, 59.3004595], [18.1010105, 59.3002879], [18.100841, 59.3001179], [18.1005844, 59.2999268], [18.1002911, 59.2997412], [18.0999444, 59.2995689], [18.09959, 59.2994153], [18.0987863, 59.2991154]]}, "properties": {"highway": "motorway_link", "lane_markings": "no", "layer": "-1", "maxheight": "4.5", "maxspeed": "50", "name": "T\u00e5ngtunneln", "oneway": "yes", "surface": "asphalt", "tunnel": "yes", "length": 243.50020028768546}}, {"type": "Feature", "geometry": {"type": "LineString", "coordinates": [[18.093251, 59.2975818], [18.0925605, 59.2974445], [18.0917479, 59.29734], [18.090972, 59.2972667], [18.0901227, 59.2972121], [18.0894139, 59.2971788], [18.0886991, 59.2971216], [18.088195, 59.297053], [18.087639, 59.2969267], [18.0870647, 59.2967566], [18.0865484, 59.2965663], [18.0859466, 59.296298], [18.0855738, 59.2961077], [18.0852042, 59.2958831], [18.0848804, 59.2956179], [18.0846329, 59.2953543], [18.0844536, 59.2951036], [18.0843142, 59.2948447], [18.0842552, 59.2946174], [18.0842122, 59.2943886], [18.084231, 59.2941627], [18.0843692, 59.2935506]]}, "properties": {"destination": "Globen; Nyn\u00e4shamn", "highway": "motorway_link", "layer": "-2", "maxheight": "default", "maxspeed": "70", "name": "M\u00e5lartunneln", "oneway": "yes", "surface": "asphalt", "tunnel": "yes", "length": 784.1726124342774}}, {"type": "Feature", "geometry": {"type": "LineString", "coordinates": [[18.0843692, 59.2935506], [18.084805, 59.2929889], [18.0852181, 59.2924287], [18.0854863, 59.2920547], [18.0857558, 59.291689], [18.0862265, 59.2911075], [18.0863386, 59.290924], [18.0865377, 59.29055]]}, "properties": {"highway": "motorway_link", "layer": "-2", "maxheight": "default", "maxspeed": "70", "name": "Skeppartunneln", "oneway": "yes", "surface": "asphalt", "tunnel": "yes", "length": 356.6485669398838}}, {"type": "Feature", "geometry": {"type": "LineString", "coordinates": [[18.0850794, 59.2936731], [18.0850281, 59.2937979], [18.0850123, 59.2939004], [18.0850202, 59.2940645], [18.0850611, 59.2944738], [18.08508, 59.2947721], [18.0850517, 59.2949916], [18.084995, 59.295183]]}, "properties": {"highway": "motorway_link", "layer": "-1", "maxheight": "default", "maxspeed": "70", "name": "Bagartunneln", "oneway": "yes", "surface": "asphalt", "tunnel": "yes", "length": 168.9216808821193}}, {"type": "Feature", "geometry": {"type": "LineString", "coordinates": [[18.077186, 59.2961352], [18.0786654, 59.2960568], [18.0795532, 59.2959993], [18.0802828, 59.2959185], [18.0808943, 59.2958116], [18.0814576, 59.2956706], [18.0820906, 59.295472], [18.0826753, 59.2951981], [18.0831635, 59.2949009], [18.0835015, 59.2946365], [18.0837804, 59.2943681]]}, "properties": {"destination": "Nyn\u00e4shamn; Globen", "highway": "motorway_link", "layer": "-1", "maxheight": "4.5", "maxspeed": "70", "name": "Sotartunneln", "oneway": "yes", "surface": "asphalt", "tunnel": "yes", "length": 450.62582723578765}}, {"type": "Feature", "geometry": {"type": "LineString", "coordinates": [[18.0650744, 59.296372], [18.0627465, 59.296669], [18.0618909, 59.2967566], [18.0612016, 59.2967854], [18.060759, 59.2967799], [18.060303, 59.2967484]]}, "properties": {"destination": "Huddinge;\u00c4lvsj\u00f6;\u00c4lvsj\u00f6m\u00e4ssan", "highway": "motorway_link", "lanes": "1", "layer": "-1", "lit": "24/7", "maxheight": "4.5", "maxspeed": "70", "name": "Koppartunneln", "oneway": "yes", "surface": "asphalt", "tunnel": "yes", "length": 277.2805127324988}}, {"type": "Feature", "geometry": {"type": "LineString", "coordinates": [[18.0485749, 59.296156], [18.0502126, 59.2960814], [18.050926, 59.2960308], [18.0516019, 59.2959527], [18.0522081, 59.2958596], [18.0527714, 59.2957527], [18.0533159, 59.2956226]]}, "properties": {"destination": "Huddinge", "highway": "motorway_link", "lanes": "2", "layer": "-1", "maxheight": "4.5", "maxspeed": "70", "name": "Guldtunneln", "oneway": "yes", "ref": "226", "surface": "asphalt", "tunnel": "yes", "length": 278.756488878717}}, {"type": "Feature", "geometry": {"type": "LineString", "coordinates": [[18.0544175, 59.2908088], [18.0556923, 59.2913096], [18.05621, 59.2915685], [18.0566123, 59.2918356], [18.0568537, 59.2920397], [18.0571783, 59.2923862], [18.0575189, 59.2929738], [18.0576424, 59.2932616]]}, "properties": {"highway": "motorway_link", "lanes": "2", "layer": "-2", "maxheight": "4.5", "maxspeed": "70", "name": "Bronstunneln", "oneway": "yes", "ref": "226", "surface": "asphalt", "tunnel": "yes", "length": 340.89964095287627}}, {"type": "Feature", "geometry": {"type": "LineString", "coordinates": [[18.0418655, 59.2961294], [18.039165, 59.2960858]]}, "properties": {"destination": "\u00c5rsta;Hornstull", "highway": "motorway_link", "lanes": "1", "layer": "-1", "lit": "24/7", "maxheight": "4.5", "maxspeed": "70", "oneway": "yes", "ref": "75", "surface": "asphalt", "tunnel": "yes", "length": 153.9539789398437}}, {"type": "Feature", "geometry": {"type": "LineString", "coordinates": [[18.1154888, 59.3042413], [18.1161676, 59.3047183], [18.1168294, 59.3052482], [18.1186546, 59.3069423], [18.119522, 59.3077901], [18.1201207, 59.3082754], [18.1207634, 59.3085895], [18.1211546, 59.308728], [18.1217042, 59.3088655], [18.1224646, 59.3089721]]}, "properties": {"alt_name": "S\u00f6dra l\u00e4nken", "highway": "motorway", "lanes": "2", "layer": "-1", "lit": "24/7", "maxheight": "default", "maxspeed": "70", "name": "Nackatunneln", "note": "Only approximate location, please adjust if you have better data", "oneway": "yes", "ref": "75", "source": "yahoo + survey", "surface": "asphalt", "tunnel": "yes", "length": 679.2450336945535}}, {"type": "Feature", "geometry": {"type": "LineString", "coordinates": [[18.0850794, 59.2936731], [18.0850911, 59.2940371], [18.0851478, 59.2942824], [18.0853276, 59.2946451], [18.085488, 59.294861], [18.0856722, 59.2950742], [18.0859219, 59.295293], [18.0861972, 59.2955006], [18.0864962, 59.29567], [18.0868736, 59.2958618], [18.0872255, 59.2960126], [18.0876485, 59.2961578], [18.0881115, 59.2962844], [18.0886621, 59.2964082], [18.0898946, 59.2966596]]}, "properties": {"highway": "motorway_link", "layer": "-1", "maxheight": "4.5", "maxspeed": "70", "name": "Murartunneln", "oneway": "yes", "surface": "asphalt", "tunnel": "yes", "length": 468.3385350360264}}, {"type": "Feature", "geometry": {"type": "LineString", "coordinates": [[18.0864935, 59.29126], [18.0860092, 59.2918603], [18.0857871, 59.2921393], [18.0856281, 59.2923709], [18.0854501, 59.2926644], [18.0852375, 59.2931003], [18.0851163, 59.2934396], [18.0850794, 59.2936731]]}, "properties": {"highway": "motorway_link", "layer": "-1", "maxheight": "default", "maxspeed": "70", "name": "Skr\u00e4ddartunneln", "oneway": "yes", "surface": "asphalt", "tunnel": "yes", "length": 282.0511023031121}}, {"type": "Feature", "geometry": {"type": "LineString", "coordinates": [[18.0682865, 59.3204767], [18.068316, 59.3204611], [18.0683583, 59.320456], [18.0684134, 59.3204529], [18.0684804, 59.320458], [18.0685495, 59.3204712], [18.0686473, 59.3204847], [18.0687232, 59.3205057], [18.0687714, 59.3205319], [18.0688048, 59.3205583], [18.0688251, 59.3205908], [18.0688318, 59.3206065], [18.0688344, 59.3206275]]}, "properties": {"foot": "no", "highway": "trunk_link", "layer": "-3", "lit": "24/7", "maxheight": "3.5", "maxspeed": "50", "name": "Riddarfj\u00e4rdsp\u00e5farten", "oneway": "yes", "surface": "asphalt", "tunnel": "yes", "length": 42.231505765226615}}, {"type": "Feature", "geometry": {"type": "LineString", "coordinates": [[18.0682599, 59.3204736], [18.0684422, 59.3200817], [18.0685025, 59.3199996], [18.0685683, 59.3199531], [18.0686286, 59.3199223], [18.0687099, 59.3199015], [18.0687775, 59.3198928], [18.0688815, 59.3198871], [18.0689758, 59.3199009], [18.0690709, 59.319925], [18.0691275, 59.3199524], [18.0691878, 59.3199986], [18.0692174, 59.3200379], [18.0692348, 59.3201009], [18.0692039, 59.3201884], [18.0691047, 59.3204546], [18.0690035, 59.3206398]]}, "properties": {"bicycle": "no", "foot": "no", "highway": "trunk_link", "layer": "-2", "lit": "24/7", "maxheight": "3.5", "maxspeed": "30", "name": "Riddarfj\u00e4rdsavfarten", "oneway": "yes", "surface": "asphalt", "tunnel": "yes", "length": 176.54191541065322}}, {"type": "Feature", "geometry": {"type": "LineString", "coordinates": [[18.0766763, 59.299068], [18.0763695, 59.2990258], [18.0760543, 59.2989546], [18.0757901, 59.2988567], [18.075597, 59.2987622], [18.075432, 59.2986574], [18.075259, 59.2985041], [18.0751316, 59.2983521], [18.0748728, 59.2979303], [18.0747655, 59.2977522], [18.0746421, 59.2975824], [18.0744705, 59.2974044], [18.074331, 59.2972798], [18.0740735, 59.2971072], [18.0738482, 59.2969785], [18.0735424, 59.2968429], [18.0732527, 59.2967457], [18.0729134, 59.2966471], [18.0725473, 59.2965731], [18.0721758, 59.2965142], [18.0718164, 59.2964779], [18.0705869, 59.2963744]]}, "properties": {"highway": "motorway_link", "layer": "-1", "maxheight": "4.5", "maxspeed": "70", "name": "Talltunneln", "oneway": "yes", "surface": "asphalt", "tunnel": "yes", "length": 497.90928056965305}}, {"type": "Feature", "geometry": {"type": "LineString", "coordinates": [[18.071573, 59.3155592], [18.0714443, 59.3155555], [18.071347, 59.3155651], [18.0712692, 59.3155911], [18.0712183, 59.3156342], [18.0709125, 59.3162953], [18.0696921, 59.3188669], [18.0693811, 59.319522]]}, "properties": {"bicycle": "no", "foot": "no", "highway": "tertiary", "lane_markings": "no", "layer": "-2", "lit": "yes", "maxheight": "4.5", "maxspeed": "50", "name": "S\u00f6derledstunneln", "oneway": "yes", "surface": "asphalt", "tunnel": "yes", "wikidata": "Q847218", "wikipedia": "sv:S\u00f6derledstunneln", "length": 469.4471384905379}}, {"type": "Feature", "geometry": {"type": "LineString", "coordinates": [[17.9918778, 59.2902128], [17.992242, 59.2898994]]}, "properties": {"foot": "no", "highway": "tertiary", "layer": "-1", "maxheight": "3.8", "maxspeed": "40", "name": "Korpmossev\u00e4gen", "surface": "asphalt", "tunnel": "yes", "length": 40.61678281043216}}, {"type": "Feature", "geometry": {"type": "LineString", "coordinates": [[18.0245691, 59.3319072], [18.0201847, 59.3317852]]}, "properties": {"alt_name": "Drottningholmsv\u00e4gen", "bicycle": "no", "foot": "no", "highway": "secondary", "lanes": "2", "layer": "-1", "lit": "yes", "maxheight": "3.9", "maxspeed": "50", "name": "Hundra Knutars Backe", "oneway": "yes", "surface": "asphalt", "tunnel": "yes", "wikidata": "Q10477000", "wikipedia": "sv:Drottningholmsv\u00e4gen, Stockholm", "length": 249.9355395017585}}, {"type": "Feature", "geometry": {"type": "LineString", "coordinates": [[18.0202043, 59.3316353], [18.024576, 59.3318404]]}, "properties": {"alt_name": "Drottningholmsv\u00e4gen", "bicycle": "no", "foot": "no", "highway": "secondary", "layer": "-1", "maxheight": "3.6", "maxspeed": "50", "name": "Hundra Knutars Backe", "oneway": "yes", "source": "survey", "surface": "asphalt", "tunnel": "yes", "wikidata": "Q10477000", "wikipedia": "sv:Drottningholmsv\u00e4gen, Stockholm", "length": 249.89037829542627}}, {"type": "Feature", "geometry": {"type": "LineString", "coordinates": [[17.943658, 59.2882187], [17.9439826, 59.2885019]]}, "properties": {"foot": "no", "highway": "secondary_link", "layer": "-1", "maxspeed": "60", "name": "Sl\u00e4ttg\u00e5rdsv\u00e4gen", "oneway": "yes", "surface": "asphalt", "tunnel": "yes", "length": 36.57277619438328}}, {"type": "Feature", "geometry": {"type": "LineString", "coordinates": [[18.0533766, 59.330241], [18.0534617, 59.3304785], [18.0532762, 59.3308616]]}, "properties": {"bicycle": "no", "foot": "no", "highway": "trunk_link", "layer": "-1", "lit": "yes", "maxheight": "default", "maxspeed": "50", "name": "Blekholmskopplet", "oneway": "yes", "surface": "asphalt", "tunnel": "yes", "length": 70.86205292428085}}, {"type": "Feature", "geometry": {"type": "LineString", "coordinates": [[18.0745598, 59.3073258], [18.0747646, 59.3065203]]}, "properties": {"bicycle": "no", "foot": "no", "highway": "tertiary", "layer": "-1", "maxspeed": "50", "name": "Skansbrogatan", "oneway": "yes", "surface": "asphalt", "tunnel": "yes", "length": 90.48820547346195}}, {"type": "Feature", "geometry": {"type": "LineString", "coordinates": [[18.0744241, 59.3081743], [18.0745172, 59.3077631], [18.0745482, 59.307292], [18.0744919, 59.3069826], [18.074457, 59.3067909], [18.0744651, 59.3066143], [18.0745174, 59.3064954]]}, "properties": {"foot": "no", "highway": "trunk_link", "layer": "-1", "maxheight": "default", "name": "Skansbroavfarten", "oneway": "yes", "surface": "asphalt", "tunnel": "yes", "wikidata": "Q847218", "wikipedia": "sv:S\u00f6derledstunneln", "length": 187.9433602420317}}, {"type": "Feature", "geometry": {"type": "LineString", "coordinates": [[18.0452426, 59.3512478], [18.0466481, 59.3517403], [18.0470641, 59.3518705], [18.0474284, 59.3519731], [18.0478653, 59.3520834], [18.048271, 59.3521607], [18.048932, 59.3522599], [18.0495015, 59.3523235], [18.0497008, 59.3523463], [18.0513776, 59.3525085], [18.0516544, 59.3525359]]}, "properties": {"alt_name": "Norra l\u00e4nken", "destination:lanes": "Norrt\u00e4lje|Liding\u00f6|Liding\u00f6", "destination:ref:lanes": "E18|E20;277|E20;277", "highway": "motorway", "int_ref": "E 20", "lanes": "3", "layer": "-1", "lit": "24/7", "maxheight": "4.5", "maxspeed": "70", "name": "G\u00e4rdestunneln", "oneway": "yes", "ref": "E 20;277", "shoulder:right": "yes", "source": "Yahoo;survey;Trafikverkets v\u00e4gdatabas (NVDB)", "surface": "asphalt", "tunnel": "yes", "turn:lanes": "slight_left|through|through", "website": "https://www.trafikverket.se/Privat/Projekt/Stockholm/E20-norra-lanken/", "wikidata": "Q1716983", "wikipedia": "sv:Norra l\u00e4nken", "length": 397.85102143774884}}, {"type": "Feature", "geometry": {"type": "LineString", "coordinates": [[18.0570436, 59.351708], [18.0572201, 59.3517958], [18.0574219, 59.3519017], [18.0575892, 59.3519912], [18.0578777, 59.3521416], [18.0579993, 59.3522022], [18.0581322, 59.3522619], [18.0583691, 59.3523597], [18.0586311, 59.3524527], [18.0588247, 59.3525119], [18.0590269, 59.3525652], [18.0592016, 59.3526085], [18.0594237, 59.352655], [18.0596801, 59.3526999], [18.0599107, 59.3527359], [18.0601199, 59.3527588], [18.060422, 59.3527843], [18.0608409, 59.3528094], [18.0612163, 59.3528217], [18.0616753, 59.3528294], [18.0619654, 59.3528322], [18.0627509, 59.3528275], [18.0635327, 59.3528151], [18.0637566, 59.3528366]]}, "properties": {"alt_name": "Norra L\u00e4nken", "highway": "motorway_link", "lanes": "1", "layer": "-1", "maxheight": "4.5", "maxspeed": "50", "name": "M\u00e5ntunneln", "oneway": "yes", "source": "site boards (no copyright shown);Trafikverkets v\u00e4gdatabas (NVDB)", "surface": "asphalt", "tunnel": "yes", "website": "https://www.trafikverket.se/Privat/Projekt/Stockholm/E20-norra-lanken/", "wikidata": "Q1716983", "wikipedia": "sv:Norra l\u00e4nken", "length": 422.30688986108447}}, {"type": "Feature", "geometry": {"type": "LineString", "coordinates": [[18.1035598, 59.3508839], [18.1026627, 59.3508692]]}, "properties": {"alt_name": "Norra l\u00e4nken", "highway": "motorway", "lanes": "2", "layer": "-1", "maxspeed": "70", "name": "Hjorthagsv\u00e4gen", "oneway": "yes", "ref": "277", "source": "Bing", "surface": "asphalt", "tunnel": "yes", "unsigned_ref": "277", "website": "https://www.trafikverket.se/Privat/Projekt/Stockholm/E20-norra-lanken/", "wikidata": "Q1716983", "wikipedia": "sv:Norra l\u00e4nken", "length": 51.06181028803131}}, {"type": "Feature", "geometry": {"type": "LineString", "coordinates": [[18.059498, 59.3582306], [18.0596601, 59.3580491], [18.0599423, 59.3576851], [18.0601571, 59.3573768], [18.0602881, 59.3571809], [18.0604047, 59.357001], [18.0605054, 59.3568318], [18.0606016, 59.3566646], [18.0606882, 59.356515], [18.0607613, 59.3563773], [18.0608888, 59.3561372], [18.0610218, 59.3558377], [18.0611177, 59.3556323], [18.0611967, 59.3554474], [18.0612794, 59.3552853], [18.061396, 59.3550939], [18.061469, 59.3549762], [18.0615646, 59.3548516], [18.061708, 59.3546959], [18.0618747, 59.3545279], [18.0620875, 59.3543502], [18.0622746, 59.3542129], [18.0624388, 59.3541066], [18.0626612, 59.3539686], [18.062936, 59.3538212], [18.0632045, 59.3536962], [18.0634412, 59.3535952], [18.0637085, 59.3534962], [18.06401, 59.3533951], [18.0642454, 59.3533234], [18.0645788, 59.3532347]]}, "properties": {"access": "yes", "destination": "Liding\u00f6", "destination:ref": "E20;277", "destination:symbol": "ferry", "highway": "motorway_link", "layer": "-2", "maxheight": "4.5", "maxspeed": "70", "name": "Komettunneln", "oneway": "yes", "source": "site boards (no copyright shown);Trafikverkets v\u00e4gdatabas (NVDB)", "surface": "asphalt", "tunnel": "yes", "website": "https://www.trafikverket.se/Privat/Projekt/Stockholm/E20-norra-lanken/", "wikidata": "Q1716983", "wikipedia": "sv:Norra l\u00e4nken", "length": 649.1690188640523}}, {"type": "Feature", "geometry": {"type": "LineString", "coordinates": [[18.0704712, 59.3527521], [18.0703253, 59.352813], [18.070039, 59.3528661], [18.0693162, 59.3530035], [18.0682462, 59.3532022], [18.0674534, 59.3533555], [18.0667446, 59.3534987], [18.0662438, 59.3535987], [18.0656847, 59.3537256], [18.0652429, 59.3538378], [18.0649459, 59.3539256], [18.0646554, 59.3540182], [18.0641903, 59.3541916], [18.0638889, 59.3543225], [18.0634928, 59.3545094], [18.0631364, 59.354719], [18.0628497, 59.354905], [18.0626872, 59.3550292], [18.0625054, 59.3551746], [18.0623388, 59.3553254], [18.0621525, 59.3555191], [18.0620204, 59.3556725], [18.0618554, 59.3558861], [18.0617247, 59.3560658], [18.0616069, 59.3562368], [18.0614964, 59.356392], [18.0614097, 59.3565183], [18.0613032, 59.3566695], [18.0611925, 59.3568259], [18.0610746, 59.3569929], [18.0609028, 59.3572237], [18.0607817, 59.3573375]]}, "properties": {"destination": "Norrt\u00e4lje", "destination:ref": "E18", "highway": "motorway_link", "lanes": "1", "layer": "-1", "maxheight": "4.5", "maxspeed": "70", "name": "Planettunneln", "oneway": "yes", "source": "site boards (no copyright shown);Trafikverkets v\u00e4gdatabas (NVDB)", "surface": "asphalt", "tunnel": "yes", "website": "https://www.trafikverket.se/Privat/Projekt/Stockholm/E20-norra-lanken/", "wikidata": "Q1716983", "wikipedia": "sv:Norra l\u00e4nken", "length": 800.395622647108}}, {"type": "Feature", "geometry": {"type": "LineString", "coordinates": [[18.0642014, 59.3535896], [18.0640123, 59.3535728], [18.063385, 59.3536104], [18.0630061, 59.3536222], [18.0627893, 59.3536294], [18.0624086, 59.3536302], [18.0620207, 59.3536268], [18.0616377, 59.3536145], [18.0612967, 59.3536008], [18.0608549, 59.3535702], [18.0605054, 59.3535404], [18.0602301, 59.3535082], [18.0599208, 59.3534618], [18.0597132, 59.3534259], [18.05935, 59.3533477], [18.0591226, 59.3532864], [18.0587403, 59.3531605], [18.0585112, 59.3530615], [18.0582752, 59.3529399], [18.0580839, 59.3528202], [18.0580036, 59.3527667], [18.0578341, 59.3526327], [18.0576886, 59.3524897], [18.0575545, 59.3523488], [18.0574608, 59.3522521], [18.0573292, 59.3521222], [18.0571487, 59.3519774], [18.0569485, 59.3518525], [18.0568485, 59.3517983]]}, "properties": {"alt_name": "Norra L\u00e4nken", "destination": "Roslagstull", "highway": "motorway_link", "lanes": "1", "layer": "-1", "maxheight": "4.5", "maxspeed": "50", "name": "Stj\u00e4rntunneln", "oneway": "yes", "source": "site boards (no copyright shown);Trafikverkets v\u00e4gdatabas (NVDB)", "surface": "asphalt", "tunnel": "yes", "website": "https://www.trafikverket.se/Privat/Projekt/Stockholm/E20-norra-lanken/", "wikidata": "Q1716983", "wikipedia": "sv:Norra l\u00e4nken", "length": 508.8821263447797}}, {"type": "Feature", "geometry": {"type": "LineString", "coordinates": [[18.1057809, 59.3006482], [18.1058756, 59.3005952], [18.1059657, 59.3005304], [18.1060665, 59.3004369], [18.1061276, 59.3003667], [18.1061597, 59.3002887], [18.1061856, 59.3002076], [18.1061765, 59.3001062], [18.1061337, 59.3000228], [18.1060589, 59.2999354], [18.1059565, 59.2998652], [18.1058343, 59.2998052], [18.1057045, 59.2997623], [18.1055609, 59.2997319], [18.105402, 59.2997124], [18.1052432, 59.29971], [18.1050736, 59.2997202], [18.1049209, 59.2997444], [18.1047681, 59.299788], [18.1046368, 59.2998356], [18.1045299, 59.2998988], [18.104455, 59.2999697], [18.104397, 59.3000376], [18.1043603, 59.3001265], [18.1043603, 59.3002029], [18.104371, 59.3002661], [18.1044779, 59.3004119], [18.1045543, 59.3004634], [18.1046673, 59.3005297], [18.1047865, 59.300578]]}, "properties": {"highway": "motorway_link", "layer": "-1", "maxheight": "4.5", "maxspeed": "50", "name": "Yxtunneln", "oneway": "yes", "surface": "asphalt", "tunnel": "yes", "length": 275.54328865504147}}, {"type": "Feature", "geometry": {"type": "LineString", "coordinates": [[18.0391976, 59.2957317], [18.0400658, 59.2958089], [18.0407035, 59.295897]]}, "properties": {"highway": "motorway_link", "lanes": "1", "layer": "-1", "lit": "24/7", "maxheight": "4.5", "maxspeed": "70", "oneway": "yes", "ref": "75", "surface": "asphalt", "tunnel": "yes", "length": 87.85255153794624}}, {"type": "Feature", "geometry": {"type": "LineString", "coordinates": [[18.1093211, 59.3119003], [18.1090822, 59.3118202], [18.1088493, 59.3117422]]}, "properties": {"foot": "use_sidepath", "highway": "tertiary", "lanes": "2", "layer": "-1", "lit": "yes", "maxheight": "4.3", "maxspeed": "50", "name": "Kvarnholmsv\u00e4gen", "oneway": "yes", "shoulder": "no", "surface": "asphalt", "tunnel": "yes", "length": 32.12884170636886}}, {"type": "Feature", "geometry": {"type": "LineString", "coordinates": [[18.0579802, 59.2960321], [18.0576798, 59.2958034], [18.0574653, 59.2955925], [18.0572963, 59.2953556], [18.0571809, 59.2951488], [18.0571166, 59.2948844], [18.0571005, 59.2946228], [18.0571192, 59.2941777], [18.0571729, 59.293686], [18.0571836, 59.2932875], [18.0571434, 59.2930615], [18.0569768, 59.2927095]]}, "properties": {"highway": "motorway_link", "lanes": "1", "layer": "-2", "lit": "24/7", "maxheight": "4.5", "maxspeed": "70", "name": "Koppartunneln", "oneway": "yes", "ref": "226", "surface": "asphalt", "tunnel": "yes", "length": 382.5453848727327}}, {"type": "Feature", "geometry": {"type": "LineString", "coordinates": [[18.060303, 59.2967484], [18.0597934, 59.2966799], [18.0593187, 59.2965758], [18.058868, 59.296443], [18.0585247, 59.2963143], [18.058286, 59.2961978], [18.0579802, 59.2960321]]}, "properties": {"highway": "motorway_link", "layer": "-2", "lit": "24/7", "maxheight": "4.5", "maxspeed": "70", "name": "Koppartunneln", "oneway": "yes", "surface": "asphalt", "tunnel": "yes", "length": 157.52696562587522}}, {"type": "Feature", "geometry": {"type": "LineString", "coordinates": [[18.0627824, 59.3298801], [18.0640758, 59.330226], [18.0651477, 59.3304979], [18.0656054, 59.3306465], [18.0658026, 59.3307332], [18.0659419, 59.330808], [18.0660251, 59.3308661], [18.0660965, 59.3309224], [18.0662087, 59.3310387], [18.0662811, 59.3311383], [18.0663218, 59.331232], [18.0663534, 59.3313496], [18.0663534, 59.3314645], [18.06631, 59.3316163], [18.0662738, 59.3317049], [18.0659693, 59.3322515]]}, "properties": {"bicycle": "no", "foot": "no", "highway": "secondary", "lanes": "2", "layer": "-1", "lit": "24/7", "maxheight": "3", "maxspeed": "50", "name": "Klaratunneln", "oneway": "yes", "start_date": "1976", "surface": "asphalt", "tunnel": "yes", "wikidata": "Q10546062", "wikipedia": "sv:Klaratunneln", "length": 377.37434044504306}}, {"type": "Feature", "geometry": {"type": "LineString", "coordinates": [[18.1089382, 59.311684], [18.1094215, 59.3118431]]}, "properties": {"foot": "no", "highway": "tertiary", "lane_markings": "no", "layer": "-1", "maxheight": "4.3", "maxspeed": "50", "name": "Kvarnholmsv\u00e4gen", "oneway": "yes", "surface": "asphalt", "tunnel": "yes", "length": 32.73882590441164}}, {"type": "Feature", "geometry": {"type": "LineString", "coordinates": [[18.0416344, 59.3802006], [18.0411476, 59.380146]]}, "properties": {"foot": "no", "highway": "trunk", "lanes": "1", "layer": "-1", "maxspeed": "70", "name": "Bergshamrav\u00e4gen", "oneway": "yes", "surface": "asphalt", "tunnel": "yes", "length": 28.3305930026125}}, {"type": "Feature", "geometry": {"type": "LineString", "coordinates": [[18.0411897, 59.380055], [18.0416909, 59.380116]]}, "properties": {"bicycle": "no", "foot": "no", "highway": "trunk", "int_ref": "E 18", "lanes": "2", "layer": "-1", "maxspeed": "50", "name": "Bergshamrav\u00e4gen", "oneway": "yes", "ref": "E 18", "surface": "asphalt", "tunnel": "yes", "length": 29.28778125512868}}, {"type": "Feature", "geometry": {"type": "LineString", "coordinates": [[18.0345146, 59.3799801], [18.035236, 59.3799579]]}, "properties": {"bicycle": "no", "foot": "no", "highway": "trunk", "int_ref": "E 18", "lanes": "3", "layer": "-1", "maxspeed": "70", "name": "Bergshamrav\u00e4gen", "oneway": "yes", "psv:lanes": "||designated", "ref": "E 18", "surface": "asphalt", "tunnel": "yes", "length": 41.07946546808651}}, {"type": "Feature", "geometry": {"type": "LineString", "coordinates": [[18.0352561, 59.3800748], [18.0345155, 59.3801005]]}, "properties": {"bicycle": "no", "foot": "no", "highway": "trunk", "int_ref": "E 18", "lanes": "3", "layer": "-1", "maxspeed": "70", "name": "Bergshamrav\u00e4gen", "oneway": "yes", "ref": "E 18", "surface": "asphalt", "tunnel": "yes", "turn:lanes": "||merge_to_left", "length": 42.193396331535126}}, {"type": "Feature", "geometry": {"type": "LineString", "coordinates": [[18.0472064, 59.3520511], [18.0469556, 59.3520135], [18.0461522, 59.3517999], [18.0454598, 59.3515655], [18.0444847, 59.3512911], [18.0437799, 59.3511326], [18.0430484, 59.351004], [18.0427237, 59.3509615], [18.042482, 59.350949], [18.0422058, 59.3509511], [18.0419349, 59.3509737], [18.0417211, 59.3510065], [18.0414877, 59.3510528], [18.041099, 59.3511696], [18.0408223, 59.3512919], [18.0406371, 59.3514067], [18.0405262, 59.3514909], [18.0403733, 59.3516403], [18.0402754, 59.3517965], [18.0401675, 59.3520307], [18.0400706, 59.3522634], [18.0398967, 59.3525726]]}, "properties": {"destination": "Sundsvall", "destination:ref": "E4;E18", "highway": "motorway_link", "lanes": "1", "layer": "-1", "lit": "24/7", "maxheight": "4.5", "maxspeed": "50", "name": "Stallm\u00e4startunneln", "oneway": "yes", "source": "site boards (no copyright shown);Trafikverkets v\u00e4gdatabas (NVDB)", "surface": "asphalt", "tunnel": "yes", "website": "https://www.trafikverket.se/Privat/Projekt/Stockholm/E20-norra-lanken/", "wikidata": "Q1716983", "wikipedia": "sv:Norra l\u00e4nken", "length": 556.5207977150244}}, {"type": "Feature", "geometry": {"type": "LineString", "coordinates": [[18.0829152, 59.2968266], [18.0836887, 59.2968135]]}, "properties": {"foot": "no", "highway": "secondary", "layer": "-1", "maxheight": "default", "maxspeed": "50", "name": "Arenav\u00e4gen", "oneway": "yes", "surface": "asphalt", "tunnel": "yes", "length": 44.09807964883287}}, {"type": "Feature", "geometry": {"type": "LineString", "coordinates": [[18.0843993, 59.289964], [18.0843168, 59.2901893], [18.0830182, 59.2914353], [18.0825571, 59.2916124]]}, "properties": {"bicycle": "no", "highway": "secondary", "maxheight": "2.9", "maxspeed": "30", "maxwidth": "3", "name": "Arenav\u00e4gen", "surface": "asphalt", "tunnel": "yes", "length": 215.6959422326324}}, {"type": "Feature", "geometry": {"type": "LineString", "coordinates": [[18.2008919, 59.3162967], [18.2007069, 59.3160161]]}, "properties": {"hazard": "wild_animals", "highway": "tertiary", "lanes": "2", "layer": "-1", "lit": "yes", "maxheight": "default", "maxspeed": "40", "name": "Ektorpsv\u00e4gen", "sidewalk": "both", "surface": "asphalt", "tunnel": "yes", "length": 32.986630734121945}}, {"type": "Feature", "geometry": {"type": "LineString", "coordinates": [[18.0890521, 59.3521393], [18.088729, 59.3521629], [18.0880254, 59.352193], [18.0877914, 59.3521988], [18.0873343, 59.3522054], [18.0869488, 59.3522008], [18.0864806, 59.3521909], [18.086279, 59.3521835], [18.0858642, 59.3521664], [18.0847911, 59.3521116], [18.0828701, 59.3520176], [18.0821718, 59.3519876], [18.0815965, 59.3519671], [18.0811729, 59.3519564], [18.0807462, 59.3519482], [18.080249, 59.3519419], [18.0797606, 59.3519373], [18.0792534, 59.3519343], [18.0786385, 59.3519305], [18.0779451, 59.3519387]]}, "properties": {"alt_name": "Norra L\u00e4nken", "highway": "motorway", "int_ref": "E 20", "lanes": "2", "layer": "-1", "maxspeed": "70", "name": "Kosmostunneln", "oneway": "yes", "ref": "E 20;277", "source": "site boards (no copyright shown);Trafikverkets v\u00e4gdatabas (NVDB)", "surface": "asphalt", "tunnel": "yes", "unsigned_ref": "277", "website": "https://www.trafikverket.se/Privat/Projekt/Stockholm/E20-norra-lanken/", "wikidata": "Q1716983", "wikipedia": "sv:Norra l\u00e4nken", "length": 633.4380524248028}}, {"type": "Feature", "geometry": {"type": "LineString", "coordinates": [[18.0083019, 59.2769022], [18.0077581, 59.2772424]]}, "properties": {"foot": "no", "highway": "secondary", "layer": "-1", "maxheight": "default", "maxspeed": "50", "name": "Magelungsv\u00e4gen", "oneway": "yes", "ref": "271", "surface": "asphalt", "tunnel": "yes", "length": 48.96428010988223}}, {"type": "Feature", "geometry": {"type": "LineString", "coordinates": [[18.0076742, 59.277176], [18.008169, 59.2768347]]}, "properties": {"foot": "no", "highway": "secondary", "layer": "-1", "maxheight": "default", "maxspeed": "50", "name": "Magelungsv\u00e4gen", "oneway": "yes", "ref": "271", "surface": "asphalt", "tunnel": "yes", "length": 47.343279007854385}}, {"type": "Feature", "geometry": {"type": "LineString", "coordinates": [[18.0876338, 59.2899011], [18.0872501, 59.2904795], [18.0869414, 59.2908647], [18.0864935, 59.29126]]}, "properties": {"highway": "motorway_link", "layer": "-1", "maxheight": "4.5", "maxspeed": "70", "name": "Skr\u00e4ddartunneln", "oneway": "yes", "surface": "asphalt", "tunnel": "yes", "length": 165.32068741669235}}, {"type": "Feature", "geometry": {"type": "LineString", "coordinates": [[18.0873745, 59.2898837], [18.0871171, 59.2903172], [18.0864935, 59.29126]]}, "properties": {"highway": "motorway_link", "layer": "-1", "maxheight": "4.5", "maxspeed": "70", "name": "Skr\u00e4ddartunneln", "oneway": "yes", "surface": "asphalt", "tunnel": "yes", "length": 161.34876509738376}}, {"type": "Feature", "geometry": {"type": "LineString", "coordinates": [[18.0857558, 59.291689], [18.0863991, 59.2905069]]}, "properties": {"destination": "Globen", "highway": "motorway_link", "layer": "-1", "maxheight": "4.5", "maxspeed": "70", "name": "Skeppartunneln", "oneway": "yes", "surface": "asphalt", "tunnel": "yes", "length": 136.6941340011627}}, {"type": "Feature", "geometry": {"type": "LineString", "coordinates": [[18.0311765, 59.3474051], [18.0309383, 59.3473566], [18.0307047, 59.347243], [18.0303696, 59.3470559], [18.030048, 59.3468669], [18.0299142, 59.3467824], [18.0297565, 59.346676]]}, "properties": {"destination": "Stockhom C;S\u00f6dermalm", "destination:symbol": "centre", "highway": "motorway_link", "lanes": "1", "layer": "-1", "maxheight": "default", "maxspeed": "70", "name": "Klarastrandsleden", "oneway": "yes", "ref": "E 4.25", "source": "Trafikverkets v\u00e4gdatabas (NVDB)", "surface": "asphalt", "tunnel": "yes", "wikidata": "Q10680629", "wikipedia": "sv:Stockholms nord-sydaxel", "length": 116.05689887891181}}, {"type": "Feature", "geometry": {"type": "LineString", "coordinates": [[18.0392123, 59.3528387], [18.0392293, 59.3528163], [18.0393025, 59.3527005], [18.0393598, 59.3525931], [18.0393903, 59.3525133], [18.0394256, 59.3524206], [18.0394486, 59.3523198], [18.0394735, 59.3522079], [18.0394863, 59.3520379], [18.039482, 59.3518278], [18.0394486, 59.3516255], [18.0393784, 59.3514008], [18.0393128, 59.3512416], [18.0391932, 59.3510303], [18.0390748, 59.3508654], [18.0388898, 59.3506726], [18.0386977, 59.3504995], [18.0384759, 59.3503408], [18.0382405, 59.3501952]]}, "properties": {"alt_name": "Norra L\u00e4nken", "highway": "motorway", "int_ref": "E 04", "lanes": "2", "layer": "-2", "length": 313.4152265827105, "lit": "24/7", "maxspeed": "70", "name": "Eugeniatunneln", "oneway": "yes", "ref": "E 4", "source": "Trafikverkets v\u00e4gdatabas (NVDB)", "start_date": "1991", "surface": "asphalt", "tunnel": "yes", "wikidata": "Q10490072", "wikipedia": "sv:Eugeniatunneln"}}, {"type": "Feature", "geometry": {"type": "LineString", "coordinates": [[18.0382405, 59.3501952], [18.0382045, 59.3501735], [18.0378577, 59.3500095], [18.0375012, 59.3498548], [18.0358643, 59.3491832], [18.0352906, 59.3489462], [18.0344515, 59.3486028], [18.0339469, 59.3483974], [18.0334762, 59.3482129], [18.0328917, 59.3479821], [18.0321993, 59.3477082], [18.031677, 59.3474918], [18.0309773, 59.3471674], [18.0306506, 59.3469922], [18.0303018, 59.3467887], [18.029993, 59.346585]]}, "properties": {"alt_name": "Eugeniakopplet", "highway": "motorway", "int_ref": "E 04", "lanes": "2", "layer": "-1", "length": 619.4322223837358, "lit": "24/7", "maxheight": "default", "maxspeed": "70", "name": "Eugeniatunneln", "oneway": "yes", "ref": "E 4", "source": "Trafikverkets v\u00e4gdatabas (NVDB)", "surface": "asphalt", "tunnel": "yes"}}, {"type": "Feature", "geometry": {"type": "LineString", "coordinates": [[18.0363964, 59.3492118], [18.036811, 59.3494234], [18.0373385, 59.3496421], [18.0378277, 59.349854], [18.038332, 59.3500928], [18.0386043, 59.3502432], [18.0389554, 59.3504766], [18.0391295, 59.3506221], [18.0393205, 59.3508103], [18.0394449, 59.3509594], [18.0395027, 59.3510404], [18.0396368, 59.3512733], [18.0397146, 59.3514794], [18.0397574, 59.3516518], [18.0397774, 59.3517877], [18.0397794, 59.3520765], [18.0397292, 59.3523387], [18.039652, 59.3525241], [18.039559, 59.3526976]]}, "properties": {"alt_name": "Norra L\u00e4nken", "destination": "Sundsvall", "destination:ref": "E 4", "destination:ref:to": "E 18", "destination:symbol": "airport", "highway": "motorway", "int_ref": "E 04", "lanes": "2", "layer": "-2", "maxheight": "default", "maxspeed": "70", "name": "Hagatunneln", "oneway": "yes", "ref": "E 4", "source": "Trafikverkets v\u00e4gdatabas (NVDB)", "surface": "asphalt", "tunnel": "yes", "wikidata": "Q1716983", "wikipedia": "sv:Norra l\u00e4nken", "length": 461.14024553253387}}, {"type": "Feature", "geometry": {"type": "LineString", "coordinates": [[18.0576424, 59.2932616], [18.0577388, 59.2938983], [18.0577683, 59.294264], [18.0577496, 59.2946434]]}, "properties": {"highway": "motorway_link", "lanes": "1", "layer": "-1", "lit": "24/7", "maxheight": "4.5", "maxspeed": "70", "name": "Silvertunneln", "oneway": "yes", "surface": "asphalt", "tunnel": "yes", "length": 154.19331408840247}}, {"type": "Feature", "geometry": {"type": "LineString", "coordinates": [[18.0559099, 59.2963779], [18.0489078, 59.2963852]]}, "properties": {"alt_name": "S\u00f6dra l\u00e4nken", "highway": "motorway", "lanes": "2", "layer": "-1", "length": 398.98467736152736, "lit": "24/7", "maxheight": "4.5", "maxspeed": "70", "name": "\u00c5rstatunneln", "oneway": "yes", "ref": "75", "surface": "asphalt", "tunnel": "yes"}}, {"type": "Feature", "geometry": {"type": "LineString", "coordinates": [[18.0685076, 59.2961468], [18.0704391, 59.2959595], [18.0712947, 59.2958897], [18.0722228, 59.2958445]]}, "properties": {"destination": "Gullmarsplan", "highway": "motorway_link", "layer": "-1", "maxheight": "4.5", "maxspeed": "70", "name": "Bj\u00f6rktunneln", "oneway": "yes", "surface": "asphalt", "tunnel": "yes", "length": 214.5125761824249}}, {"type": "Feature", "geometry": {"type": "LineString", "coordinates": [[18.0531496, 59.2966594], [18.0524307, 59.2966169], [18.0514947, 59.2965252], [18.0506605, 59.2964526], [18.0489078, 59.2963852]]}, "properties": {"highway": "motorway_link", "lanes": "1", "layer": "-1", "maxheight": "4.5", "maxspeed": "70", "name": "Silvertunneln", "oneway": "yes", "surface": "asphalt", "tunnel": "yes", "length": 243.90663467818368}}, {"type": "Feature", "geometry": {"type": "LineString", "coordinates": [[18.0577496, 59.2946434], [18.0576745, 59.2949269], [18.0575672, 59.295131], [18.0574411, 59.2953145], [18.0572507, 59.295524], [18.0569825, 59.2957418], [18.0567276, 59.2959089], [18.0563897, 59.2960938], [18.0560732, 59.2962225], [18.0556548, 59.2963608], [18.0551934, 59.2964854], [18.0548152, 59.2965635], [18.0543539, 59.2966265], [18.0538952, 59.2966539], [18.0531496, 59.2966594]]}, "properties": {"highway": "motorway_link", "lanes": "1", "layer": "-3", "lit": "24/7", "maxheight": "4.5", "maxspeed": "70", "name": "Silvertunneln", "oneway": "yes", "surface": "asphalt", "tunnel": "yes", "length": 383.7053158431594}}, {"type": "Feature", "geometry": {"type": "LineString", "coordinates": [[18.0722228, 59.2958445], [18.0727485, 59.2958527], [18.0733761, 59.2959116], [18.0738106, 59.2959952], [18.0742022, 59.2961061], [18.0745536, 59.2962581], [18.0748942, 59.2964608], [18.0751732, 59.2967032], [18.0753288, 59.2969237], [18.0755205, 59.2974537], [18.075662, 59.2979293], [18.0757716, 59.2983106], [18.0758679, 59.2984863], [18.075994, 59.2986177], [18.0761428, 59.2987211], [18.0763695, 59.2988286], [18.0765492, 59.2988937], [18.0767684, 59.2989474]]}, "properties": {"highway": "motorway_link", "layer": "-2", "maxheight": "4.5", "maxspeed": "70", "name": "Bj\u00f6rktunneln", "oneway": "yes", "surface": "asphalt", "tunnel": "yes", "length": 483.2481065352554}}, {"type": "Feature", "geometry": {"type": "LineString", "coordinates": [[18.0748569, 59.306532], [18.0746984, 59.3073032], [18.0746886, 59.3073418]]}, "properties": {"bicycle": "no", "foot": "no", "highway": "tertiary", "layer": "-1", "maxspeed": "50", "name": "Skansbrogatan", "oneway": "yes", "surface": "asphalt", "tunnel": "yes", "length": 90.72126440174667}}, {"type": "Feature", "geometry": {"type": "LineString", "coordinates": [[18.0750963, 59.3071308], [18.0746488, 59.3081653], [18.0734566, 59.3107844], [18.0726144, 59.3125872], [18.0707744, 59.316194], [18.0704927, 59.3168401], [18.0698268, 59.3180822], [18.0693786, 59.3189181]]}, "properties": {"bicycle": "no", "foot": "no", "highway": "trunk", "lanes": "2", "layer": "-2", "lit": "24/7", "maxspeed": "60", "name": "S\u00f6derledstunneln", "oneway": "yes", "ref": "E 4.25", "sidewalk": "no", "surface": "asphalt", "tunnel": "yes", "wikidata": "Q847218", "wikipedia": "sv:S\u00f6derledstunneln", "length": 1353.0855809648697}}, {"type": "Feature", "geometry": {"type": "LineString", "coordinates": [[18.0376788, 59.3496251], [18.0379971, 59.3496558], [18.0406758, 59.3504171]]}, "properties": {"destination": "Norrtull", "highway": "motorway_link", "lanes": "1", "layer": "-2", "lit": "24/7", "maxheight": "4.5", "maxspeed": "70", "name": "Norrtullsavfarten", "oneway": "yes", "source": "Trafikverkets v\u00e4gdatabas (NVDB)", "surface": "asphalt", "tunnel": "yes", "wikidata": "Q1716983", "wikipedia": "sv:Norra l\u00e4nken", "length": 192.83195007135137}}, {"type": "Feature", "geometry": {"type": "LineString", "coordinates": [[18.1818638, 59.3057915], [18.181342, 59.305684]]}, "properties": {"highway": "tertiary", "lanes": "2", "layer": "-1", "lit": "yes", "maxheight": "default", "maxspeed": "40", "name": "Vattenverksv\u00e4gen", "surface": "asphalt", "tunnel": "yes", "length": 32.04603737923225}}, {"type": "Feature", "geometry": {"type": "LineString", "coordinates": [[18.1070192, 59.3528288], [18.1068796, 59.352799], [18.1068115, 59.3527777], [18.1067493, 59.3527542], [18.1066819, 59.3527231], [18.1066044, 59.352678], [18.1065733, 59.3526545], [18.1065349, 59.3526227], [18.1064942, 59.3525768], [18.1064563, 59.3525087], [18.1064051, 59.3522701], [18.1063223, 59.3521309], [18.1062804, 59.352074], [18.1060918, 59.3518638], [18.1058718, 59.3516736], [18.1057378, 59.3515917], [18.1056037, 59.3515098], [18.1052597, 59.3513418], [18.104867, 59.3511797], [18.1042284, 59.351043], [18.1040113, 59.3510008]]}, "properties": {"alt_name": "Norra l\u00e4nken", "highway": "motorway_link", "int_ref": "E 20", "lanes": "1", "layer": "-1", "maxheight": "default", "maxspeed": "70", "name": "Hamnp\u00e5farten", "oneway": "yes", "ref": "E 20", "source": "Bing", "surface": "asphalt", "tunnel": "yes", "website": "https://www.vv.se/norralanken", "wikidata": "Q1716983", "wikipedia": "sv:Norra l\u00e4nken", "length": 282.50284485892246}}, {"type": "Feature", "geometry": {"type": "LineString", "coordinates": [[18.0992239, 59.3508881], [18.1001684, 59.3508338], [18.1006517, 59.3508135], [18.1009559, 59.3507992], [18.1015576, 59.3507885], [18.1021821, 59.3507751], [18.1023642, 59.350771], [18.1030393, 59.3507704], [18.1035972, 59.3507968]]}, "properties": {"alt_name": "Norra l\u00e4nken", "highway": "motorway", "lanes": "2", "layer": "-1", "maxspeed": "70", "name": "Hjorthagsv\u00e4gen", "oneway": "yes", "ref": "277", "source": "Bing", "start_date": "2014-11-30", "surface": "asphalt", "tunnel": "yes", "website": "https://www.trafikverket.se/Privat/Projekt/Stockholm/E20-norra-lanken/", "wikidata": "Q1716983", "wikipedia": "sv:Norra l\u00e4nken", "length": 249.49886837361458}}, {"type": "Feature", "geometry": {"type": "LineString", "coordinates": [[18.0563215, 59.3614374], [18.057198, 59.3604925], [18.0575104, 59.3601959], [18.0578348, 59.3598849], [18.0581932, 59.3595368], [18.0586129, 59.3591461], [18.0588979, 59.3588529], [18.0593136, 59.3584512], [18.059498, 59.3582306]]}, "properties": {"highway": "motorway_link", "lanes": "2", "layer": "-1", "maxheight": "default", "maxspeed": "70", "name": "Albanotunneln", "oneway": "yes", "source": "site boards (no copyright shown);Bing;Trafikverkets v\u00e4gdatabas (NVDB)", "surface": "asphalt", "tunnel": "yes", "website": "https://www.trafikverket.se/Privat/Projekt/Stockholm/E20-norra-lanken/", "wikidata": "Q1716983", "wikipedia": "sv:Norra l\u00e4nken", "length": 400.4836145591497}}, {"type": "Feature", "geometry": {"type": "LineString", "coordinates": [[18.0418655, 59.2961294], [18.0410528, 59.2960499], [18.0400738, 59.2959787], [18.0391758, 59.2959388]]}, "properties": {"alt_name": "S\u00f6dra l\u00e4nken", "destination": "Stockholm", "destination:ref": "E4;E20", "destination:symbol": "centre", "highway": "motorway", "lanes": "2", "layer": "-1", "length": 154.8553621818867, "lit": "24/7", "maxheight": "4.5", "maxspeed": "70", "name": "\u00c5rstatunneln", "oneway": "yes", "ref": "75", "surface": "asphalt", "tunnel": "yes"}}, {"type": "Feature", "geometry": {"type": "LineString", "coordinates": [[18.0407035, 59.295897], [18.0425361, 59.2960403], [18.0436841, 59.2961266], [18.0445424, 59.2961554], [18.0485749, 59.296156]]}, "properties": {"alt_name": "S\u00f6dra l\u00e4nken", "highway": "motorway", "lanes": "3", "layer": "-1", "length": 450.5417738619178, "lit": "24/7", "maxheight": "4.5", "maxspeed": "70", "name": "Hammarbytunneln", "oneway": "yes", "ref": "75", "surface": "asphalt", "tunnel": "yes", "turn:lanes": "through|through;right|right"}}, {"type": "Feature", "geometry": {"type": "LineString", "coordinates": [[18.0576424, 59.2932616], [18.0579025, 59.2940284], [18.0581331, 59.2944968], [18.0583718, 59.2948132], [18.0586427, 59.2950433], [18.0589297, 59.2952309], [18.0592972, 59.2954391], [18.0596593, 59.2956048], [18.0601957, 59.295787], [18.0607765, 59.2959186], [18.0612445, 59.2959993], [18.0627565, 59.2961391]]}, "properties": {"highway": "motorway_link", "lanes": "1", "layer": "-1", "maxheight": "4.5", "maxspeed": "70", "name": "Bronstunneln", "oneway": "yes", "ref": "226", "surface": "asphalt", "tunnel": "yes", "length": 482.2611103089481}}, {"type": "Feature", "geometry": {"type": "LineString", "coordinates": [[18.0987863, 59.2991154], [18.0941312, 59.2977465]]}, "properties": {"alt_name": "S\u00f6dra l\u00e4nken", "highway": "motorway", "lanes": "3", "layer": "-1", "length": 305.94817963252825, "lit": "24/7", "maxheight": "4.5", "maxspeed": "70", "name": "\u00c5rstatunneln", "oneway": "yes", "ref": "75", "surface": "asphalt", "tunnel": "yes"}}, {"type": "Feature", "geometry": {"type": "LineString", "coordinates": [[18.0965403, 59.2981607], [18.1046299, 59.3005987]]}, "properties": {"alt_name": "S\u00f6dra l\u00e4nken", "highway": "motorway", "lanes": "2", "layer": "-1", "length": 534.9775835819975, "lit": "24/7", "maxheight": "4.5", "maxspeed": "70", "name": "Hammarbytunneln", "oneway": "yes", "ref": "75", "surface": "asphalt", "tunnel": "yes"}}, {"type": "Feature", "geometry": {"type": "LineString", "coordinates": [[18.0898946, 59.2966596], [18.091364, 59.2968997], [18.0925381, 59.2971213], [18.0937444, 59.2973904], [18.0965403, 59.2981607]]}, "properties": {"alt_name": "S\u00f6dra l\u00e4nken", "highway": "motorway", "lanes": "3", "layer": "-1", "length": 415.137945825461, "lit": "24/7", "maxspeed": "70", "name": "Hammarbytunneln", "oneway": "yes", "ref": "75", "surface": "asphalt", "tunnel": "yes"}}, {"type": "Feature", "geometry": {"type": "LineString", "coordinates": [[18.077186, 59.2961352], [18.0823212, 59.2961345], [18.0835573, 59.2961364], [18.0847314, 59.2961736], [18.0859383, 59.2962388], [18.0871744, 59.2963375], [18.0885381, 59.2964827], [18.0898946, 59.2966596]]}, "properties": {"alt_name": "S\u00f6dra l\u00e4nken", "highway": "motorway", "lanes": "2", "layer": "-1", "length": 729.6492161745481, "lit": "24/7", "maxspeed": "70", "name": "Hammarbytunneln", "oneway": "yes", "ref": "75", "surface": "asphalt", "tunnel": "yes"}}, {"type": "Feature", "geometry": {"type": "LineString", "coordinates": [[18.0627565, 59.2961391], [18.0647617, 59.2961435], [18.0685076, 59.2961468], [18.077186, 59.2961352]]}, "properties": {"alt_name": "S\u00f6dra l\u00e4nken", "highway": "motorway", "lanes": "3", "layer": "-1", "length": 822.2103777892405, "lit": "24/7", "maxspeed": "70", "name": "Hammarbytunneln", "oneway": "yes", "ref": "75", "surface": "asphalt", "tunnel": "yes"}}, {"type": "Feature", "geometry": {"type": "LineString", "coordinates": [[18.0489078, 59.2963852], [18.0468518, 59.2963882], [18.0459425, 59.2963882], [18.0449232, 59.296354], [18.0439013, 59.2962786], [18.0418655, 59.2961294]]}, "properties": {"alt_name": "S\u00f6dra l\u00e4nken", "highway": "motorway", "lanes": "3", "layer": "-1", "length": 403.18787021991943, "lit": "24/7", "maxheight": "4.5", "maxspeed": "70", "name": "\u00c5rstatunneln", "oneway": "yes", "ref": "75", "surface": "asphalt", "tunnel": "yes", "turn:lanes": "through|through|slight_right"}}, {"type": "Feature", "geometry": {"type": "LineString", "coordinates": [[18.0650744, 59.296372], [18.0600594, 59.2963794], [18.0559099, 59.2963779]]}, "properties": {"alt_name": "S\u00f6dra l\u00e4nken", "highway": "motorway", "lanes": "2", "layer": "-1", "length": 522.200012154186, "lit": "24/7", "maxheight": "4.5", "maxspeed": "70", "name": "\u00c5rstatunneln", "oneway": "yes", "ref": "75", "surface": "asphalt", "tunnel": "yes"}}, {"type": "Feature", "geometry": {"type": "LineString", "coordinates": [[18.0569768, 59.2927095], [18.0568644, 59.292478], [18.0566847, 59.2922273], [18.0564514, 59.2920041], [18.0561644, 59.2917877], [18.0554, 59.2913945], [18.0542593, 59.290883]]}, "properties": {"highway": "motorway_link", "lanes": "2", "layer": "-1", "maxheight": "4.5", "maxspeed": "70", "name": "Koppartunneln", "oneway": "yes", "ref": "226", "surface": "asphalt", "tunnel": "yes", "length": 261.86864894751807}}, {"type": "Feature", "geometry": {"type": "LineString", "coordinates": [[18.0941312, 59.2977465], [18.0932907, 59.2975475], [18.092252, 59.2973182], [18.0909231, 59.2970655], [18.0898029, 59.2968891], [18.0888826, 59.2967677], [18.0881899, 59.2966763], [18.0869101, 59.2965488], [18.0859256, 59.2964743], [18.0852297, 59.2964299], [18.084148, 59.296384], [18.0828281, 59.2963607], [18.0803427, 59.29636], [18.0792448, 59.296369], [18.076517, 59.2963654], [18.0705869, 59.2963744]]}, "properties": {"alt_name": "S\u00f6dra l\u00e4nken", "highway": "motorway", "lanes": "2", "layer": "-1", "length": 1365.302488799162, "lit": "24/7", "maxspeed": "70", "name": "\u00c5rstatunneln", "oneway": "yes", "ref": "75", "surface": "asphalt", "tunnel": "yes"}}, {"type": "Feature", "geometry": {"type": "LineString", "coordinates": [[18.0485749, 59.296156], [18.0524008, 59.2961586], [18.0586587, 59.2961541], [18.0594441, 59.2961497]]}, "properties": {"alt_name": "S\u00f6dra l\u00e4nken", "highway": "motorway", "lanes": "2", "layer": "-1", "length": 619.3408418437276, "lit": "24/7", "maxspeed": "70", "name": "Hammarbytunneln", "oneway": "yes", "ref": "75", "surface": "asphalt", "tunnel": "yes"}}, {"type": "Feature", "geometry": {"type": "LineString", "coordinates": [[18.0705869, 59.2963744], [18.0680952, 59.2963577], [18.0675518, 59.2963541], [18.0650744, 59.296372]]}, "properties": {"alt_name": "S\u00f6dra l\u00e4nken", "highway": "motorway", "lanes": "3", "layer": "-1", "length": 314.1345820764967, "lit": "24/7", "maxheight": "4.5", "maxspeed": "70", "name": "\u00c5rstatunneln", "oneway": "yes", "ref": "75", "surface": "asphalt", "tunnel": "yes"}}, {"type": "Feature", "geometry": {"type": "LineString", "coordinates": [[18.059498, 59.3582306], [18.0595278, 59.3581236], [18.0597281, 59.3577881], [18.0598145, 59.3576679], [18.0599169, 59.3575007], [18.0600067, 59.3573586], [18.0600996, 59.3571844], [18.0601483, 59.3570809], [18.0601948, 59.3569687], [18.0602535, 59.356809], [18.0602824, 59.3567332], [18.0603082, 59.356646], [18.0603396, 59.3565579], [18.0603886, 59.3563209]]}, "properties": {"destination": "Helsingborg", "destination:ref": "E20;E4", "highway": "motorway_link", "layer": "-2", "maxheight": "4.5", "maxspeed": "70", "name": "Soltunneln", "oneway": "yes", "source": "site boards (no copyright shown);Bing;Trafikverkets v\u00e4gdatabas (NVDB)", "surface": "asphalt", "tunnel": "yes", "website": "https://www.trafikverket.se/Privat/Projekt/Stockholm/E20-norra-lanken/", "wikidata": "Q1716983", "wikipedia": "sv:Norra l\u00e4nken", "length": 219.32558693904554}}, {"type": "Feature", "geometry": {"type": "LineString", "coordinates": [[18.0607817, 59.3573375], [18.0605426, 59.3576947], [18.0602907, 59.3579929], [18.0598961, 59.3584117], [18.0595394, 59.3587476], [18.0574463, 59.360552], [18.0572002, 59.3607881], [18.056976, 59.3610045], [18.0567569, 59.3612218], [18.0565075, 59.3614821]]}, "properties": {"highway": "motorway_link", "lanes": "2", "layer": "-1", "maxheight": "default", "maxspeed": "70", "name": "Roslagstunneln", "oneway": "yes", "source": "site boards (no copyright shown);Trafikverkets v\u00e4gdatabas (NVDB)", "surface": "asphalt", "tunnel": "yes", "website": "https://www.trafikverket.se/Privat/Projekt/Stockholm/E20-norra-lanken/", "wikidata": "Q1716983", "wikipedia": "sv:Norra l\u00e4nken", "length": 522.7599791997859}}, {"type": "Feature", "geometry": {"type": "LineString", "coordinates": [[18.050437, 59.3525772], [18.0499131, 59.3525214], [18.049439, 59.3524678], [18.0489527, 59.3524081], [18.0487561, 59.3523811], [18.0482153, 59.352291], [18.047919, 59.3522339], [18.0478038, 59.3522083], [18.0472064, 59.3520511]]}, "properties": {"alt_name": "Norra L\u00e4nken", "highway": "motorway", "int_ref": "E 20", "lanes": "3", "layer": "-1", "lit": "24/7", "maxspeed": "70", "name": "Norrtullstunneln", "oneway": "yes", "ref": "E 20;277", "source": "site boards (no copyright shown);Bing;Trafikverkets v\u00e4gdatabas (NVDB)", "surface": "asphalt", "tunnel": "yes", "unsigned_ref": "277", "website": "https://www.trafikverket.se/Privat/Projekt/Stockholm/E20-norra-lanken/", "wikidata": "Q1716983", "wikipedia": "sv:Norra l\u00e4nken", "length": 193.8558195638209}}, {"type": "Feature", "geometry": {"type": "LineString", "coordinates": [[18.027324, 59.34498], [18.0268562, 59.344603], [18.0265114, 59.3443239]]}, "properties": {"bicycle": "no", "foot": "no", "highway": "trunk", "layer": "-1", "maxheight": "default", "maxspeed": "50", "name": "Tomtebodatunneln", "oneway": "yes", "ref": "E 4.25", "surface": "asphalt", "tunnel": "yes", "wikidata": "Q10699804", "length": 86.4872080227014}}, {"type": "Feature", "geometry": {"type": "LineString", "coordinates": [[18.0361744, 59.3494548], [18.0352721, 59.3490959], [18.0341026, 59.3486131], [18.0335999, 59.348413], [18.0332209, 59.3482665], [18.0328388, 59.3481146], [18.0325435, 59.3479778], [18.0320919, 59.3477967], [18.0318186, 59.3476867], [18.0314254, 59.3475183], [18.0311765, 59.3474051]]}, "properties": {"alt_name": "Norra L\u00e4nken", "highway": "motorway", "int_ref": "E 20", "lanes": "3", "layer": "-1", "lit": "24/7", "maxspeed": "70", "name": "Norrtullstunneln", "note": "Southbound traffic from V\u00e4rtan and Norrtull.", "oneway": "yes", "ref": "E 20", "source": "Trafikverkets v\u00e4gdatabas (NVDB)", "surface": "asphalt", "tunnel": "yes", "wikidata": "Q1716983", "wikipedia": "sv:Norra l\u00e4nken", "length": 364.7822106796932}}, {"type": "Feature", "geometry": {"type": "LineString", "coordinates": [[18.0565675, 59.3533094], [18.055948, 59.35322], [18.0554487, 59.3531568], [18.0548696, 59.3530864], [18.0536843, 59.3529365], [18.0530814, 59.3528621], [18.0524989, 59.3527913], [18.0513571, 59.3526561], [18.0507496, 59.3525872], [18.050437, 59.3525772]]}, "properties": {"highway": "motorway_link", "layer": "-1", "maxheight": "4.5", "maxspeed": "70", "name": "Soltunneln", "oneway": "yes", "source": "site boards (no copyright shown);Bing;Trafikverkets v\u00e4gdatabas (NVDB)", "surface": "asphalt", "tunnel": "yes", "website": "https://www.trafikverket.se/Privat/Projekt/Stockholm/E20-norra-lanken/", "wikidata": "Q1716983", "wikipedia": "sv:Norra l\u00e4nken", "length": 358.45095370858394}}, {"type": "Feature", "geometry": {"type": "LineString", "coordinates": [[18.0559827, 59.3529784], [18.0564447, 59.353027], [18.056744, 59.3530601], [18.0573739, 59.353146], [18.057766, 59.3532103], [18.0583891, 59.3533469], [18.0586839, 59.3534236], [18.0591024, 59.3535538], [18.0593582, 59.353648], [18.059706, 59.3537939], [18.0600253, 59.3539582], [18.0602986, 59.3541197], [18.0605923, 59.3543332], [18.060837, 59.3545485], [18.0610543, 59.3547884], [18.0612, 59.3550193]]}, "properties": {"destination": "Norrt\u00e4lje", "destination:ref:to": "E18", "highway": "motorway_link", "lanes": "1", "layer": "-2", "maxheight": "4.5", "maxspeed": "70", "name": "Galaxtunneln", "oneway": "yes", "source": "site boards (no copyright shown);Trafikverkets v\u00e4gdatabas (NVDB)", "surface": "asphalt", "tunnel": "yes", "website": "https://www.trafikverket.se/Privat/Projekt/Stockholm/E20-norra-lanken/", "wikidata": "Q1716983", "wikipedia": "sv:Norra l\u00e4nken", "length": 396.4159559242169}}, {"type": "Feature", "geometry": {"type": "LineString", "coordinates": [[18.0219254, 59.3066367], [18.0223307, 59.3066437], [18.0226707, 59.3066645]]}, "properties": {"cycleway:both": "separate", "foot": "no", "highway": "secondary_link", "lanes": "2", "layer": "-1", "maxheight": "4.3", "maxspeed": "60", "name": "S\u00f6dert\u00e4ljev\u00e4gen", "oneway": "yes", "surface": "asphalt", "tunnel": "yes", "length": 42.60613310143293}}, {"type": "Feature", "geometry": {"type": "LineString", "coordinates": [[18.1511191, 59.3129592], [18.150511, 59.3131641], [18.1500846, 59.3133135], [18.1496942, 59.3134999], [18.1492219, 59.3138106], [18.1489154, 59.3140869], [18.1486728, 59.3145186], [18.1486051, 59.3149314], [18.1484932, 59.3151176]]}, "properties": {"bicycle": "no", "foot": "no", "highway": "tertiary", "lanes": "2", "layer": "-1", "lit": "24/7", "maxheight": "default", "maxspeed": "30", "name": "Ryssbergstunneln", "start_date": "2016-06-21", "surface": "asphalt", "tunnel": "yes", "tunnel:name": "Ryssbergstunneln", "wikidata": "Q24706724", "wikipedia": "sv:Ryssbergstunneln", "length": 298.44583212295214}}, {"type": "Feature", "geometry": {"type": "LineString", "coordinates": [[18.18363, 59.314623], [18.1836055, 59.3143446], [18.1835944, 59.314312]]}, "properties": {"highway": "motorway_link", "lanes": "2", "layer": "-1", "lit": "yes", "maxheight": "default", "maxspeed": "40", "oneway": "yes", "surface": "asphalt", "tunnel": "yes", "length": 34.73155170449864}}, {"type": "Feature", "geometry": {"type": "LineString", "coordinates": [[18.1175503, 59.3070848], [18.1173694, 59.3068283], [18.1165681, 59.3056916], [18.116092, 59.3051167], [18.1152282, 59.3043854]]}, "properties": {"alt_name": "S\u00f6dra l\u00e4nken", "highway": "motorway", "lanes": "2", "layer": "-1", "lit": "24/7", "maxspeed": "70", "name": "Sicklatunneln", "oneway": "yes", "ref": "75", "surface": "asphalt", "tunnel": "yes", "length": 329.70506222471556}}, {"type": "Feature", "geometry": {"type": "LineString", "coordinates": [[18.0311765, 59.3474051], [18.0309582, 59.3473023], [18.0306887, 59.347164], [18.0304431, 59.3470279], [18.0301981, 59.3468845], [18.0300108, 59.3467678], [18.0298409, 59.3466488]]}, "properties": {"alt_name": "Norra L\u00e4nken", "highway": "motorway", "int_ref": "E 20", "lanes": "2", "layer": "-1", "maxspeed": "70", "name": "Norrtullstunneln", "note": "Southbound traffic from V\u00e4rtan and Norrtull. Due to open 2014-03-16", "oneway": "yes", "ref": "E 20", "source": "Trafikverkets v\u00e4gdatabas (NVDB)", "surface": "asphalt", "tunnel": "yes", "wikidata": "Q1716983", "wikipedia": "sv:Norra l\u00e4nken", "length": 113.66820421590093}}, {"type": "Feature", "geometry": {"type": "LineString", "coordinates": [[18.0405064, 59.3507526], [18.0402368, 59.3507178], [18.0397383, 59.3506459], [18.0394768, 59.3506014], [18.0390795, 59.3505188], [18.0389341, 59.350489], [18.0387076, 59.3504383], [18.0384259, 59.3503679], [18.0383202, 59.3503414], [18.0380216, 59.3502558], [18.0377796, 59.3501778], [18.0374791, 59.3500675], [18.0372481, 59.3499773], [18.0368948, 59.3498277], [18.0364111, 59.3496188], [18.0361744, 59.3494548]]}, "properties": {"highway": "motorway_link", "layer": "-1", "maxheight": "4.5", "maxspeed": "70", "name": "Norrtullsp\u00e5farten", "oneway": "yes", "source": "Trafikverkets v\u00e4gdatabas (NVDB)", "surface": "asphalt", "tunnel": "yes", "website": "https://www.trafikverket.se/Privat/Projekt/Stockholm/E20-norra-lanken/", "wikidata": "Q1716983", "wikipedia": "sv:Norra l\u00e4nken", "length": 291.1002960366296}}, {"type": "Feature", "geometry": {"type": "LineString", "coordinates": [[18.038725, 59.3530892], [18.0388251, 59.3529652], [18.038892, 59.3528627], [18.038941, 59.3527727], [18.0389746, 59.3526959], [18.0390096, 59.3526067], [18.0390422, 59.3524782], [18.0390538, 59.3523562], [18.0390499, 59.3522426], [18.039035, 59.3521292], [18.0390142, 59.3520502], [18.0389688, 59.3519267], [18.0389114, 59.3518121], [18.0388413, 59.3517033], [18.0387457, 59.3515769], [18.03865, 59.3514571], [18.0385419, 59.3513122], [18.0384778, 59.3512137], [18.0384472, 59.351149], [18.0384276, 59.3510873], [18.0384096, 59.3510222], [18.0384095, 59.3509559], [18.0384169, 59.3508745], [18.0384496, 59.35078], [18.0384898, 59.3507009], [18.0385473, 59.3506236], [18.038599, 59.3505674], [18.0386641, 59.3505074], [18.0387821, 59.3504245], [18.0388667, 59.3503747], [18.0389647, 59.3503258], [18.0390461, 59.350293], [18.0391758, 59.3502449], [18.0393244, 59.350202], [18.0394738, 59.3501671], [18.0397024, 59.3501323], [18.0398954, 59.3501177], [18.0399933, 59.350112], [18.0401294, 59.3501124], [18.0402168, 59.3501123], [18.0403297, 59.3501212], [18.0407164, 59.3501668], [18.0413274, 59.3502791], [18.0416354, 59.3503422], [18.0421007, 59.3504369]]}, "properties": {"access": "yes", "highway": "motorway_link", "lanes": "1", "layer": "-3", "lit": "24/7", "maxheight": "4.5", "maxspeed": "50", "name": "Karolinertunneln", "oneway": "yes", "source": "site boards (no copyright shown);Trafikverkets v\u00e4gdatabas (NVDB)", "surface": "asphalt", "tunnel": "yes", "website": "https://www.trafikverket.se/Privat/Projekt/Stockholm/E20-norra-lanken/", "wikidata": "Q1716983", "wikipedia": "sv:Norra l\u00e4nken", "length": 515.5559976315623}}, {"type": "Feature", "geometry": {"type": "LineString", "coordinates": [[18.0127474, 59.3554669], [18.0139928, 59.3552078]]}, "properties": {"foot": "no", "highway": "secondary", "layer": "-1", "maxheight": "default", "maxspeed": "50", "name": "Solnav\u00e4gen", "oneway": "yes", "surface": "asphalt", "tunnel": "yes", "length": 76.49549592842273}}, {"type": "Feature", "geometry": {"type": "LineString", "coordinates": [[18.0139118, 59.3553324], [18.0127111, 59.3555666]]}, "properties": {"foot": "no", "highway": "secondary", "layer": "-1", "maxheight": "default", "maxspeed": "50", "name": "Solnav\u00e4gen", "oneway": "yes", "surface": "asphalt", "tunnel": "yes", "length": 73.11165730546148}}, {"type": "Feature", "geometry": {"type": "LineString", "coordinates": [[18.0539624, 59.3299266], [18.0536133, 59.3305076]]}, "properties": {"bicycle": "no", "cycleway:both": "no", "foot": "no", "highway": "trunk_link", "layer": "-1", "lit": "yes", "maxheight": "default", "maxspeed": "50", "name": "Blekholmsfaret", "oneway": "yes", "source": "Bing", "tunnel": "yes", "length": 67.70586607724842}}, {"type": "Feature", "geometry": {"type": "LineString", "coordinates": [[18.0532762, 59.3308616], [18.0518363, 59.3322836], [18.0516605, 59.3324865], [18.0516129, 59.3325468], [18.0515045, 59.3326888]]}, "properties": {"bicycle": "no", "foot": "no", "highway": "trunk_link", "layer": "-2", "lit": "yes", "maxheight": "default", "maxspeed": "50", "name": "Blekholmstunneln", "oneway": "yes", "surface": "asphalt", "tunnel": "yes", "length": 227.30154452292405}}, {"type": "Feature", "geometry": {"type": "LineString", "coordinates": [[18.0989314, 59.3508741], [18.099241, 59.35081], [18.0996965, 59.3507386], [18.1001479, 59.3506836], [18.100724, 59.3506389]]}, "properties": {"highway": "motorway_link", "int_ref": "E 20", "lanes": "1", "layer": "-1", "maxheight": "default", "maxspeed": "70", "name": "Hjorthagsrampen", "oneway": "yes", "ref": "E 20", "source": "Bing", "surface": "asphalt", "tunnel": "yes", "length": 105.66321979290079}}, {"type": "Feature", "geometry": {"type": "LineString", "coordinates": [[18.0363964, 59.3492118], [18.0370376, 59.3494185]]}, "properties": {"alt_name": "Norra L\u00e4nken", "destination": "Norrtull", "destination:colour": "white;", "destination:ref": "E20;277", "destination:symbol": ";ferry", "highway": "motorway", "int_ref": "E 20", "lanes": "2", "layer": "-2", "maxspeed": "70", "name": "G\u00e4rdestunneln", "oneway": "yes", "ref": "E 20;277", "source": "site boards (no copyright shown)", "surface": "asphalt", "tunnel": "yes", "turn:lanes": "through|through;slight_right", "website": "https://www.trafikverket.se/Privat/Projekt/Stockholm/E20-norra-lanken/", "wikidata": "Q1716983", "wikipedia": "sv:Norra l\u00e4nken", "length": 43.13881616389684}}, {"type": "Feature", "geometry": {"type": "LineString", "coordinates": [[18.0472064, 59.3520511], [18.047057, 59.3520072], [18.0465166, 59.3518431], [18.0462261, 59.3517531], [18.0457318, 59.3515804], [18.0451149, 59.3513713], [18.0448686, 59.3512928], [18.044434, 59.3511713], [18.0438793, 59.3510391], [18.0433764, 59.3509421], [18.0429223, 59.3508753], [18.0426414, 59.3508388], [18.0419779, 59.3507703], [18.0412076, 59.3506983], [18.0407136, 59.3506512], [18.0400564, 59.350586], [18.0394739, 59.3505213], [18.0392724, 59.3504904], [18.0390835, 59.3504595], [18.038663, 59.3503731], [18.038455, 59.3503217], [18.0382383, 59.3502656], [18.0379626, 59.3501854], [18.0376408, 59.3500717], [18.037348, 59.3499576], [18.0371228, 59.3498627], [18.0365395, 59.3496121], [18.0361744, 59.3494548]]}, "properties": {"alt_name": "Norra L\u00e4nken", "highway": "motorway", "int_ref": "E 20", "lanes": "2", "layer": "-1", "maxheight": "default", "maxspeed": "70", "name": "Norrtullstunneln", "oneway": "yes", "ref": "E 20;277", "source": "site boards (no copyright shown);Bing;Trafikverkets v\u00e4gdatabas (NVDB)", "surface": "asphalt", "tunnel": "yes", "unsigned_ref": "277", "website": "https://www.trafikverket.se/Privat/Projekt/Stockholm/E20-norra-lanken/", "wikidata": "Q1716983", "wikipedia": "sv:Norra l\u00e4nken", "length": 702.6524264985653}}, {"type": "Feature", "geometry": {"type": "LineString", "coordinates": [[18.084995, 59.295183], [18.084858, 59.295425], [18.0847478, 59.2955625], [18.0846202, 59.2957048], [18.0843336, 59.2959461], [18.0839982, 59.2961487], [18.0837226, 59.2962838], [18.083447, 59.2963988], [18.0830785, 59.296521], [18.0826817, 59.2966247], [18.0823226, 59.2966914], [18.0818707, 59.2967518], [18.0813778, 59.2967879], [18.0808408, 59.2967871], [18.0804142, 59.2967641], [18.0797906, 59.2966888], [18.0791683, 59.2965902]]}, "properties": {"highway": "motorway_link", "layer": "-3", "maxheight": "default", "maxspeed": "70", "name": "Bagartunneln", "oneway": "yes", "surface": "asphalt", "tunnel": "yes", "length": 420.94632781336287}}, {"type": "Feature", "geometry": {"type": "LineString", "coordinates": [[18.0645788, 59.3532347], [18.0650071, 59.3531346], [18.0653843, 59.3530669], [18.0658309, 59.3530003], [18.0662744, 59.3529469], [18.0667796, 59.3528967], [18.0674213, 59.352837], [18.0683526, 59.3527444], [18.0690584, 59.3526737], [18.0703859, 59.3524855], [18.0709277, 59.3524116], [18.0710569, 59.3523576]]}, "properties": {"access": "yes", "highway": "motorway_link", "layer": "-1", "maxheight": "4.5", "maxspeed": "70", "name": "Komettunneln", "oneway": "yes", "source": "site boards (no copyright shown);Trafikverkets v\u00e4gdatabas (NVDB)", "surface": "asphalt", "tunnel": "yes", "website": "https://www.trafikverket.se/Privat/Projekt/Stockholm/E20-norra-lanken/", "wikidata": "Q1716983", "wikipedia": "sv:Norra l\u00e4nken", "length": 382.97047178005465}}, {"type": "Feature", "geometry": {"type": "LineString", "coordinates": [[18.0637566, 59.3528366], [18.0644325, 59.3528233], [18.0668184, 59.3527347]]}, "properties": {"alt_name": "Norra l\u00e4nken", "highway": "motorway", "int_ref": "E 20", "lanes": "3", "layer": "-1", "maxspeed": "70", "name": "G\u00e4rdestunneln", "oneway": "yes", "ref": "E 20;277", "shoulder:right": "yes", "source": "Yahoo;survey;Trafikverkets v\u00e4gdatabas (NVDB)", "surface": "asphalt", "tunnel": "yes", "turn:lanes": "||merge_to_left", "website": "https://www.trafikverket.se/Privat/Projekt/Stockholm/E20-norra-lanken/", "wikidata": "Q1716983", "wikipedia": "sv:Norra l\u00e4nken", "length": 174.56132970167246}}, {"type": "Feature", "geometry": {"type": "LineString", "coordinates": [[18.0516544, 59.3525359], [18.0523854, 59.352584], [18.0526444, 59.3526083], [18.0529682, 59.3526358], [18.0534936, 59.3526795], [18.0538615, 59.3527094], [18.054156, 59.352731], [18.0545472, 59.3527578], [18.0550955, 59.3527887], [18.0558379, 59.3528236]]}, "properties": {"alt_name": "Norra l\u00e4nken", "highway": "motorway", "int_ref": "E 20", "lanes": "2", "layer": "-1", "maxheight": "4.5", "maxspeed": "70", "name": "G\u00e4rdestunneln", "oneway": "yes", "ref": "E 20;277", "shoulder:right": "yes", "source": "Yahoo;survey;Trafikverkets v\u00e4gdatabas (NVDB)", "surface": "asphalt", "tunnel": "yes", "website": "https://www.trafikverket.se/Privat/Projekt/Stockholm/E20-norra-lanken/", "wikidata": "Q1716983", "wikipedia": "sv:Norra l\u00e4nken", "length": 240.2244006004649}}, {"type": "Feature", "geometry": {"type": "LineString", "coordinates": [[18.0603886, 59.3563209], [18.0604056, 59.3561879], [18.0604106, 59.3560607], [18.0604055, 59.355893], [18.0603945, 59.3557695], [18.0603795, 59.3556895], [18.0603326, 59.3554978], [18.0602737, 59.3553423], [18.0601539, 59.3551064], [18.0600727, 59.3549871], [18.0599276, 59.3548095], [18.0597796, 59.3546558], [18.0596858, 59.3545702], [18.0595886, 59.3544873], [18.0594208, 59.354359], [18.059305, 59.3542779], [18.0588438, 59.3539998], [18.0584075, 59.3538075], [18.0580681, 59.3536766], [18.0577477, 59.3535764], [18.057499, 59.3535091], [18.0570502, 59.3534006], [18.0565675, 59.3533094]]}, "properties": {"highway": "motorway_link", "layer": "-3", "maxheight": "4.5", "maxspeed": "70", "name": "Soltunneln", "oneway": "yes", "source": "site boards (no copyright shown);Bing;Trafikverkets v\u00e4gdatabas (NVDB)", "surface": "asphalt", "tunnel": "yes", "website": "https://www.trafikverket.se/Privat/Projekt/Stockholm/E20-norra-lanken/", "wikidata": "Q1716983", "wikipedia": "sv:Norra l\u00e4nken", "length": 433.8760736676721}}, {"type": "Feature", "geometry": {"type": "LineString", "coordinates": [[18.0614125, 59.3556486], [18.0614002, 59.3559375], [18.061363, 59.3561523], [18.0613153, 59.3563129], [18.061274, 59.3564255], [18.0612137, 59.3565656], [18.0609816, 59.3569968], [18.0607817, 59.3573375]]}, "properties": {"access": "yes", "description": "Opens 2014-11-30", "highway": "motorway_link", "lanes": "1", "layer": "-1", "maxheight": "4.5", "maxspeed": "70", "name": "Galaxtunneln", "oneway": "yes", "source": "site boards (no copyright shown);Trafikverkets v\u00e4gdatabas (NVDB)", "surface": "asphalt", "tunnel": "yes", "website": "https://www.trafikverket.se/Privat/Projekt/Stockholm/E20-norra-lanken/", "wikidata": "Q1716983", "wikipedia": "sv:Norra l\u00e4nken", "length": 192.4892591052603}}, {"type": "Feature", "geometry": {"type": "LineString", "coordinates": [[18.0779451, 59.3519387], [18.0770828, 59.3519535], [18.0767494, 59.3519634], [18.0763108, 59.3519841], [18.0758225, 59.3520114], [18.0751124, 59.3520663], [18.0745122, 59.3521254]]}, "properties": {"alt_name": "Norra L\u00e4nken", "highway": "motorway", "int_ref": "E 20", "lanes": "3", "layer": "-1", "maxheight": "default", "maxspeed": "70", "name": "Norrtullstunneln", "oneway": "yes", "ref": "E 20;277", "source": "site boards (no copyright shown);Trafikverkets v\u00e4gdatabas (NVDB)", "surface": "asphalt", "tunnel": "yes", "unsigned_ref": "277", "website": "https://www.trafikverket.se/Privat/Projekt/Stockholm/E20-norra-lanken/", "wikidata": "Q1716983", "wikipedia": "sv:Norra l\u00e4nken", "length": 196.71077605077542}}, {"type": "Feature", "geometry": {"type": "LineString", "coordinates": [[18.0777838, 59.3515971], [18.0780132, 59.3515794], [18.0784307, 59.3515474], [18.0787776, 59.3515197], [18.0792385, 59.3514858], [18.079968, 59.3514286], [18.0804945, 59.3513987], [18.0808629, 59.3513984], [18.0814117, 59.3514066], [18.0819138, 59.3514427], [18.0825531, 59.351519], [18.0831403, 59.3516175], [18.0837417, 59.3517304], [18.084174, 59.3518059], [18.0846675, 59.3518944], [18.0852602, 59.3519715], [18.085937, 59.3520398], [18.0867371, 59.3520849], [18.0871272, 59.3520924], [18.0875332, 59.3520913], [18.0879058, 59.3520894], [18.0884383, 59.3520687], [18.0887709, 59.3520458], [18.08903, 59.3520257]]}, "properties": {"alt_name": "Norra l\u00e4nken", "highway": "motorway", "int_ref": "E 20", "lanes": "2", "layer": "-1", "maxspeed": "70", "name": "Rymdtunneln", "oneway": "yes", "ref": "E 20;277", "shoulder:right": "yes", "source": "Yahoo;survey;Trafikverkets v\u00e4gdatabas (NVDB)", "surface": "asphalt", "tunnel": "yes", "website": "https://www.trafikverket.se/Privat/Projekt/Stockholm/E20-norra-lanken/", "wikidata": "Q1716983", "wikipedia": "sv:Norra l\u00e4nken", "length": 652.2618046085445}}, {"type": "Feature", "geometry": {"type": "LineString", "coordinates": [[18.0421007, 59.3504369], [18.04301, 59.3506253], [18.0444032, 59.3509472], [18.0446392, 59.3510183], [18.0450031, 59.3511244], [18.0452426, 59.3512478]]}, "properties": {"highway": "motorway_link", "lanes": "1", "layer": "-2", "lit": "24/7", "maxheight": "4.5", "maxspeed": "50", "name": "Karolinertunneln", "oneway": "yes", "source": "site boards (no copyright shown);Trafikverkets v\u00e4gdatabas (NVDB)", "surface": "asphalt", "tunnel": "yes", "website": "https://www.trafikverket.se/Privat/Projekt/Stockholm/E20-norra-lanken/", "wikidata": "Q1716983", "wikipedia": "sv:Norra l\u00e4nken", "length": 201.6008088549468}}, {"type": "Feature", "geometry": {"type": "LineString", "coordinates": [[18.0998374, 59.2987797], [18.1001643, 59.2988343], [18.1004362, 59.2988935], [18.1006806, 59.2989559], [18.1008822, 59.2990222], [18.1011327, 59.2991244], [18.101339, 59.299239], [18.1014993, 59.2993661], [18.1016704, 59.2995361], [18.1017407, 59.2996656], [18.1017834, 59.2997841], [18.1018033, 59.2999058], [18.1017972, 59.3000407], [18.1017422, 59.3002154], [18.1016429, 59.3005718], [18.1016386, 59.3007287], [18.1016454, 59.3007795]]}, "properties": {"highway": "motorway_link", "lane_markings": "no", "layer": "-2", "maxheight": "4.5", "maxspeed": "50", "name": "S\u00e5gtunneln", "oneway": "yes", "surface": "asphalt", "tunnel": "yes", "length": 279.41135737251716}}, {"type": "Feature", "geometry": {"type": "LineString", "coordinates": [[18.0301644, 59.3465169], [18.0305026, 59.3467324], [18.0309871, 59.3470076], [18.0311507, 59.3470959], [18.0314815, 59.3472528], [18.0317037, 59.3473348]]}, "properties": {"highway": "motorway", "int_ref": "E 04", "lanes": "2", "layer": "-1", "maxspeed": "70", "name": "G\u00e4rdestunneln", "oneway": "yes", "ref": "E 4", "source": "Trafikverkets v\u00e4gdatabas (NVDB)", "surface": "asphalt", "tunnel": "yes", "length": 126.82058927172834}}, {"type": "Feature", "geometry": {"type": "LineString", "coordinates": [[18.0533159, 59.2956226], [18.0538094, 59.2954912], [18.054319, 59.2953145], [18.054775, 59.2951515], [18.0553356, 59.2949036], [18.055762, 59.29469], [18.0561215, 59.2944886], [18.0563629, 59.2943161], [18.0566391, 59.2940695], [18.0568188, 59.2938298], [18.0569583, 59.2935751], [18.0570415, 59.2932984], [18.0570415, 59.2930656], [18.0569768, 59.2927095]]}, "properties": {"highway": "motorway_link", "lanes": "2", "layer": "-2", "lit": "24/7", "maxheight": "4.5", "maxspeed": "70", "name": "Guldtunneln", "oneway": "yes", "ref": "226", "surface": "asphalt", "tunnel": "yes", "length": 415.4200679034672}}, {"type": "Feature", "geometry": {"type": "LineString", "coordinates": [[18.030351, 59.3464396], [18.0309804, 59.3468645], [18.0312226, 59.3470074], [18.0315694, 59.3471989], [18.0315744, 59.3472015], [18.0315798, 59.3472048], [18.0315851, 59.3472087], [18.0315931, 59.3472155], [18.0317037, 59.3473348]]}, "properties": {"highway": "motorway", "int_ref": "E 20", "lanes": "2", "layer": "-1", "maxspeed": "70", "name": "G\u00e4rdestunneln", "oneway": "yes", "ref": "E 20", "source": "Trafikverkets v\u00e4gdatabas (NVDB)", "surface": "asphalt", "tunnel": "yes", "length": 126.47103665028615}}, {"type": "Feature", "geometry": {"type": "LineString", "coordinates": [[18.0317037, 59.3473348], [18.0323098, 59.3475964], [18.0330815, 59.3478862], [18.033814, 59.3481759], [18.0345306, 59.3484611], [18.0352313, 59.3487405]]}, "properties": {"destination:colour:lanes": "||white;|white;", "destination:lanes": "Sundsvall;Oslo|Sundsvall;Oslo|Norrtull|Norrtull", "destination:ref:lanes": "E4;E18|E4;E18|E18;E20|E18;E20", "destination:symbol:lanes": "airport;hospital|airport;hospital|;ferry|;ferry", "highway": "motorway", "int_ref": "E 04;E 20", "lanes": "4", "layer": "-1", "lit": "24/7", "maxspeed": "70", "name": "G\u00e4rdestunneln", "oneway": "yes", "ref": "E 4;E 20", "shoulder:right": "yes", "source": "Trafikverkets v\u00e4gdatabas (NVDB)", "surface": "asphalt", "tunnel": "yes", "turn:lanes": "through|through|slight_right|slight_right", "length": 254.62131951010673}}, {"type": "Feature", "geometry": {"type": "LineString", "coordinates": [[18.0700087, 59.3342322], [18.069985, 59.3343585], [18.0698873, 59.3344646], [18.0698007, 59.3345269], [18.0696793, 59.3345965], [18.0695106, 59.3346398], [18.0693545, 59.3346719], [18.0691679, 59.3346779], [18.0689756, 59.3346738], [18.0669938, 59.3345721], [18.0667879, 59.3345596], [18.0665597, 59.3345254], [18.0663724, 59.3344922], [18.0661807, 59.3344378], [18.0658409, 59.3343043], [18.0656199, 59.3341758], [18.0654263, 59.3340171], [18.0652671, 59.3338427], [18.0651567, 59.3336882], [18.0650862, 59.3335345], [18.0650446, 59.3333906], [18.0650356, 59.3332854], [18.0650573, 59.3331775], [18.0650989, 59.3330686], [18.0652436, 59.3328269], [18.0654553, 59.3324947], [18.0657031, 59.3322105]]}, "properties": {"bicycle": "no", "foot": "no", "highway": "secondary", "lanes": "1", "layer": "-1", "lit": "24/7", "maxheight": "3", "maxspeed": "50", "name": "Klaratunneln", "oneway": "yes", "start_date": "1979", "surface": "asphalt", "tunnel": "yes", "wikidata": "Q10546062", "wikipedia": "sv:Klaratunneln", "length": 526.229051638922}}, {"type": "Feature", "geometry": {"type": "LineString", "coordinates": [[18.0640299, 59.3303737], [18.0626365, 59.3300075]]}, "properties": {"bicycle": "no", "foot": "no", "highway": "secondary", "layer": "-1", "lit": "24/7", "maxheight": "3", "maxspeed": "50", "name": "Klaratunneln", "oneway": "yes", "surface": "asphalt", "tunnel": "yes", "wikidata": "Q10546062", "wikipedia": "sv:Klaratunneln", "length": 89.1940316261516}}, {"type": "Feature", "geometry": {"type": "LineString", "coordinates": [[18.0088794, 59.3290071], [18.0087129, 59.3285915]]}, "properties": {"highway": "motorway_link", "lanes": "1", "layer": "-1", "lit": "yes", "maxheight": "default", "maxspeed": "70", "oneway": "yes", "surface": "asphalt", "tunnel": "yes", "length": 47.258418236049266}}, {"type": "Feature", "geometry": {"type": "LineString", "coordinates": [[18.0541051, 59.3299698], [18.0538393, 59.330269]]}, "properties": {"bicycle": "no", "cycleway:both": "no", "foot": "no", "highway": "trunk_link", "layer": "-2", "lit": "yes", "maxheight": "default", "maxspeed": "50", "name": "Blekholmsfaret", "oneway": "yes", "surface": "asphalt", "tunnel": "yes", "length": 36.60457019014696}}, {"type": "Feature", "geometry": {"type": "LineString", "coordinates": [[18.1026627, 59.3508692], [18.1010142, 59.3508987], [18.1009445, 59.3509005], [18.1007066, 59.3509106], [18.1002664, 59.3509276], [18.0998643, 59.3509476], [18.0993623, 59.3509675]]}, "properties": {"alt_name": "Norra l\u00e4nken", "highway": "motorway", "int_ref": "E 20", "lanes": "2", "layer": "-1", "maxspeed": "70", "name": "Hjorthagsv\u00e4gen", "oneway": "yes", "ref": "E 20;277", "source": "Bing", "surface": "asphalt", "tunnel": "yes", "unsigned_ref": "277", "website": "https://www.trafikverket.se/Privat/Projekt/Stockholm/E20-norra-lanken/", "wikidata": "Q1716983", "wikipedia": "sv:Norra l\u00e4nken", "length": 188.1328211961514}}, {"type": "Feature", "geometry": {"type": "LineString", "coordinates": [[18.0693786, 59.3189181], [18.0685593, 59.3205155]]}, "properties": {"bicycle": "no", "foot": "no", "highway": "trunk", "lanes": "2", "layer": "-1", "lit": "24/7", "maxspeed": "60", "name": "S\u00f6derledstunneln", "oneway": "yes", "ref": "E 4.25", "surface": "asphalt", "tunnel": "yes", "wikidata": "Q847218", "wikipedia": "sv:S\u00f6derledstunneln", "length": 183.965026072907}}, {"type": "Feature", "geometry": {"type": "LineString", "coordinates": [[18.068405, 59.3204936], [18.0692177, 59.3188805]]}, "properties": {"bicycle": "no", "foot": "no", "highway": "trunk", "lanes": "2", "layer": "-1", "lit": "24/7", "maxheight": "4.5", "maxspeed": "60", "name": "S\u00f6derledstunneln", "oneway": "yes", "ref": "E 4.25", "source": "interpolation", "surface": "asphalt", "tunnel": "yes", "wikidata": "Q847218", "wikipedia": "sv:S\u00f6derledstunneln", "length": 185.56330398468785}}, {"type": "Feature", "geometry": {"type": "LineString", "coordinates": [[18.0692177, 59.3188805], [18.0696159, 59.3180654], [18.0702567, 59.3167538], [18.0705839, 59.3161762], [18.0716193, 59.3140697], [18.0720645, 59.3132154]]}, "properties": {"bicycle": "no", "foot": "no", "highway": "trunk", "lanes": "2", "layer": "-2", "lit": "24/7", "maxheight": "4.5", "maxspeed": "60", "name": "S\u00f6derledstunneln", "oneway": "yes", "ref": "E 4.25", "sidewalk": "no", "source": "interpolation", "surface": "asphalt", "tunnel": "yes", "wikidata": "Q847218", "wikipedia": "sv:S\u00f6derledstunneln", "length": 651.6295510509555}}, {"type": "Feature", "geometry": {"type": "LineString", "coordinates": [[18.15308, 59.3120437], [18.1527939, 59.3123621]]}, "properties": {"foot": "use_sidepath", "highway": "tertiary", "junction": "roundabout", "layer": "-1", "maxspeed": "40", "name": "Kvarnholmsv\u00e4gen", "surface": "asphalt", "tunnel": "yes", "length": 39.033690428426965}}, {"type": "Feature", "geometry": {"type": "LineString", "coordinates": [[18.1084923, 59.3015639], [18.1092154, 59.3017284]]}, "properties": {"highway": "motorway", "lanes": "3", "layer": "-1", "lit": "yes", "maxspeed": "70", "name": "S\u00f6dra l\u00e4nken", "oneway": "yes", "ref": "75", "surface": "asphalt", "tunnel": "yes", "length": 45.08829478513548}}, {"type": "Feature", "geometry": {"type": "LineString", "coordinates": [[18.1090663, 59.3018802], [18.1083635, 59.3017091]]}, "properties": {"highway": "motorway", "lanes": "3", "layer": "-1", "lit": "yes", "maxheight": "default", "maxspeed": "70", "name": "S\u00f6dra l\u00e4nken", "oneway": "yes", "ref": "75", "surface": "asphalt", "tunnel": "yes", "length": 44.34496968930896}}, {"type": "Feature", "geometry": {"type": "LineString", "coordinates": [[18.0836698, 59.2968482], [18.0828874, 59.296858]]}, "properties": {"foot": "yes", "highway": "secondary", "layer": "-1", "maxheight": "default", "maxspeed": "50", "name": "Arenav\u00e4gen", "oneway": "yes", "surface": "asphalt", "tunnel": "yes", "length": 44.59436881767014}}, {"type": "Feature", "geometry": {"type": "LineString", "coordinates": [[18.1035977, 59.3509456], [18.103295, 59.3509208], [18.1026627, 59.3508692]]}, "properties": {"alt_name": "Norra l\u00e4nken", "highway": "motorway_link", "int_ref": "E 20", "lanes": "1", "layer": "-1", "maxheight": "default", "maxspeed": "70", "name": "Hamnp\u00e5farten", "oneway": "yes", "ref": "E 20", "source": "Bing", "surface": "asphalt", "tunnel": "yes", "website": "https://www.vv.se/norralanken", "wikidata": "Q1716983", "wikipedia": "sv:Norra l\u00e4nken", "length": 53.86822108378666}}, {"type": "Feature", "geometry": {"type": "LineString", "coordinates": [[18.0594441, 59.2961497], [18.05982, 59.29615], [18.0627565, 59.2961391]]}, "properties": {"alt_name": "S\u00f6dra l\u00e4nken", "highway": "motorway", "lanes": "2", "layer": "-1", "length": 188.74827544419387, "lit": "24/7", "maxheight": "4.5", "maxspeed": "70", "name": "Hammarbytunneln", "oneway": "yes", "ref": "75", "surface": "asphalt", "tunnel": "yes"}}, {"type": "Feature", "geometry": {"type": "LineString", "coordinates": [[18.0668184, 59.3527347], [18.0675759, 59.3527068], [18.0681598, 59.3526724], [18.0684785, 59.3526533], [18.0688614, 59.352619], [18.0692364, 59.3525798], [18.0700937, 59.3524692], [18.0710569, 59.3523576]]}, "properties": {"alt_name": "Norra l\u00e4nken", "highway": "motorway", "int_ref": "E 20", "lanes": "2", "layer": "-1", "maxspeed": "70", "name": "G\u00e4rdestunneln", "oneway": "yes", "ref": "E 20;277", "shoulder:right": "yes", "source": "Yahoo;survey;Trafikverkets v\u00e4gdatabas (NVDB)", "surface": "asphalt", "tunnel": "yes", "website": "https://www.trafikverket.se/Privat/Projekt/Stockholm/E20-norra-lanken/", "wikidata": "Q1716983", "wikipedia": "sv:Norra l\u00e4nken", "length": 245.27065884986632}}, {"type": "Feature", "geometry": {"type": "LineString", "coordinates": [[18.0710569, 59.3523576], [18.0715391, 59.3522926], [18.0734028, 59.3520245]]}, "properties": {"alt_name": "Norra l\u00e4nken", "highway": "motorway", "int_ref": "E 20", "lanes": "3", "layer": "-1", "maxspeed": "70", "name": "G\u00e4rdestunneln", "oneway": "yes", "ref": "E 20;277", "shoulder:right": "yes", "source": "Yahoo;survey;Trafikverkets v\u00e4gdatabas (NVDB)", "surface": "asphalt", "tunnel": "yes", "turn:lanes": "merge_to_right||", "website": "https://www.trafikverket.se/Privat/Projekt/Stockholm/E20-norra-lanken/", "wikidata": "Q1716983", "wikipedia": "sv:Norra l\u00e4nken", "length": 138.51797742825045}}, {"type": "Feature", "geometry": {"type": "LineString", "coordinates": [[18.0734028, 59.3520245], [18.0743094, 59.3519077], [18.0748942, 59.3518305], [18.0753285, 59.3517939], [18.077081, 59.3516542], [18.0777838, 59.3515971]]}, "properties": {"alt_name": "Norra l\u00e4nken", "highway": "motorway", "int_ref": "E 20", "lanes": "2", "layer": "-1", "maxspeed": "70", "name": "G\u00e4rdestunneln", "oneway": "yes", "ref": "E 20;277", "shoulder:right": "yes", "source": "Yahoo;survey;Trafikverkets v\u00e4gdatabas (NVDB)", "surface": "asphalt", "tunnel": "yes", "website": "https://www.trafikverket.se/Privat/Projekt/Stockholm/E20-norra-lanken/", "wikidata": "Q1716983", "wikipedia": "sv:Norra l\u00e4nken", "length": 253.98019029758294}}, {"type": "Feature", "geometry": {"type": "LineString", "coordinates": [[18.0704712, 59.3527521], [18.0694586, 59.352898], [18.0687384, 59.3530203], [18.0677854, 59.3531664], [18.0670881, 59.3532708], [18.0662571, 59.353382]]}, "properties": {"alt_name": "Norra L\u00e4nken", "highway": "motorway", "int_ref": "E 20", "lanes": "2", "layer": "-1", "maxspeed": "70", "name": "Norrtullstunneln", "oneway": "yes", "ref": "E 20;277", "source": "site boards (no copyright shown);Trafikverkets v\u00e4gdatabas (NVDB)", "surface": "asphalt", "tunnel": "yes", "unsigned_ref": "277", "website": "https://www.trafikverket.se/Privat/Projekt/Stockholm/E20-norra-lanken/", "wikidata": "Q1716983", "wikipedia": "sv:Norra l\u00e4nken", "length": 249.83412977235201}}, {"type": "Feature", "geometry": {"type": "LineString", "coordinates": [[18.0662571, 59.353382], [18.0655299, 59.3534606], [18.0651903, 59.3534983], [18.0643225, 59.3535804], [18.0642014, 59.3535896]]}, "properties": {"alt_name": "Norra L\u00e4nken", "highway": "motorway", "int_ref": "E 20", "lanes": "3", "layer": "-1", "maxspeed": "70", "name": "Norrtullstunneln", "oneway": "yes", "ref": "E 20;277", "source": "site boards (no copyright shown);Trafikverkets v\u00e4gdatabas (NVDB)", "surface": "asphalt", "tunnel": "yes", "unsigned_ref": "277", "website": "https://www.trafikverket.se/Privat/Projekt/Stockholm/E20-norra-lanken/", "wikidata": "Q1716983", "wikipedia": "sv:Norra l\u00e4nken", "length": 119.22244275083882}}, {"type": "Feature", "geometry": {"type": "LineString", "coordinates": [[18.0642014, 59.3535896], [18.0634385, 59.3536604], [18.0630273, 59.3536789], [18.0625276, 59.353692], [18.0618262, 59.3536996], [18.0611061, 59.3537063], [18.0607284, 59.3537059], [18.0599271, 59.3536972], [18.0593744, 59.3536844], [18.0591447, 59.3536783], [18.0588133, 59.3536667], [18.0584579, 59.353652], [18.0581106, 59.3536329], [18.0579352, 59.3536209], [18.0576515, 59.3536003], [18.0575171, 59.353592], [18.0573717, 59.3535788], [18.0570833, 59.3535558], [18.0566547, 59.3535131], [18.0564113, 59.3534859], [18.0560935, 59.3534473], [18.0559375, 59.3534272], [18.0557934, 59.3534077], [18.0554389, 59.3533542], [18.0551769, 59.3533126], [18.0548487, 59.3532545], [18.0546382, 59.353217], [18.0543088, 59.353157], [18.0533168, 59.3529809], [18.0528565, 59.3529051], [18.0521714, 59.3528037], [18.0516143, 59.3527281], [18.051154, 59.3526696], [18.0507718, 59.3526215], [18.050437, 59.3525772]]}, "properties": {"alt_name": "Norra L\u00e4nken", "highway": "motorway", "int_ref": "E 20", "lanes": "2", "layer": "-1", "maxheight": "4.5", "maxspeed": "70", "name": "Norrtullstunneln", "oneway": "yes", "ref": "E 20;277", "source": "site boards (no copyright shown);Trafikverkets v\u00e4gdatabas (NVDB)", "surface": "asphalt", "tunnel": "yes", "unsigned_ref": "277", "website": "https://www.trafikverket.se/Privat/Projekt/Stockholm/E20-norra-lanken/", "wikidata": "Q1716983", "wikipedia": "sv:Norra l\u00e4nken", "length": 800.5638202008682}}, {"type": "Feature", "geometry": {"type": "LineString", "coordinates": [[18.0376788, 59.3496251], [18.0382283, 59.3498331], [18.0388575, 59.3500435], [18.0390559, 59.3501088], [18.0394755, 59.3502399], [18.0397139, 59.3503095], [18.0402154, 59.3504289], [18.0405675, 59.350498], [18.0408354, 59.3505394], [18.0411872, 59.3505836], [18.0423759, 59.3506943], [18.0428654, 59.3507366], [18.0430655, 59.3507628], [18.0435186, 59.3508406], [18.0438896, 59.3509156], [18.0443573, 59.3510306], [18.0446671, 59.3511135], [18.0452426, 59.3512478]]}, "properties": {"alt_name": "Norra L\u00e4nken", "highway": "motorway", "int_ref": "E 20", "lanes": "2", "layer": "-2", "lit": "24/7", "maxspeed": "70", "name": "G\u00e4rdestunneln", "oneway": "yes", "ref": "E 20;277", "shoulder:right": "yes", "source": "site boards (no copyright shown);Trafikverkets v\u00e4gdatabas (NVDB)", "surface": "asphalt", "tunnel": "yes", "website": "https://www.trafikverket.se/Privat/Projekt/Stockholm/E20-norra-lanken/", "wikidata": "Q1716983", "wikipedia": "sv:Norra l\u00e4nken", "length": 472.26124497771997}}, {"type": "Feature", "geometry": {"type": "LineString", "coordinates": [[18.061349, 59.3553754], [18.061384, 59.355491], [18.0614125, 59.3556486]]}, "properties": {"destination": "Norrt\u00e4lje", "destination:ref": "E18", "highway": "motorway_link", "lanes": "1", "layer": "-2", "maxheight": "4.5", "maxspeed": "70", "name": "Galaxtunneln", "oneway": "yes", "source": "site boards (no copyright shown);Trafikverkets v\u00e4gdatabas (NVDB)", "surface": "asphalt", "tunnel": "yes", "website": "https://www.trafikverket.se/Privat/Projekt/Stockholm/E20-norra-lanken/", "wikidata": "Q1716983", "wikipedia": "sv:Norra l\u00e4nken", "length": 30.6624904148131}}, {"type": "Feature", "geometry": {"type": "LineString", "coordinates": [[18.0612, 59.3550193], [18.0612971, 59.3552038], [18.061349, 59.3553754]]}, "properties": {"destination": "Norrt\u00e4lje", "destination:ref": "E18", "highway": "motorway_link", "lanes": "1", "layer": "-3", "maxheight": "4.5", "maxspeed": "70", "name": "Galaxtunneln", "oneway": "yes", "source": "site boards (no copyright shown);Trafikverkets v\u00e4gdatabas (NVDB)", "surface": "asphalt", "tunnel": "yes", "website": "https://www.trafikverket.se/Privat/Projekt/Stockholm/E20-norra-lanken/", "wikidata": "Q1716983", "wikipedia": "sv:Norra l\u00e4nken", "length": 40.62579091808309}}, {"type": "Feature", "geometry": {"type": "LineString", "coordinates": [[18.0601455, 59.3529051], [18.0606739, 59.3529036], [18.061641, 59.3528985], [18.0620494, 59.3528961], [18.0629605, 59.3528822], [18.0630223, 59.3528813], [18.0637566, 59.3528366]]}, "properties": {"alt_name": "Norra l\u00e4nken", "highway": "motorway", "int_ref": "E 20", "lanes": "2", "layer": "-1", "maxspeed": "70", "name": "G\u00e4rdestunneln", "oneway": "yes", "ref": "E 20;277", "shoulder:right": "yes", "source": "Yahoo;survey;Trafikverkets v\u00e4gdatabas (NVDB)", "surface": "asphalt", "tunnel": "yes", "website": "https://www.trafikverket.se/Privat/Projekt/Stockholm/E20-norra-lanken/", "wikidata": "Q1716983", "wikipedia": "sv:Norra l\u00e4nken", "length": 205.7466690494336}}, {"type": "Feature", "geometry": {"type": "LineString", "coordinates": [[18.0657031, 59.3322105], [18.0659184, 59.3318636], [18.0660323, 59.3316098], [18.0660341, 59.331405], [18.066007, 59.3312712], [18.0659473, 59.3311798], [18.0658641, 59.3310756], [18.0656778, 59.3309122], [18.0654788, 59.3307923], [18.0652961, 59.330712], [18.0650627, 59.3306308], [18.0648492, 59.3305727], [18.0640299, 59.3303737], [18.0625889, 59.3300616]]}, "properties": {"bicycle": "no", "foot": "no", "highway": "secondary", "lanes": "2", "layer": "-1", "lit": "24/7", "maxheight": "3", "maxspeed": "50", "name": "Klaratunneln", "oneway": "yes", "start_date": "1976", "surface": "asphalt", "tunnel": "yes", "wikidata": "Q10546062", "wikipedia": "sv:Klaratunneln", "length": 353.4904295781501}}, {"type": "Feature", "geometry": {"type": "LineString", "coordinates": [[18.0659693, 59.3322515], [18.065325, 59.3331354], [18.0652439, 59.3332619]]}, "properties": {"bicycle": "no", "foot": "no", "highway": "secondary", "lanes": "1", "layer": "-2", "lit": "24/7", "maxheight": "3", "maxspeed": "50", "name": "Klaratunneln", "oneway": "yes", "start_date": "1976", "surface": "asphalt", "tunnel": "yes", "wikidata": "Q10546062", "wikipedia": "sv:Klaratunneln", "length": 119.90392005797096}}, {"type": "Feature", "geometry": {"type": "LineString", "coordinates": [[18.0751896, 59.3071436], [18.0746488, 59.3081653]]}, "properties": {"bicycle": "no", "foot": "no", "highway": "trunk_link", "layer": "-2", "maxheight": "default", "maxspeed": "60", "name": "S\u00f6derleden", "oneway": "yes", "surface": "asphalt", "tunnel": "yes", "wikidata": "Q18449258", "wikipedia": "sv:S\u00f6derleden, Stockholm", "length": 117.91285493596523}}, {"type": "Feature", "geometry": {"type": "LineString", "coordinates": [[18.0745122, 59.3521254], [18.0740628, 59.3521748], [18.0734209, 59.35226], [18.0728195, 59.3523496], [18.0722814, 59.3524446], [18.0711344, 59.3526348], [18.0704712, 59.3527521]]}, "properties": {"alt_name": "Norra L\u00e4nken", "highway": "motorway", "int_ref": "E 20", "lanes": "3", "layer": "-2", "maxspeed": "70", "name": "Norrtullstunneln", "oneway": "yes", "ref": "E 20;277", "source": "site boards (no copyright shown);Trafikverkets v\u00e4gdatabas (NVDB)", "surface": "asphalt", "tunnel": "yes", "unsigned_ref": "277", "website": "https://www.trafikverket.se/Privat/Projekt/Stockholm/E20-norra-lanken/", "wikidata": "Q1716983", "wikipedia": "sv:Norra l\u00e4nken", "length": 240.4361548030558}}, {"type": "Feature", "geometry": {"type": "LineString", "coordinates": [[18.0352313, 59.3487405], [18.0363964, 59.3492118]]}, "properties": {"change:lanes": "yes|not_right|not_left|yes", "destination:colour:lanes": "||white;|white;", "destination:lanes": "Sundsvall|Sundsvall|Norrtull|Norrtull", "destination:ref:lanes": "E4|E4|E20|E20", "destination:symbol:lanes": "airport;hospital|airport;hospital|;ferry|;ferry", "highway": "motorway", "int_ref": "E 04;E 20", "lanes": "4", "layer": "-1", "maxspeed": "70", "name": "G\u00e4rdestunneln", "oneway": "yes", "ref": "E 4;E 20", "shoulder:right": "yes", "source": "Trafikverkets v\u00e4gdatabas (NVDB)", "surface": "asphalt", "tunnel": "yes", "turn:lanes": "through|through|slight_right|slight_right", "length": 84.55996276184014}}, {"type": "Feature", "geometry": {"type": "LineString", "coordinates": [[18.0370376, 59.3494185], [18.0374475, 59.3495506]]}, "properties": {"alt_name": "Norra L\u00e4nken", "destination:colour:lanes": "|;white;", "destination:lanes": "Liding\u00f6|Liding\u00f6;Norrtull", "destination:ref:lanes": "E20;277|E20;277", "destination:symbol:lanes": "ferry|ferry;", "highway": "motorway", "int_ref": "E 20", "lanes": "2", "layer": "-2", "maxspeed": "70", "name": "G\u00e4rdestunneln", "oneway": "yes", "ref": "E 20;277", "source": "site boards (no copyright shown)", "surface": "asphalt", "tunnel": "yes", "turn:lanes": "through|through;slight_right", "website": "https://www.trafikverket.se/Privat/Projekt/Stockholm/E20-norra-lanken/", "wikidata": "Q1716983", "wikipedia": "sv:Norra l\u00e4nken", "length": 27.57505023254209}}, {"type": "Feature", "geometry": {"type": "LineString", "coordinates": [[18.0702549, 59.3212224], [18.0701569, 59.3212182], [18.0699614, 59.321195], [18.0697641, 59.321158]]}, "properties": {"bicycle": "no", "foot": "use_sidepath", "highway": "secondary", "layer": "-3", "lit": "yes", "maxheight": "3.4", "maxspeed": "30", "name": "S\u00f6dra J\u00e4rngraven", "oneway": "yes", "ref": "222", "surface": "asphalt", "tunnel": "yes", "wikidata": "Q18613081", "wikipedia": "sv:J\u00e4rngraven", "length": 28.993675837199234}}, {"type": "Feature", "geometry": {"type": "LineString", "coordinates": [[18.0305797, 59.3464062], [18.0308729, 59.3466144], [18.0311749, 59.3468113], [18.0313717, 59.3469252]]}, "properties": {"check_date": "2020-02-20", "highway": "motorway_link", "lanes": "2", "maxheight": "default", "name": "Solnabroavfarten", "oneway": "yes", "surface": "asphalt", "tunnel": "yes", "length": 73.35630181727859}}, {"type": "Feature", "geometry": {"type": "LineString", "coordinates": [[18.0699592, 59.3210451], [18.070253, 59.3210608], [18.0704695, 59.3210799]]}, "properties": {"bicycle": "no", "foot": "no", "highway": "secondary", "layer": "-3", "lit": "yes", "maxheight": "3.4", "maxspeed": "30", "name": "S\u00f6dra J\u00e4rngraven", "oneway": "yes", "ref": "222", "surface": "asphalt", "tunnel": "yes", "wikidata": "Q18613081", "wikipedia": "sv:J\u00e4rngraven", "length": 29.32960489755211}}, {"type": "Feature", "geometry": {"type": "LineString", "coordinates": [[18.0260522, 59.3408549], [18.0258103, 59.3413673], [18.025678, 59.3417696], [18.0255641, 59.3425548]]}, "properties": {"bicycle": "no", "foot": "no", "highway": "trunk", "lanes": "1", "layer": "-1", "lit": "24/7", "maxheight": "default", "maxspeed": "50", "name": "Karlbergstunneln", "oneway": "yes", "ref": "E 4.25", "surface": "asphalt", "tunnel": "yes", "wikidata": "Q10543776", "wikipedia:sv": "Karlbergstunneln", "length": 191.87469234419532}}, {"type": "Feature", "geometry": {"type": "LineString", "coordinates": [[18.0254917, 59.3425765], [18.025575, 59.3417795], [18.0257079, 59.3413762], [18.0259086, 59.3409694]]}, "properties": {"bicycle": "no", "foot": "no", "highway": "trunk", "layer": "-1", "lit": "24/7", "maxspeed": "50", "name": "Karlbergstunneln", "oneway": "yes", "ref": "E 4.25", "surface": "asphalt", "tunnel": "yes", "wikidata": "Q10543776", "wikipedia:sv": "Karlbergstunneln", "length": 181.20809320759173}}, {"type": "Feature", "geometry": {"type": "LineString", "coordinates": [[18.0865377, 59.29055], [18.0868622, 59.2899919], [18.0872042, 59.2892193], [18.0874845, 59.2886166]]}, "properties": {"highway": "motorway_link", "layer": "-2", "maxheight": "default", "maxspeed": "70", "name": "\u00d6stra Sofielundsavfarten", "oneway": "yes", "surface": "asphalt", "tunnel": "yes", "length": 222.12701801180955}}, {"type": "Feature", "geometry": {"type": "LineString", "coordinates": [[18.0711558, 59.3145273], [18.0714036, 59.3140343]]}, "properties": {"bicycle": "no", "cycleway:both": "no", "foot": "no", "highway": "tertiary", "layer": "-2", "lit": "yes", "maxheight": "4.5", "maxspeed": "50", "name": "S\u00f6dermalmsavfarten", "oneway": "yes", "surface": "asphalt", "tunnel": "yes", "wikidata": "Q847218", "wikipedia": "sv:S\u00f6derledstunneln", "length": 56.704652381459276}}, {"type": "Feature", "geometry": {"type": "LineString", "coordinates": [[18.1527108, 59.3123663], [18.1530048, 59.3120297]]}, "properties": {"foot": "no", "highway": "tertiary", "junction": "roundabout", "layer": "-1", "maxspeed": "40", "name": "Kvarnholmsv\u00e4gen", "surface": "asphalt", "tunnel": "yes", "length": 41.066228440956465}}, {"type": "Feature", "geometry": {"type": "LineString", "coordinates": [[18.0791683, 59.2965902], [18.0783342, 59.2964772], [18.0777065, 59.2964238], [18.076517, 59.2963654]]}, "properties": {"highway": "motorway_link", "layer": "-1", "maxheight": "default", "maxspeed": "70", "name": "Bagartunneln", "oneway": "yes", "surface": "asphalt", "tunnel": "yes", "length": 153.51402023387823}}, {"type": "Feature", "geometry": {"type": "LineString", "coordinates": [[18.0516544, 59.3525359], [18.0519073, 59.3525914], [18.0522953, 59.3526317], [18.0546921, 59.3528524], [18.0554936, 59.3529323], [18.0559827, 59.3529784]]}, "properties": {"destination": "Norrt\u00e4lje", "destination:ref:to": "E18", "highway": "motorway_link", "lanes": "1", "layer": "-1", "maxheight": "4.5", "maxspeed": "70", "name": "Galaxtunneln", "oneway": "yes", "source": "site boards (no copyright shown);Trafikverkets v\u00e4gdatabas (NVDB)", "surface": "asphalt", "tunnel": "yes", "website": "https://www.trafikverket.se/Privat/Projekt/Stockholm/E20-norra-lanken/", "wikidata": "Q1716983", "wikipedia": "sv:Norra l\u00e4nken", "length": 251.47492420517298}}, {"type": "Feature", "geometry": {"type": "LineString", "coordinates": [[18.0558379, 59.3528236], [18.0563031, 59.3528471], [18.0570434, 59.3528648], [18.0575383, 59.3528766], [18.0580482, 59.3528859], [18.0587152, 59.3528951], [18.0601455, 59.3529051]]}, "properties": {"alt_name": "Norra l\u00e4nken", "highway": "motorway", "int_ref": "E 20", "lanes": "2", "layer": "-3", "maxheight": "4.5", "maxspeed": "70", "name": "G\u00e4rdestunneln", "oneway": "yes", "ref": "E 20;277", "shoulder:right": "yes", "source": "Yahoo;survey;Trafikverkets v\u00e4gdatabas (NVDB)", "surface": "asphalt", "tunnel": "yes", "website": "https://www.trafikverket.se/Privat/Projekt/Stockholm/E20-norra-lanken/", "wikidata": "Q1716983", "wikipedia": "sv:Norra l\u00e4nken", "length": 245.2886049935282}}, {"type": "Feature", "geometry": {"type": "LineString", "coordinates": [[18.0837804, 59.2943681], [18.0843692, 59.2935506]]}, "properties": {"destination": "Nyn\u00e4shamn;Globen", "highway": "motorway_link", "layer": "-2", "maxheight": "4.5", "maxspeed": "70", "name": "Sotartunneln", "oneway": "yes", "surface": "asphalt", "tunnel": "yes", "length": 97.05389575660895}}, {"type": "Feature", "geometry": {"type": "LineString", "coordinates": [[18.0941312, 59.2977465], [18.093251, 59.2975818]]}, "properties": {"destination": "Globen;Nyn\u00e4shamn", "highway": "motorway_link", "layer": "-1", "maxheight": "default", "maxspeed": "70", "name": "M\u00e5lartunneln", "oneway": "yes", "surface": "asphalt", "tunnel": "yes", "length": 53.40320309605254}}, {"type": "Feature", "geometry": {"type": "LineString", "coordinates": [[18.0538393, 59.330269], [18.0536133, 59.3305076], [18.0532762, 59.3308616]]}, "properties": {"bicycle": "no", "cycleway:both": "no", "foot": "no", "highway": "trunk_link", "layer": "-2", "lit": "yes", "maxheight": "default", "maxspeed": "50", "name": "Blekholmsfaret", "oneway": "yes", "surface": "asphalt", "tunnel": "yes", "length": 73.3864317979371}}]}