{"type": "FeatureCollection", "features": [{"type": "Feature", "geometry": {"type": "LineString", "coordinates": [[17.038042, 51.1077299], [17.0385538, 51.1076915], [17.0387402, 51.1076702], [17.0391629, 51.1076148]]}, "properties": {"highway": "secondary", "lanes": "2", "layer": "-1", "lit": "24/7", "maxspeed": "50", "name": "O\u0142awska", "name:etymology:wikidata": "Q924049", "oneway": "yes", "sidewalk": "no", "source:maxspeed": "PL:urban", "surface": "asphalt", "tunnel": "yes", "length": 79.60407600020854}}, {"type": "Feature", "geometry": {"type": "LineString", "coordinates": [[17.0393595, 51.1077884], [17.0386728, 51.1078683], [17.0383697, 51.1078967], [17.0381021, 51.1079094]]}, "properties": {"highway": "secondary", "lanes": "2", "layer": "-1", "lit": "24/7", "maxspeed": "50", "name": "O\u0142awska", "name:etymology:wikidata": "Q924049", "oneway": "yes", "sidewalk:left": "separate", "sidewalk:right": "no", "source:maxspeed": "PL:urban", "surface": "asphalt", "tunnel": "yes", "length": 89.16334361798246}}, {"type": "Feature", "geometry": {"type": "LineString", "coordinates": [[17.1308525, 51.1760841], [17.1303394, 51.1761797]]}, "properties": {"highway": "primary", "highway:category:pl": "2", "lanes": "2", "maxaxleload": "10", "maxspeed": "100", "maxspeed:bus": "80", "maxspeed:hgv:conditional": "100 @ (weight<=3.5); 80 @ (weight>3.5)", "maxspeed:trailer": "80", "name": "\u0141\u0105cznik D\u0142ugo\u0142\u0119ka", "old_ref": "98", "oneway": "yes", "ref": "372", "source:maxaxleload": "Rozporz\u0105dzenie Ministra Infrastruktury i Budownictwa z dnia 21 kwietnia 2017 r", "source:maxspeed": "PL:rural", "surface": "asphalt", "tunnel": "yes", "length": 37.42495340712567}}, {"type": "Feature", "geometry": {"type": "LineString", "coordinates": [[17.1302863, 51.1760798], [17.1307979, 51.1759828]]}, "properties": {"highway": "primary", "highway:category:pl": "2", "lanes": "2", "maxaxleload": "10", "maxspeed": "100", "name": "\u0141\u0105cznik D\u0142ugo\u0142\u0119ka", "old_ref": "98", "oneway": "yes", "ref": "372", "source:maxaxleload": "Rozporz\u0105dzenie Ministra Infrastruktury i Budownictwa z dnia 21 kwietnia 2017 r", "surface": "asphalt", "tunnel": "yes", "length": 37.36914760352079}}]}