{"type": "FeatureCollection", "features": [{"type": "Feature", "geometry": {"type": "LineString", "coordinates": [[-3.7257488, 40.4221838], [-3.7244052, 40.421654], [-3.7237976, 40.4213522]]}, "properties": {"bicycle": "no", "destination:lanes": "A-42 Toledo;A-4;A-3;A-2|A-42 Toledo;A-4;A-3;A-2|A-42 Toledo;A-4;A-3;A-2|c/Segovia;P\u00ba Extremadura;Casa de Campo;A-5 Badajoz", "foot": "no", "hazmat": "no", "highway": "motorway", "lanes": "4", "layer": "-1", "lit": "24/7", "maxheight": "4.5", "maxspeed": "70", "maxweight": "7.5", "name": "Calle 30", "oneway": "yes", "ref": "M-30", "ref:colour": "blue", "surface": "asphalt", "tunnel": "yes", "turn:lanes": "through|through|through|right", "length": 189.8062225419578}}, {"type": "Feature", "geometry": {"type": "LineString", "coordinates": [[-3.7261745, 40.415877], [-3.7298638, 40.4144824], [-3.7353013, 40.4124538]]}, "properties": {"destination:lanes": "A-5 Badajoz|A-5 Badajoz|Bat\u00e1n|Casa de Campo", "highway": "motorway", "lanes": "4", "layer": "-1", "lit": "24/7", "maxheight": "4.5", "maxspeed": "70", "name": "Autov\u00eda del Suroeste", "oneway": "yes", "ref": "A-5", "surface": "asphalt", "tunnel": "yes", "length": 862.884511690346}}, {"type": "Feature", "geometry": {"type": "LineString", "coordinates": [[-3.7392486, 40.4106137], [-3.7385643, 40.4110174], [-3.7377553, 40.4114189], [-3.7372963, 40.4116181], [-3.7352561, 40.4123742], [-3.729798, 40.4144191], [-3.7247291, 40.4162944]]}, "properties": {"highway": "motorway", "lanes": "4", "layer": "-1", "lit": "24/7", "maxheight": "4.5", "maxspeed": "70", "name": "Autov\u00eda del Suroeste", "oneway": "yes", "ref": "A-5", "ref:colour": "blue", "surface": "asphalt", "tunnel": "yes", "length": 1386.3801487243297}}, {"type": "Feature", "geometry": {"type": "LineString", "coordinates": [[-3.7463745, 40.4811504], [-3.745882, 40.481522], [-3.7448505, 40.4824759], [-3.7437498, 40.4837317], [-3.742759, 40.4851553], [-3.7421044, 40.4861656]]}, "properties": {"highway": "motorway", "lanes": "4", "layer": "-1", "maxspeed": "80", "name": "T\u00fanel del Pardo", "oneway": "yes", "ref": "M-40", "ref:colour": "blue", "surface": "asphalt", "tunnel": "yes", "length": 668.054445709314}}, {"type": "Feature", "geometry": {"type": "LineString", "coordinates": [[-3.7423967, 40.4862533], [-3.7432536, 40.4850674], [-3.7442062, 40.4839245], [-3.745251, 40.4828291], [-3.7463837, 40.4817855], [-3.7475726, 40.4807747]]}, "properties": {"highway": "motorway", "lanes": "4", "layer": "-1", "maxspeed": "80", "name": "T\u00fanel del Pardo", "oneway": "yes", "ref": "M-40", "ref:colour": "blue", "surface": "asphalt", "tunnel": "yes", "length": 752.6874832921142}}, {"type": "Feature", "geometry": {"type": "LineString", "coordinates": [[-3.716968, 40.3858242], [-3.7172543, 40.3855662], [-3.7175976, 40.3851151], [-3.7178119, 40.384649]]}, "properties": {"highway": "motorway", "lanes": "2", "layer": "-1", "lit": "yes", "maxspeed": "50", "name": "Autov\u00eda de Toledo", "oneway": "yes", "ref": "A-42", "surface": "asphalt", "tunnel": "yes", "length": 150.39108551131562}}, {"type": "Feature", "geometry": {"type": "LineString", "coordinates": [[-3.7177228, 40.3846219], [-3.7174935, 40.3850846], [-3.7171678, 40.385512], [-3.7169006, 40.3857845]]}, "properties": {"highway": "motorway", "lanes": "2", "layer": "-1", "lit": "yes", "maxspeed": "50", "name": "Autov\u00eda de Toledo", "oneway": "yes", "ref": "A-42", "surface": "asphalt", "tunnel": "yes", "length": 147.69421850443413}}, {"type": "Feature", "geometry": {"type": "LineString", "coordinates": [[-3.7142093, 40.3641212], [-3.7141025, 40.3645176]]}, "properties": {"highway": "tertiary", "layer": "-1", "name": "Avenida de Rafaela Ybarra", "oneway": "yes", "sidewalk": "no", "tunnel": "yes", "length": 44.941946791476525}}, {"type": "Feature", "geometry": {"type": "LineString", "coordinates": [[-3.7441462, 40.3619716], [-3.7442058, 40.3619642], [-3.745226, 40.3618298], [-3.7453064, 40.3618174]]}, "properties": {"highway": "motorway", "int_ref": "E 90", "lanes": "3", "layer": "-1", "maxspeed": "100", "name": "M-40", "oneway": "yes", "ref": "M-40", "surface": "asphalt", "tunnel": "yes", "length": 100.0283325538927}}, {"type": "Feature", "geometry": {"type": "LineString", "coordinates": [[-3.7453085, 40.3616589], [-3.7452379, 40.3616699], [-3.7442035, 40.3618227], [-3.7441403, 40.3618306]]}, "properties": {"highway": "motorway", "int_ref": "E 90", "lanes": "3", "layer": "-1", "maxspeed": "100", "name": "M-40", "oneway": "yes", "ref": "M-40", "surface": "asphalt", "tunnel": "yes", "length": 101.04628506949155}}, {"type": "Feature", "geometry": {"type": "LineString", "coordinates": [[-3.7537452, 40.3598907], [-3.754695, 40.3596237]]}, "properties": {"highway": "motorway", "int_ref": "E 90", "lanes": "3", "layer": "-1", "maxspeed": "100", "name": "M-40", "oneway": "yes", "ref": "M-40", "surface": "asphalt", "tunnel": "yes", "length": 85.95490724169088}}, {"type": "Feature", "geometry": {"type": "LineString", "coordinates": [[-3.7546357, 40.3594685], [-3.7536722, 40.3597337]]}, "properties": {"highway": "motorway", "int_ref": "E 90", "lanes": "3", "layer": "-1", "maxspeed": "100", "name": "M-40", "oneway": "yes", "ref": "M-40", "surface": "asphalt", "tunnel": "yes", "length": 86.98045159225218}}, {"type": "Feature", "geometry": {"type": "LineString", "coordinates": [[-3.8000521, 40.3707779], [-3.8010188, 40.371513]]}, "properties": {"highway": "motorway", "lanes": "3", "layer": "-1", "maxspeed": "100", "name": "M-40", "oneway": "yes", "ref": "M-40", "surface": "asphalt", "tunnel": "yes", "length": 115.77393662379886}}, {"type": "Feature", "geometry": {"type": "LineString", "coordinates": [[-3.8012087, 40.3713714], [-3.8002199, 40.3706189]]}, "properties": {"highway": "motorway", "lanes": "4", "layer": "-1", "maxspeed": "100", "name": "M-40", "oneway": "yes", "ref": "M-40", "surface": "asphalt", "tunnel": "yes", "turn:lanes": "through|through|through|merge_to_left", "length": 118.46737419314756}}, {"type": "Feature", "geometry": {"type": "LineString", "coordinates": [[-3.7780332, 40.3617997], [-3.7789678, 40.3621154]]}, "properties": {"highway": "motorway", "int_ref": "E 90", "lanes": "4", "layer": "-1", "maxspeed": "100", "name": "M-40", "oneway": "yes", "ref": "M-40", "surface": "asphalt", "tunnel": "yes", "length": 86.7817131726972}}, {"type": "Feature", "geometry": {"type": "LineString", "coordinates": [[-3.7737644, 40.474458], [-3.7755668, 40.4744536]]}, "properties": {"highway": "motorway", "layer": "-1", "name": "T\u00fanel de Calzadas Superpuestas", "oneway": "yes", "ref": "M-40", "ref:colour": "blue", "surface": "asphalt", "tunnel": "yes", "length": 152.84413369596282}}, {"type": "Feature", "geometry": {"type": "LineString", "coordinates": [[-3.7794319, 40.474378], [-3.7779241, 40.4744138], [-3.7738406, 40.4744096], [-3.7726047, 40.4744031], [-3.7712829, 40.4743509], [-3.7697846, 40.4742132], [-3.7692784, 40.4741667], [-3.7686856, 40.4740747], [-3.7680938, 40.4739576], [-3.7652371, 40.4731302]]}, "properties": {"highway": "motorway", "lanes": "4", "layer": "-1", "maxspeed": "80", "name": "T\u00fanel de Calzadas Superpuestas", "oneway": "yes", "ref": "M-40", "ref:colour": "blue", "surface": "asphalt", "tunnel": "yes", "length": 1224.6858813032147}}, {"type": "Feature", "geometry": {"type": "LineString", "coordinates": [[-3.7692621, 40.4742155], [-3.7712273, 40.4743884]]}, "properties": {"highway": "motorway", "lanes": "4", "layer": "-1", "name": "T\u00fanel de Calzadas Superpuestas", "oneway": "yes", "ref": "M-40", "ref:colour": "blue", "surface": "asphalt", "tunnel": "yes", "length": 167.75148693885313}}, {"type": "Feature", "geometry": {"type": "LineString", "coordinates": [[-3.759027, 40.4730403], [-3.7585158, 40.4732391], [-3.7579112, 40.4735124], [-3.7574237, 40.4737789], [-3.7569913, 40.4741301]]}, "properties": {"highway": "motorway", "lanes": "4", "layer": "-1", "maxspeed": "80", "oneway": "yes", "ref": "M-40", "ref:colour": "blue", "surface": "asphalt", "tunnel": "yes", "length": 212.59754781499458}}, {"type": "Feature", "geometry": {"type": "LineString", "coordinates": [[-3.7568595, 40.4745013], [-3.7572417, 40.4742313], [-3.7576603, 40.473949], [-3.7581018, 40.4736515], [-3.7585885, 40.4734093], [-3.7591023, 40.4731954]]}, "properties": {"highway": "motorway", "lanes": "4", "layer": "-1", "maxspeed": "80", "oneway": "yes", "ref": "M-40", "ref:colour": "blue", "surface": "asphalt", "tunnel": "yes", "length": 240.32643635306994}}, {"type": "Feature", "geometry": {"type": "LineString", "coordinates": [[-3.7570003, 40.4746083], [-3.7572986, 40.4743162], [-3.7581461, 40.4737164], [-3.7586463, 40.473473], [-3.759142, 40.4732726]]}, "properties": {"highway": "motorway_link", "lanes": "1", "layer": "-1", "maxspeed": "80", "oneway": "yes", "surface": "asphalt", "tunnel": "yes", "length": 236.97858865624784}}, {"type": "Feature", "geometry": {"type": "LineString", "coordinates": [[-3.6894051, 40.4647267], [-3.6892438, 40.4655854], [-3.689165, 40.4660052], [-3.6890941, 40.4662761], [-3.6886865, 40.4678401], [-3.6884758, 40.4686704]]}, "properties": {"foot": "no", "highway": "primary", "lanes": "3", "layer": "-1", "lit": "yes", "maxheight": "4.2", "maxspeed": "50", "name": "Paseo de la Castellana", "name:etymology:wikidata": "Q1473674", "oneway": "yes", "postal_code": "28046", "shoulder": "no", "surface": "asphalt", "tunnel": "yes", "length": 445.0932232997202}}, {"type": "Feature", "geometry": {"type": "LineString", "coordinates": [[-3.6885935, 40.468698], [-3.6888657, 40.467863], [-3.6894052, 40.4659338], [-3.6895313, 40.4647348]]}, "properties": {"foot": "no", "highway": "primary", "lanes": "3", "layer": "-1", "lit": "yes", "maxspeed": "50", "name": "Paseo de la Castellana", "name:etymology:wikidata": "Q1473674", "oneway": "yes", "postal_code": "28046", "surface": "asphalt", "tunnel": "yes", "length": 448.1790599707182}}, {"type": "Feature", "geometry": {"type": "LineString", "coordinates": [[-3.6869026, 40.4753554], [-3.6872842, 40.4739632]]}, "properties": {"foot": "no", "highway": "primary", "lanes": "3", "layer": "-1", "maxspeed": "50", "name": "Paseo de la Castellana", "name:etymology:wikidata": "Q1473674", "oneway": "yes", "postal_code": "28046", "shoulder": "no", "surface": "asphalt", "tunnel": "yes", "length": 157.94554622764375}}, {"type": "Feature", "geometry": {"type": "LineString", "coordinates": [[-3.6871057, 40.4739354], [-3.6867246, 40.4753415]]}, "properties": {"foot": "no", "highway": "primary", "lanes": "3", "layer": "-1", "maxspeed": "50", "name": "Paseo de la Castellana", "name:etymology:wikidata": "Q1473674", "oneway": "yes", "postal_code": "28046", "shoulder": "no", "surface": "asphalt", "tunnel": "yes", "length": 159.4480289820377}}, {"type": "Feature", "geometry": {"type": "LineString", "coordinates": [[-3.7718264, 40.3939122], [-3.771563, 40.3936687]]}, "properties": {"cutting": "yes", "foot": "no", "highway": "primary", "lanes": "3", "layer": "-1", "maxspeed": "50", "name": "Avenida de los Poblados", "name:etymology:wikidata": "Q26795575", "oneway": "yes", "postal_code": "28024", "tunnel": "yes", "length": 35.08845129939067}}, {"type": "Feature", "geometry": {"type": "LineString", "coordinates": [[-3.6716478, 40.4714105], [-3.6720172, 40.4719837]]}, "properties": {"highway": "primary_link", "lanes": "2", "layer": "-1", "maxspeed:advisory": "70", "name": "Calzada lateral M-30", "oneway": "yes", "ref": "M-30", "ref:colour": "blue", "surface": "asphalt", "tunnel": "yes", "length": 70.9414989239023}}, {"type": "Feature", "geometry": {"type": "LineString", "coordinates": [[-3.7135241, 40.4216206], [-3.7132891, 40.4217568]]}, "properties": {"highway": "primary", "lanes": "3", "lanes:psv": "1", "layer": "-1", "lit": "24/7", "maxspeed": "50", "name": "Cuesta de San Vicente", "name:etymology:wikidata": "Q5794006", "oneway": "yes", "postal_code": "28008", "surface": "asphalt", "tunnel": "yes", "length": 25.029622690631026}}, {"type": "Feature", "geometry": {"type": "LineString", "coordinates": [[-3.7129787, 40.4199359], [-3.7134296, 40.4160478]]}, "properties": {"construction": "secondary", "highway": "secondary", "lanes": "2", "layer": "-1", "lit": "24/7", "maxheight": "3.85", "maxspeed": "40", "name": "Calle de Bail\u00e9n", "name:etymology:wikidata": "Q1364346", "oneway": "yes", "postal_code": "28013", "smoothness": "excellent", "surface": "asphalt", "tunnel": "yes", "length": 433.43768965407406}}, {"type": "Feature", "geometry": {"type": "LineString", "coordinates": [[-3.7133546, 40.4160393], [-3.712899, 40.4199308]]}, "properties": {"highway": "secondary", "lanes": "2", "layer": "-1", "lit": "24/7", "maxheight": "3.85", "maxspeed": "40", "name": "Calle de Bail\u00e9n", "name:etymology:wikidata": "Q1364346", "oneway": "yes", "postal_code": "28013", "smoothness": "excellent", "surface": "asphalt", "tunnel": "yes", "length": 433.8491312534113}}, {"type": "Feature", "geometry": {"type": "LineString", "coordinates": [[-3.7130384, 40.4071681], [-3.7122904, 40.4069135], [-3.7117651, 40.4067529], [-3.7110597, 40.4065291]]}, "properties": {"cycleway:both": "no", "foot": "no", "highway": "primary", "lanes": "4", "layer": "-1", "lit": "yes", "maxheight": "4", "maxspeed": "50", "name": "Ronda de Segovia", "parking:both": "no", "postal_code": "28005", "sidewalk": "no", "source:name": "local knowledge", "surface": "asphalt", "tunnel": "yes", "length": 182.35765667280486}}, {"type": "Feature", "geometry": {"type": "LineString", "coordinates": [[-3.721402, 40.4079915], [-3.7212364, 40.4086482]]}, "properties": {"destination": "P\u00ba. Virgen del Puerto; c/ Segovia; Casa de Campo", "highway": "motorway_link", "lanes": "1", "layer": "-1", "lit": "24/7", "maxspeed": "50", "oneway": "yes", "tunnel": "yes", "length": 74.26404981362562}}, {"type": "Feature", "geometry": {"type": "LineString", "coordinates": [[-3.7207636, 40.4364519], [-3.7208157, 40.4364732], [-3.7209184, 40.4365143], [-3.7210008, 40.436545], [-3.7214385, 40.436698], [-3.7215698, 40.436745], [-3.7216798, 40.4367884], [-3.7217931, 40.4368431]]}, "properties": {"highway": "trunk", "lanes": "2", "layer": "-1", "lit": "24/7", "maxspeed": "30", "name": "Avenida de la Memoria", "old_name": "Avenida del Arco de la Victoria", "oneway": "yes", "surface": "asphalt", "tunnel": "yes", "length": 97.64562765815077}}, {"type": "Feature", "geometry": {"type": "LineString", "coordinates": [[-3.7269803, 40.4399633], [-3.7267701, 40.4398419], [-3.726578, 40.4397249], [-3.7264001, 40.4396105], [-3.7262154, 40.4394929]]}, "properties": {"highway": "trunk", "lanes": "3", "layer": "-1", "lit": "24/7", "maxheight": "4.15", "maxspeed": "60", "name": "Avenida de la Memoria", "old_name": "Avenida del Arco de la Victoria", "oneway": "yes", "ref": "A-6", "ref:colour": "blue", "shoulder": "no", "tunnel": "yes", "length": 83.32531676523}}, {"type": "Feature", "geometry": {"type": "LineString", "coordinates": [[-3.7260794, 40.4396055], [-3.7263007, 40.439745], [-3.7264707, 40.4398553], [-3.7266652, 40.4399757], [-3.7268628, 40.4400845]]}, "properties": {"highway": "trunk", "lanes": "3", "layer": "-1", "lit": "24/7", "maxheight": "4.15", "maxspeed": "80", "name": "Avenida de la Memoria", "old_name": "Avenida del Arco de la Victoria", "oneway": "yes", "ref": "A-6", "ref:colour": "blue", "shoulder": "no", "tunnel": "yes", "length": 85.166210787863}}, {"type": "Feature", "geometry": {"type": "LineString", "coordinates": [[-3.6913562, 40.4085889], [-3.6915752, 40.4086743], [-3.6917525, 40.4087252], [-3.6919492, 40.4087487], [-3.6921653, 40.4087294], [-3.6923477, 40.4086824], [-3.6925355, 40.4085984], [-3.6926889, 40.4084934], [-3.6928654, 40.4083046], [-3.6931533, 40.407929], [-3.6932878, 40.4078022], [-3.6934447, 40.4076694], [-3.6936968, 40.4075281], [-3.6941351, 40.4073792]]}, "properties": {"cycleway:right": "no", "foot": "no", "highway": "primary", "lanes": "2", "layer": "-1", "lit": "yes", "maxheight": "4.5", "maxspeed": "50", "name": "T\u00fanel de Atocha", "oneway": "yes", "postal_code": "28012", "sidewalk": "no", "surface": "asphalt", "tunnel": "yes", "length": 303.9511971441963}}, {"type": "Feature", "geometry": {"type": "LineString", "coordinates": [[-3.6822034, 40.4023309], [-3.6822733, 40.4022159], [-3.6825944, 40.4017138], [-3.6829602, 40.40131], [-3.6833724, 40.400985]]}, "properties": {"cycleway:right": "no", "highway": "secondary", "lanes": "2", "layer": "-1", "maxheight": "4.6", "maxspeed": "50", "name": "Calle del Comercio", "oneway": "yes", "postal_code": "28007", "surface": "asphalt", "tunnel": "yes", "length": 180.95237451409673}}, {"type": "Feature", "geometry": {"type": "LineString", "coordinates": [[-3.6582616, 40.4653838], [-3.6630117, 40.4611913], [-3.6631767, 40.4610719]]}, "properties": {"foot": "no", "highway": "secondary", "horse": "no", "lanes": "2", "layer": "-1", "maxspeed": "50", "name": "Avenida de la Gran V\u00eda de Hortaleza", "name:etymology:wikidata": "Q1928529", "oneway": "yes", "surface": "asphalt", "tunnel": "yes", "length": 634.9443229902708}}, {"type": "Feature", "geometry": {"type": "LineString", "coordinates": [[-3.6631149, 40.4610273], [-3.6630408, 40.4610907], [-3.6582307, 40.4653594]]}, "properties": {"bicycle": "no", "foot": "no", "highway": "secondary", "horse": "no", "lanes": "2", "layer": "-1", "maxspeed": "50", "name": "Avenida de la Gran V\u00eda de Hortaleza", "name:etymology:wikidata": "Q1928529", "oneway": "yes", "source:maxspeed": "sign", "surface": "asphalt", "tunnel": "yes", "length": 634.834531221736}}, {"type": "Feature", "geometry": {"type": "LineString", "coordinates": [[-3.664207, 40.409041], [-3.6647925, 40.4079389], [-3.6648955, 40.4075852], [-3.6648783, 40.407223], [-3.6647417, 40.4068758], [-3.6644948, 40.406566], [-3.6641533, 40.4063136], [-3.6637393, 40.4061348], [-3.6632796, 40.4060411], [-3.6619213, 40.4059459]]}, "properties": {"highway": "motorway_link", "lanes": "2", "layer": "-1", "lit": "24/7", "maxheight": "4.5", "maxspeed": "70", "maxweight": "7.5", "oneway": "yes", "tunnel": "yes", "length": 529.9665427395792}}, {"type": "Feature", "geometry": {"type": "LineString", "coordinates": [[-3.622018, 40.3905629], [-3.6217724, 40.3911663]]}, "properties": {"highway": "primary", "lanes": "3", "lanes:backward": "2", "layer": "-1", "name": "Avenida de la Democracia", "tunnel": "yes", "turn:backward": "left|through", "length": 70.17274005464428}}, {"type": "Feature", "geometry": {"type": "LineString", "coordinates": [[-3.7187685, 40.4655854], [-3.7190202, 40.4653705], [-3.7196905, 40.4649819], [-3.7196969, 40.4649766], [-3.7203741, 40.4646124]]}, "properties": {"bicycle": "no", "foot": "no", "highway": "primary", "lanes": "2", "layer": "-1", "maxheight": "4.25", "maxspeed": "50", "name": "Calle de Sinesio Delgado", "name:etymology:wikidata": "Q6129194", "oneway": "yes", "sidewalk": "no", "surface": "asphalt", "tunnel": "yes", "length": 174.4346794341169}}, {"type": "Feature", "geometry": {"type": "LineString", "coordinates": [[-3.7237698, 40.4607432], [-3.7227005, 40.4609114], [-3.7222072, 40.461149], [-3.7219068, 40.4614638], [-3.7215205, 40.4623781], [-3.7212859, 40.4631515]]}, "properties": {"bicycle": "no", "foot": "no", "highway": "primary", "lanes": "2", "layer": "-1", "maxheight": "4.25", "maxspeed": "50", "name": "Calle de Sinesio Delgado", "name:etymology:wikidata": "Q6129194", "oneway": "yes", "surface": "asphalt", "tunnel": "yes", "length": 380.15774408971293}}, {"type": "Feature", "geometry": {"type": "LineString", "coordinates": [[-3.7194122, 40.4001499], [-3.7195796, 40.4001676], [-3.719807, 40.4002136], [-3.7200005, 40.4002749], [-3.7202048, 40.4003424], [-3.7207049, 40.4005516], [-3.7211402, 40.4008542], [-3.7213627, 40.4010889]]}, "properties": {"highway": "motorway", "lanes": "3", "layer": "-1", "lit": "24/7", "maxspeed": "50", "name": "Calle 30", "oneway": "yes", "ref": "M-30", "ref:colour": "blue", "source:name": "local knowledge", "surface": "asphalt", "tunnel": "yes", "length": 201.51865284016924}}, {"type": "Feature", "geometry": {"type": "LineString", "coordinates": [[-3.7224464, 40.4151394], [-3.7221889, 40.4159307], [-3.7220766, 40.4162675]]}, "properties": {"destination": "Plaza de Espa\u00f1a;A-5 Badajoz;Paseo Virgen del Puerto;c/ Segovia;Casa de Campo", "highway": "motorway_link", "lanes": "1", "layer": "-1", "lit": "24/7", "oneway": "yes", "surface": "asphalt", "tunnel": "yes", "length": 129.13979516792853}}, {"type": "Feature", "geometry": {"type": "LineString", "coordinates": [[-3.7219649, 40.4166106], [-3.721171, 40.4177318], [-3.7209233, 40.4180897], [-3.7206913, 40.4184522]]}, "properties": {"highway": "motorway_link", "lanes": "2", "layer": "-1", "lit": "24/7", "oneway": "yes", "surface": "asphalt", "tunnel": "yes", "length": 231.33516151234375}}, {"type": "Feature", "geometry": {"type": "LineString", "coordinates": [[-3.7247291, 40.4162944], [-3.7235324, 40.4167725], [-3.7216649, 40.4174746], [-3.7212822, 40.4177417], [-3.7209783, 40.4180562]]}, "properties": {"highway": "motorway_link", "lanes": "2", "layer": "-3", "lit": "24/7", "maxspeed": "70", "oneway": "yes", "surface": "asphalt", "tunnel": "yes", "length": 378.6401628237755}}, {"type": "Feature", "geometry": {"type": "LineString", "coordinates": [[-3.7222084, 40.4751638], [-3.7203723, 40.4763637]]}, "properties": {"highway": "motorway", "lanes": "3", "layer": "-1", "maxspeed": "90", "name": "Calle 30", "oneway": "yes", "ref": "M-30", "ref:colour": "blue", "surface": "asphalt", "tunnel": "yes", "length": 204.92724740305917}}, {"type": "Feature", "geometry": {"type": "LineString", "coordinates": [[-3.7204694, 40.4764546], [-3.7223188, 40.4752843]]}, "properties": {"highway": "motorway", "lanes": "3", "layer": "-1", "maxspeed": "90", "name": "Calle 30", "oneway": "yes", "ref": "M-30", "ref:colour": "blue", "surface": "asphalt", "tunnel": "yes", "length": 203.67246295057095}}, {"type": "Feature", "geometry": {"type": "LineString", "coordinates": [[-3.7289753, 40.4727107], [-3.7279174, 40.4728901]]}, "properties": {"highway": "motorway", "lanes": "4", "layer": "-1", "maxspeed": "90", "name": "Calle 30", "oneway": "yes", "ref": "M-30", "ref:colour": "blue", "surface": "asphalt", "tunnel": "yes", "turn:lanes": "merge_to_right|||", "length": 91.89724390461987}}, {"type": "Feature", "geometry": {"type": "LineString", "coordinates": [[-3.7279595, 40.4730319], [-3.7290118, 40.4728556]]}, "properties": {"highway": "motorway", "lanes": "4", "layer": "-1", "maxspeed": "90", "name": "Calle 30", "oneway": "yes", "ref": "M-30", "ref:colour": "blue", "surface": "asphalt", "tunnel": "yes", "length": 91.35913481089324}}, {"type": "Feature", "geometry": {"type": "LineString", "coordinates": [[-3.7359999, 40.473101], [-3.7346181, 40.4728188]]}, "properties": {"highway": "motorway", "lanes": "3", "layer": "-1", "maxspeed": "90", "name": "Calle 30", "oneway": "yes", "ref": "M-30", "ref:colour": "blue", "source:ref": "local knowledge", "surface": "asphalt", "tunnel": "yes", "length": 121.29683913696827}}, {"type": "Feature", "geometry": {"type": "LineString", "coordinates": [[-3.7345772, 40.4729467], [-3.7359604, 40.4732234]]}, "properties": {"highway": "motorway", "lanes": "4", "layer": "-1", "maxspeed": "90", "name": "Calle 30", "oneway": "yes", "ref": "M-30", "ref:colour": "blue", "surface": "asphalt", "tunnel": "yes", "length": 121.25512706477885}}, {"type": "Feature", "geometry": {"type": "LineString", "coordinates": [[-3.7653946, 40.3988874], [-3.7647579, 40.3988536]]}, "properties": {"foot": "no", "highway": "tertiary", "layer": "-1", "lit": "yes", "name": "Carretera de Boadilla del Monte", "tunnel": "yes", "length": 54.18274547564491}}, {"type": "Feature", "geometry": {"type": "LineString", "coordinates": [[-3.7600994, 40.4018344], [-3.7602831, 40.4021055]]}, "properties": {"cycleway:right": "no", "highway": "tertiary", "lanes": "2", "layer": "-1", "name": "Calle de los Y\u00e9benes", "oneway": "yes", "tunnel": "yes", "length": 33.90300483989231}}, {"type": "Feature", "geometry": {"type": "LineString", "coordinates": [[-3.7603223, 40.4020854], [-3.7601529, 40.4018152]]}, "properties": {"highway": "tertiary", "lanes": "2", "layer": "-1", "name": "Calle de los Y\u00e9benes", "oneway": "yes", "surface": "asphalt", "tunnel": "yes", "length": 33.27189380818859}}, {"type": "Feature", "geometry": {"type": "LineString", "coordinates": [[-3.732776, 40.4257358], [-3.732685, 40.4258865], [-3.7326727, 40.4259969], [-3.7327246, 40.4260728], [-3.7328065, 40.4261336], [-3.7329772, 40.4262389], [-3.7330247, 40.4262623]]}, "properties": {"access": "no", "bicycle": "yes", "foot": "yes", "highway": "motorway_link", "lanes": "1", "layer": "-1", "maxheight": "3", "oneway": "yes", "tunnel": "yes", "length": 73.34436176043774}}, {"type": "Feature", "geometry": {"type": "LineString", "coordinates": [[-3.7945247, 40.4646228], [-3.7944393, 40.4647589], [-3.7943959, 40.4648595], [-3.7943633, 40.4649593], [-3.7943458, 40.4650526], [-3.7943423, 40.4651207]]}, "properties": {"highway": "motorway_link", "layer": "-1", "maxspeed": "60", "oneway": "yes", "surface": "asphalt", "tunnel": "yes", "length": 57.976658457924444}}, {"type": "Feature", "geometry": {"type": "LineString", "coordinates": [[-3.7223188, 40.4752843], [-3.7232696, 40.4747006]]}, "properties": {"highway": "motorway", "lanes": "4", "maxspeed": "90", "name": "Calle 30", "oneway": "yes", "ref": "M-30", "ref:colour": "blue", "surface": "asphalt", "tunnel": "yes", "length": 103.44987790795005}}, {"type": "Feature", "geometry": {"type": "LineString", "coordinates": [[-3.7122947, 40.4392529], [-3.7127141, 40.4390931], [-3.7129954, 40.4390559], [-3.7132882, 40.439054], [-3.7168337, 40.4392097], [-3.7171243, 40.4392122], [-3.7174288, 40.4391896], [-3.7176868, 40.4391376], [-3.7179512, 40.4390334], [-3.7181562, 40.4389014]]}, "properties": {"hazmat": "no", "highway": "primary", "lanes": "2", "layer": "-1", "lit": "24/7", "maxspeed": "50", "name": "Avenida de Filipinas", "old_name": "Avenida de las Islas Filipinas", "oneway": "yes", "surface": "asphalt", "tunnel": "yes", "length": 511.379062740945}}, {"type": "Feature", "geometry": {"type": "LineString", "coordinates": [[-3.7181017, 40.4388528], [-3.717901, 40.4389818], [-3.7176561, 40.4390764], [-3.717415, 40.4391223], [-3.7171243, 40.4391511], [-3.7168323, 40.4391584], [-3.7132867, 40.4389953], [-3.7120043, 40.4389573]]}, "properties": {"hazmat": "no", "highway": "primary", "lanes": "2", "layer": "-1", "lit": "24/7", "maxspeed": "50", "name": "Calle de Cea Berm\u00fadez", "name:etymology:wikidata": "Q963367", "oneway": "yes", "surface": "asphalt", "tunnel": "yes", "length": 526.5302534702412}}, {"type": "Feature", "geometry": {"type": "LineString", "coordinates": [[-3.6852317, 40.4747783], [-3.6861415, 40.4748659], [-3.6870376, 40.4749863], [-3.6878634, 40.4750875], [-3.688559, 40.4751915]]}, "properties": {"bicycle": "no", "destination": "c/ Sinesio Delgado;Avenida de Monforte de Lemos", "foot": "no", "highway": "primary", "lanes": "2", "layer": "-2", "name": "T\u00fanel de P\u00edo XII", "oneway": "yes", "shoulder": "no", "surface": "asphalt", "tunnel": "yes", "turn:lanes": "left;through|through", "length": 285.9464128330766}}, {"type": "Feature", "geometry": {"type": "LineString", "coordinates": [[-3.688559, 40.4751915], [-3.6887173, 40.4751969], [-3.6888435, 40.4751848], [-3.6889311, 40.4751611], [-3.6890669, 40.4751109], [-3.6891875, 40.47504], [-3.6892889, 40.4749642], [-3.6894174, 40.4748444], [-3.6894938, 40.4747899], [-3.6896081, 40.4747289], [-3.6897652, 40.4746718], [-3.6899871, 40.4746276], [-3.6902014, 40.4745891]]}, "properties": {"highway": "primary", "lanes": "1", "layer": "-2", "maxspeed": "50", "name": "T\u00fanel de P\u00edo XII", "oneway": "yes", "postal_code": "28029", "surface": "asphalt", "tunnel": "yes", "length": 160.59234445471}}, {"type": "Feature", "geometry": {"type": "LineString", "coordinates": [[-3.6762195, 40.4586064], [-3.6771155, 40.458676], [-3.6773609, 40.4586944]]}, "properties": {"foot": "no", "hazmat": "no", "highway": "secondary", "lanes": "2", "layer": "-1", "maxspeed": "50", "name": "Calle de Costa Rica", "oneway": "yes", "tunnel": "yes", "length": 97.3053141322047}}, {"type": "Feature", "geometry": {"type": "LineString", "coordinates": [[-3.6773716, 40.458632], [-3.6771208, 40.4586136], [-3.6762301, 40.4585449]]}, "properties": {"bicycle": "no", "foot": "no", "hazmat": "no", "highway": "secondary", "lanes": "2", "layer": "-1", "maxspeed": "50", "name": "Calle de Costa Rica", "oneway": "yes", "tunnel": "yes", "length": 97.30395514878438}}, {"type": "Feature", "geometry": {"type": "LineString", "coordinates": [[-3.6856552, 40.4377611], [-3.685132, 40.4377362], [-3.6849337, 40.4377288]]}, "properties": {"admin_level": "9", "boundary": "administrative", "foot": "yes", "highway": "primary", "lanes": "2", "layer": "-1", "loc_name": "T\u00fanel de Mar\u00eda de Molina", "maxspeed": "50", "name": "Calle de Mar\u00eda de Molina", "name:etymology:wikidata": "Q266025", "oneway": "yes", "postal_code": "28006", "surface": "asphalt", "tunnel": "yes", "length": 61.32252268316847}}, {"type": "Feature", "geometry": {"type": "LineString", "coordinates": [[-3.6883489, 40.4378822], [-3.6870308, 40.4378233]]}, "properties": {"admin_level": "9", "boundary": "administrative", "cycleway:right": "no", "foot": "no", "goods": "no", "hgv": "no", "highway": "primary", "lanes": "2", "layer": "-1", "lit": "yes", "loc_name": "T\u00fanel de Mar\u00eda de Molina", "maxheight": "3.5", "maxspeed": "50", "name": "Calle de Mar\u00eda de Molina", "name:etymology:wikidata": "Q266025", "oneway": "yes", "shoulder": "no", "sidewalk": "no", "smoothness": "excellent", "surface": "asphalt", "tunnel": "yes", "length": 112.02651792116069}}, {"type": "Feature", "geometry": {"type": "LineString", "coordinates": [[-3.7062065, 40.4469449], [-3.7024045, 40.4467407]]}, "properties": {"destination": "Avenida de Reina Victoria; A-6 A Coru\u00f1a", "foot": "no", "hazmat": "no", "highway": "primary", "lanes": "2", "layer": "-1", "lit": "yes", "maxheight": "4.5", "maxspeed": "50", "name": "T\u00fanel de Cuatro Caminos", "oneway": "yes", "sidewalk": "no", "surface": "asphalt", "tunnel": "yes", "length": 323.337340900597}}, {"type": "Feature", "geometry": {"type": "LineString", "coordinates": [[-3.6849187, 40.4446597], [-3.6860035, 40.4457279]]}, "properties": {"highway": "primary", "lanes": "2", "layer": "-1", "maxheight": "4.25", "maxspeed": "30", "name": "Calle de Joaqu\u00edn Costa", "name:etymology:wikidata": "Q965602", "oneway": "yes", "postal_code": "28002", "tunnel": "yes", "length": 150.13166556065684}}, {"type": "Feature", "geometry": {"type": "LineString", "coordinates": [[-3.686071, 40.4456892], [-3.6849825, 40.4446194]]}, "properties": {"highway": "primary", "lanes": "2", "layer": "-1", "level": "2", "maxspeed": "40", "name": "Calle de Joaqu\u00edn Costa", "name:etymology:wikidata": "Q965602", "oneway": "yes", "postal_code": "28002", "tunnel": "yes", "length": 150.46455403063396}}, {"type": "Feature", "geometry": {"type": "LineString", "coordinates": [[-3.7023983, 40.4468106], [-3.7061992, 40.4470183]]}, "properties": {"destination": "Avenida de Reina Victoria; A-6 A Coru\u00f1a", "foot": "no", "hazmat": "no", "highway": "primary", "lanes": "2", "layer": "-1", "lit": "yes", "maxheight": "4.5", "maxspeed": "50", "name": "T\u00fanel de Cuatro Caminos", "oneway": "yes", "sidewalk": "no", "surface": "asphalt", "tunnel": "yes", "length": 323.27140679937366}}, {"type": "Feature", "geometry": {"type": "LineString", "coordinates": [[-3.6771028, 40.4371601], [-3.6776441, 40.437675]]}, "properties": {"cycleway:right": "no", "foot": "no", "highway": "primary", "lanes": "2", "layer": "-1", "lit": "yes", "maxheight": "4.8", "maxspeed": "40", "name": "Calle de Francisco Silvela", "name:etymology:wikidata": "Q1236383", "oneway": "yes", "postal_code": "28028", "shoulder": "no", "surface": "asphalt", "tunnel": "yes", "length": 73.33777222816722}}, {"type": "Feature", "geometry": {"type": "LineString", "coordinates": [[-3.6777019, 40.4376437], [-3.6771658, 40.4371276]]}, "properties": {"cycleway:right": "no", "foot": "no", "highway": "primary", "lanes": "2", "layer": "-1", "lit": "yes", "maxheight": "4.8", "maxspeed": "50", "name": "Calle de Francisco Silvela", "name:etymology:wikidata": "Q1236383", "oneway": "yes", "postal_code": "28028", "shoulder": "no", "surface": "asphalt", "tunnel": "yes", "length": 73.16662001018595}}, {"type": "Feature", "geometry": {"type": "LineString", "coordinates": [[-3.6684468, 40.4272177], [-3.6684203, 40.4272855], [-3.6684086, 40.4273829], [-3.6683956, 40.427494], [-3.6684012, 40.4276739]]}, "properties": {"foot": "no", "highway": "primary", "lanes": "2", "layer": "-1", "lit": "24/7", "maxheight": "4.2", "maxspeed": "40", "maxspeed:advisory": "30", "name": "Calle del Doctor Esquerdo", "name:etymology:wikidata": "Q9014392", "oneway": "yes", "sidewalk": "no", "surface": "asphalt", "tunnel": "yes", "length": 51.08677495491601}}, {"type": "Feature", "geometry": {"type": "LineString", "coordinates": [[-3.6704856, 40.4300242], [-3.6692452, 40.428513], [-3.6685287, 40.42764]]}, "properties": {"foot": "no", "highway": "primary", "lanes": "2", "layer": "-1", "lit": "24/7", "maxheight": "4.2", "maxspeed": "50", "name": "Calle de Francisco Silvela", "name:etymology:wikidata": "Q1236383", "oneway": "yes", "sidewalk": "no", "surface": "asphalt", "tunnel": "yes", "length": 312.5167742446341}}, {"type": "Feature", "geometry": {"type": "LineString", "coordinates": [[-3.7160139, 40.4791606], [-3.7170129, 40.4786658]]}, "properties": {"highway": "motorway", "lanes": "3", "layer": "-1", "maxspeed": "90", "name": "Calle 30", "oneway": "yes", "ref": "M-30", "ref:colour": "blue", "source:ref": "local knowledge", "surface": "asphalt", "tunnel": "yes", "length": 100.96830193381798}}, {"type": "Feature", "geometry": {"type": "LineString", "coordinates": [[-3.7169314, 40.4785655], [-3.7159443, 40.4790546]]}, "properties": {"highway": "motorway", "lanes": "3", "layer": "-1", "maxspeed": "90", "name": "Calle 30", "oneway": "yes", "ref": "M-30", "ref:colour": "blue", "source:ref": "local knowledge", "surface": "asphalt", "tunnel": "yes", "length": 99.77740874237075}}, {"type": "Feature", "geometry": {"type": "LineString", "coordinates": [[-3.694749, 40.3644361], [-3.6945083, 40.3644336], [-3.6937817, 40.364417], [-3.6931754, 40.3643745]]}, "properties": {"highway": "motorway", "int_ref": "E 90", "lanes": "3", "layer": "-1", "maxspeed": "100", "name": "M-40", "name:etymology:wikidata": "Q2872994", "oneway": "yes", "ref": "M-40", "source:name": "local knowledge", "surface": "asphalt", "tunnel": "yes", "length": 133.90391561713074}}, {"type": "Feature", "geometry": {"type": "LineString", "coordinates": [[-3.6960256, 40.3876833], [-3.6971409, 40.388671], [-3.6979264, 40.3894517], [-3.6986731, 40.3901839], [-3.6989735, 40.3905238], [-3.6995501, 40.391143], [-3.7015656, 40.3933163]]}, "properties": {"bicycle": "no", "destination:lanes": "Glorieta Marqu\u00e9s de Vadillo;A-5 Badajoz|Plaza de Fern\u00e1ndez Ladreda;A-42 Toledo|Paseo Santa Mar\u00eda de la Cabeza;estaci\u00f3n de Atocha", "foot": "no", "highway": "motorway", "lanes": "3", "layer": "-1", "lit": "24/7", "maxheight": "4.5", "maxspeed": "70", "maxweight": "7.5", "name": "Calle 30", "oneway": "yes", "ref": "M-30", "source:name": "local knowledge", "surface": "asphalt", "tunnel": "yes", "length": 783.181579040856}}, {"type": "Feature", "geometry": {"type": "LineString", "coordinates": [[-3.6931775, 40.3645551], [-3.6938982, 40.3646116], [-3.6947374, 40.3645949]]}, "properties": {"highway": "motorway", "int_ref": "E 90", "lanes": "3", "layer": "-1", "maxspeed": "100", "name": "M-40", "name:etymology:wikidata": "Q2872994", "oneway": "yes", "ref": "M-40", "source:name": "local knowledge", "surface": "asphalt", "tunnel": "yes", "length": 132.8395014325389}}, {"type": "Feature", "geometry": {"type": "LineString", "coordinates": [[-3.7015656, 40.3933163], [-3.7020549, 40.3939765], [-3.7022339, 40.3942167], [-3.7022626, 40.3943729]]}, "properties": {"bicycle": "no", "destination": "Paseo de Santa Mar\u00eda de la Cabeza;Estaci\u00f3n de Atocha", "foot": "no", "highway": "motorway_link", "lanes": "1", "layer": "-1", "lit": "24/7", "maxspeed": "50", "oneway": "yes", "tunnel": "yes", "length": 132.47542396855002}}, {"type": "Feature", "geometry": {"type": "LineString", "coordinates": [[-3.7025849, 40.3943296], [-3.7026987, 40.3944395], [-3.7031957, 40.3947661]]}, "properties": {"destination": "Plaza de Fern\u00e1ndez Ladreda;Toledo", "destination:ref": "A-42", "highway": "motorway_link", "lanes": "1", "layer": "-1", "oneway": "yes", "tunnel": "yes", "length": 71.20424109491941}}, {"type": "Feature", "geometry": {"type": "LineString", "coordinates": [[-3.5818097, 40.4672786], [-3.582161, 40.4676365], [-3.5826919, 40.4679538]]}, "properties": {"highway": "motorway", "lanes": "2", "layer": "-1", "name": "Calle Ariadna", "oneway": "yes", "ref": "M-11", "ref:colour": "blue", "source:name": "local knowledge", "tunnel": "yes", "length": 106.84227943567112}}, {"type": "Feature", "geometry": {"type": "LineString", "coordinates": [[-3.5827412, 40.4678766], [-3.5822468, 40.4675451], [-3.5818698, 40.4671979]]}, "properties": {"highway": "motorway", "lanes": "2", "layer": "-1", "name": "Calle Ariadna", "oneway": "yes", "ref": "M-11", "ref:colour": "blue", "tunnel": "yes", "length": 105.88223759138131}}, {"type": "Feature", "geometry": {"type": "LineString", "coordinates": [[-3.5801201, 40.4841017], [-3.5795204, 40.4852902], [-3.5789019, 40.4863833], [-3.5777913, 40.4872478], [-3.5723974, 40.4906168], [-3.5701936, 40.4920411], [-3.5693905, 40.4924677], [-3.5688435, 40.4926999], [-3.5682808, 40.4928513], [-3.564932, 40.4932129], [-3.556551, 40.4938862], [-3.5554125, 40.4940731], [-3.5545467, 40.4943596]]}, "properties": {"cycleway:right": "track", "foot": "no", "highway": "primary", "lanes": "2", "layer": "-2", "maxheight": "4.3", "maxspeed:lanes": "80|60", "noname": "yes", "oneway": "yes", "ref": "M-111", "ref:colour": "orange", "tunnel": "yes", "length": 2610.2055290956273}}, {"type": "Feature", "geometry": {"type": "LineString", "coordinates": [[-3.6121239, 40.4568234], [-3.6124301, 40.4579796], [-3.6121774, 40.4602806], [-3.61148, 40.4620414], [-3.6098149, 40.4639547], [-3.6085135, 40.4651367], [-3.605592, 40.4670075], [-3.602836, 40.4696181]]}, "properties": {"highway": "motorway", "lanes": "2", "layer": "-2", "maxheight": "4.5 m", "maxspeed": "80", "oneway": "yes", "ref": "M-12", "ref:colour": "blue", "surface": "asphalt", "toll": "yes", "tunnel": "yes", "length": 1714.0003007531657}}, {"type": "Feature", "geometry": {"type": "LineString", "coordinates": [[-3.6181031, 40.4584476], [-3.6167438, 40.4577035]]}, "properties": {"highway": "motorway", "int_ref": "E 05", "lanes": "3", "layer": "-1", "maxspeed": "100", "name": "Calle de Manuel Aza\u00f1a", "oneway": "yes", "ref": "M-40", "ref:colour": "blue", "source:name": "common knowledge", "surface": "asphalt", "tunnel": "yes", "length": 141.84702906143175}}, {"type": "Feature", "geometry": {"type": "LineString", "coordinates": [[-3.6166524, 40.4578127], [-3.6179915, 40.4585652]]}, "properties": {"highway": "motorway", "int_ref": "E 05", "lanes": "3", "layer": "-1", "maxspeed": "100", "name": "Calle de Manuel Aza\u00f1a", "oneway": "yes", "ref": "M-40", "ref:colour": "blue", "source:name": "local knowledge", "surface": "asphalt", "tunnel": "yes", "length": 141.00848910765288}}, {"type": "Feature", "geometry": {"type": "LineString", "coordinates": [[-3.6621816, 40.4442701], [-3.6620766, 40.4440981], [-3.6619327, 40.4439756]]}, "properties": {"highway": "motorway_link", "layer": "-1", "maxspeed": "40", "oneway": "yes", "tunnel": "yes", "length": 39.352392222850526}}, {"type": "Feature", "geometry": {"type": "LineString", "coordinates": [[-3.7840491, 40.4638362], [-3.7841385, 40.4633933], [-3.7841383, 40.4633612]]}, "properties": {"highway": "secondary", "layer": "-1", "name": "Calle de Pl\u00e9yades", "tunnel": "yes", "length": 53.32678543031941}}, {"type": "Feature", "geometry": {"type": "LineString", "coordinates": [[-3.5778978, 40.4781804], [-3.5755123, 40.4760229], [-3.5751395, 40.4756644], [-3.5747378, 40.4752131]]}, "properties": {"highway": "motorway", "lanes": "2", "layer": "-1", "oneway": "yes", "ref": "M-13", "ref:colour": "blue", "source": "PNOA", "tunnel": "yes", "length": 424.9820250661988}}, {"type": "Feature", "geometry": {"type": "LineString", "coordinates": [[-3.5746612, 40.4752547], [-3.5750551, 40.4757088], [-3.5754225, 40.4760488], [-3.5778255, 40.4782275]]}, "properties": {"highway": "motorway", "lanes": "2", "layer": "-1", "oneway": "yes", "ref": "M-13", "ref:colour": "blue", "source": "PNOA", "tunnel": "yes", "length": 425.7429554172615}}, {"type": "Feature", "geometry": {"type": "LineString", "coordinates": [[-3.7237382, 40.4801477], [-3.7237111, 40.4800655], [-3.7236816, 40.4799883], [-3.7236306, 40.4798989], [-3.7235663, 40.4798048], [-3.723489, 40.4797178]]}, "properties": {"highway": "tertiary", "lanes": "2", "lanes:backward": "1", "lanes:forward": "1", "layer": "-1", "name": "Calle Isla de Tabarca", "oneway": "no", "surface": "asphalt", "tunnel": "yes", "length": 52.63158843194549}}, {"type": "Feature", "geometry": {"type": "LineString", "coordinates": [[-3.7572351, 40.4606908], [-3.7573264, 40.4602344]]}, "properties": {"highway": "motorway_link", "lanes": "2", "layer": "-1", "maxspeed": "40", "oneway": "no", "surface": "asphalt", "tunnel": "yes", "length": 51.26845862398085}}, {"type": "Feature", "geometry": {"type": "LineString", "coordinates": [[-3.6856552, 40.4377611], [-3.6855037, 40.437777], [-3.6853922, 40.4378011], [-3.6853069, 40.4378296], [-3.6852458, 40.4378544], [-3.685196, 40.4378824], [-3.6850801, 40.4379479], [-3.6849579, 40.4380238]]}, "properties": {"goods": "no", "hgv": "no", "highway": "primary", "lanes": "2", "layer": "-1", "maxheight": "3.5", "maxspeed": "50", "name": "Calle de L\u00f3pez de Hoyos", "oneway": "yes", "postal_code": "28006", "surface": "asphalt", "tunnel": "yes", "length": 67.41439544884724}}, {"type": "Feature", "geometry": {"type": "LineString", "coordinates": [[-3.7330108, 40.4447782], [-3.7325709, 40.4450048]]}, "properties": {"highway": "tertiary", "lanes": "2", "lanes:backward": "1", "lanes:forward": "1", "layer": "-1", "lit": "yes", "maxheight": "4", "maxspeed": "40", "surface": "asphalt", "tunnel": "yes", "length": 45.01017507253029}}, {"type": "Feature", "geometry": {"type": "LineString", "coordinates": [[-3.5960045, 40.372662], [-3.5957204, 40.3728337], [-3.5954315, 40.3730377]]}, "properties": {"highway": "motorway_link", "lanes": "2", "layer": "-1", "oneway": "yes", "tunnel": "yes", "length": 64.14525767811713}}, {"type": "Feature", "geometry": {"type": "LineString", "coordinates": [[-3.7535243, 40.4599085], [-3.7528891, 40.4597844], [-3.7524536, 40.4596608], [-3.7521591, 40.4595444]]}, "properties": {"highway": "motorway", "lanes": "1", "layer": "-1", "maxspeed": "50", "name": "Bus-VAO", "oneway": "yes", "ref": "A-6", "ref:colour": "blue", "surface": "asphalt", "tunnel": "yes", "length": 123.14201301146798}}, {"type": "Feature", "geometry": {"type": "LineString", "coordinates": [[-3.7766169, 40.4627452], [-3.7771363, 40.4628024], [-3.7773437, 40.4628244], [-3.777527, 40.462837], [-3.7777982, 40.4628249], [-3.7780507, 40.4627841], [-3.7782284, 40.4627483], [-3.7784677, 40.4626652]]}, "properties": {"access": "no", "bus": "yes", "highway": "motorway_link", "layer": "-1", "motorcycle": "yes", "name": "Bus-VAO", "oneway": "reversible", "oneway:backward:conditional": "yes @ (Mo-Fr 6:00-11:30; Sa 17:00-22:00; Su 16:00-24:00)", "oneway:forward:conditional": "yes @ (Mo-Fr 13:30-22:00; Sa 9:00-15:00; Su 9:00-14:00)", "tunnel": "yes", "length": 160.68994888425246}}, {"type": "Feature", "geometry": {"type": "LineString", "coordinates": [[-3.7353013, 40.4124538], [-3.7374213, 40.4117611], [-3.7379536, 40.4115655], [-3.738659, 40.4112413], [-3.7394186, 40.4108665], [-3.7405994, 40.4101526], [-3.7410217, 40.4099195], [-3.7413402, 40.4098432], [-3.741469, 40.4098284], [-3.7415544, 40.4098324]]}, "properties": {"destination": "Casa de Campo;zool\u00f3gico", "highway": "motorway_link", "lanes": "1", "layer": "-1", "lit": "24/7", "maxspeed": "50", "oneway": "yes", "tunnel": "yes", "length": 611.0774335918308}}, {"type": "Feature", "geometry": {"type": "LineString", "coordinates": [[-3.7313414, 40.442879], [-3.7308514, 40.4431204]]}, "properties": {"highway": "tertiary", "layer": "-1", "lit": "24/7", "name": "Calle Arquitecto L\u00f3pez Otero", "tunnel": "yes", "length": 49.464412470615784}}, {"type": "Feature", "geometry": {"type": "LineString", "coordinates": [[-3.7657295, 40.4539346], [-3.76607, 40.4537873]]}, "properties": {"highway": "trunk_link", "lanes": "1", "layer": "-1", "oneway": "no", "ref": "M-500", "ref:colour": "orange", "ref:type": "Red Auton\u00f3mica Principal CAM", "source": "PNOA", "source:date": "2009", "tunnel": "yes", "length": 33.19306882335845}}, {"type": "Feature", "geometry": {"type": "LineString", "coordinates": [[-3.7711257, 40.4623566], [-3.7711858, 40.4620799], [-3.771214, 40.4618941]]}, "properties": {"highway": "trunk", "lanes": "2", "lanes:backward": "1", "lanes:forward": "1", "layer": "-1", "maxspeed": "70", "motorroad": "yes", "name": "Carretera de Castilla", "oneway": "no", "ref": "M-500", "ref:colour": "orange", "ref:type": "Red Auton\u00f3mica Principal CAM", "source": "PNOA", "source:date": "2009", "tunnel": "yes", "length": 51.91576484048045}}, {"type": "Feature", "geometry": {"type": "LineString", "coordinates": [[-3.6485516, 40.495643], [-3.648946, 40.4953519]]}, "properties": {"highway": "motorway_link", "lanes": "2", "layer": "-1", "oneway": "yes", "surface": "asphalt", "tunnel": "yes", "length": 46.50567826576538}}, {"type": "Feature", "geometry": {"type": "LineString", "coordinates": [[-3.648857, 40.4952566], [-3.6483917, 40.495502]]}, "properties": {"highway": "motorway_link", "lanes": "2", "layer": "-1", "oneway": "yes", "surface": "asphalt", "tunnel": "yes", "length": 47.94262280432852}}, {"type": "Feature", "geometry": {"type": "LineString", "coordinates": [[-3.7131251, 40.4218196], [-3.7131153, 40.4218087], [-3.7130964, 40.4217822], [-3.713073, 40.421744], [-3.7130238, 40.4216703], [-3.7129792, 40.4215639]]}, "properties": {"construction": "secondary", "highway": "secondary", "lanes": "2", "layer": "-1", "lit": "24/7", "maxspeed": "40", "name": "Calle de Bail\u00e9n", "name:etymology:wikidata": "Q1364346", "oneway": "yes", "postal_code": "28013", "surface": "asphalt", "tunnel": "yes", "length": 31.097528430890243}}, {"type": "Feature", "geometry": {"type": "LineString", "coordinates": [[-3.7131251, 40.4218196], [-3.7130475, 40.4218596], [-3.7129887, 40.4218956], [-3.712954, 40.4219203], [-3.712906, 40.4219883], [-3.7128912, 40.4220357]]}, "properties": {"access": "no", "bus": "yes", "highway": "secondary_link", "lanes": "1", "layer": "-1", "oneway": "yes", "psv": "taxi", "tunnel": "yes", "length": 32.35249267958642}}, {"type": "Feature", "geometry": {"type": "LineString", "coordinates": [[-3.7130625, 40.4221975], [-3.7131506, 40.4222403], [-3.7132092, 40.4222723], [-3.7132876, 40.4223192], [-3.7133765, 40.4223752]]}, "properties": {"highway": "secondary", "lanes": "2", "layer": "-1", "lit": "24/7", "maxspeed": "40", "oneway": "yes", "postal_code": "28008", "surface": "asphalt", "tunnel": "yes", "length": 33.19772730555095}}, {"type": "Feature", "geometry": {"type": "LineString", "coordinates": [[-3.7129792, 40.4215639], [-3.7129416, 40.4214609], [-3.7129155, 40.4213539], [-3.7129046, 40.4212564], [-3.7129033, 40.4211219], [-3.712927, 40.4207817]]}, "properties": {"construction": "secondary", "highway": "secondary", "lanes": "2", "lit": "24/7", "maxspeed": "40", "name": "Calle de Bail\u00e9n", "name:etymology:wikidata": "Q1364346", "oneway": "yes", "postal_code": "28013", "surface": "asphalt", "tunnel": "yes", "length": 87.59248772180966}}, {"type": "Feature", "geometry": {"type": "LineString", "coordinates": [[-3.7233467, 40.4210416], [-3.7228837, 40.4204413], [-3.7226348, 40.4200035], [-3.7225661, 40.4195216]]}, "properties": {"destination:lanes": "c. Segovia; P\u00ba Extremadura;Casa de Campo|A-5 Badajoz", "highway": "motorway_link", "lanes": "2", "layer": "-1", "lit": "24/7", "maxspeed": "50", "oneway": "yes", "surface": "asphalt", "tunnel": "yes", "turn:lanes": "through|slight_right", "length": 184.21196795291814}}, {"type": "Feature", "geometry": {"type": "LineString", "coordinates": [[-3.7497231, 40.4595986], [-3.7499932, 40.4596263], [-3.7507247, 40.4596651], [-3.7509039, 40.4596915]]}, "properties": {"highway": "motorway", "lanes": "1", "layer": "-1", "name": "Bus-VAO", "oneway": "yes", "ref": "A-6", "ref:colour": "blue", "surface": "asphalt", "tunnel": "yes", "length": 100.7888383879379}}, {"type": "Feature", "geometry": {"type": "LineString", "coordinates": [[-3.5771755, 40.4265251], [-3.5758689, 40.426288]]}, "properties": {"foot": "no", "highway": "secondary", "lanes": "2", "layer": "-1", "maxheight": "4.20", "maxspeed": "50", "noname": "yes", "oneway": "yes", "surface": "asphalt", "tunnel": "yes", "length": 113.96147962647387}}, {"type": "Feature", "geometry": {"type": "LineString", "coordinates": [[-3.6726759, 40.3907277], [-3.6728642, 40.390857], [-3.6730664, 40.3909617], [-3.6734451, 40.3911106]]}, "properties": {"highway": "primary", "lanes": "4", "layer": "-1", "maxheight": "4.70", "name": "Calle de M\u00e9ndez \u00c1lvaro", "name:etymology:wikidata": "Q5553104", "source:name": "local knowledge", "tunnel": "yes", "length": 78.37788328008446}}, {"type": "Feature", "geometry": {"type": "LineString", "coordinates": [[-3.6883821, 40.3817481], [-3.6884, 40.3815276], [-3.6883471, 40.3812068]]}, "properties": {"highway": "motorway_link", "lanes": "2", "layer": "-1", "maxspeed": "50", "oneway": "yes", "tunnel": "yes", "length": 60.43627366112459}}, {"type": "Feature", "geometry": {"type": "LineString", "coordinates": [[-3.6881667, 40.3824005], [-3.6882194, 40.3822868], [-3.6882943, 40.382125]]}, "properties": {"highway": "motorway_link", "lanes": "2", "layer": "-1", "maxspeed": "50", "oneway": "yes", "tunnel": "yes", "length": 32.454234701073574}}, {"type": "Feature", "geometry": {"type": "LineString", "coordinates": [[-3.6538197, 40.4173103], [-3.6498913, 40.4159655], [-3.6498107, 40.415938], [-3.64976, 40.4159206]]}, "properties": {"highway": "motorway", "lanes": "4", "layer": "-1", "maxspeed": "80", "name": "Prolongaci\u00f3n de O'Donnell", "oneway": "yes", "ref": "M-23", "source:name": "wikipedia", "surface": "asphalt", "tunnel": "yes", "length": 377.5357371937935}}, {"type": "Feature", "geometry": {"type": "LineString", "coordinates": [[-3.6496786, 40.4160534], [-3.6497257, 40.4160695], [-3.6498122, 40.4160991], [-3.6537092, 40.4174328]]}, "properties": {"bicycle": "no", "foot": "no", "highway": "motorway", "lanes": "4", "layer": "-1", "maxspeed": "80", "name": "Prolongaci\u00f3n de O'Donnell", "oneway": "yes", "ref": "M-23", "source:name": "wikipedia", "surface": "asphalt", "tunnel": "yes", "length": 374.81359129226234}}, {"type": "Feature", "geometry": {"type": "LineString", "coordinates": [[-3.787978, 40.3817628], [-3.7874918, 40.3815186]]}, "properties": {"highway": "secondary", "layer": "-1", "name": "Avenida de la Aviaci\u00f3n", "oneway": "yes", "tunnel": "yes", "length": 49.39505308606293}}, {"type": "Feature", "geometry": {"type": "LineString", "coordinates": [[-3.7032762, 40.3936328], [-3.702901, 40.3934595], [-3.7026833, 40.3933097], [-3.7022198, 40.3929044], [-3.7015781, 40.3922975]]}, "properties": {"highway": "motorway_link", "lanes": "1", "layer": "-1", "lit": "24/7", "maxspeed": "50", "oneway": "yes", "tunnel": "yes", "length": 208.52584174076367}}, {"type": "Feature", "geometry": {"type": "LineString", "coordinates": [[-3.6665451, 40.4038094], [-3.6666868, 40.4034275], [-3.6667633, 40.4030963]]}, "properties": {"bicycle": "no", "foot": "no", "hazmat": "no", "highway": "motorway", "lanes": "2", "layer": "-1", "lit": "yes", "maxheight": "4.5", "maxspeed": "70", "maxweight": "7.5", "name": "Bypass Sur", "oneway": "yes", "ref": "M-30", "ref:colour": "blue", "surface": "asphalt", "tunnel": "yes", "length": 81.42626149087744}}, {"type": "Feature", "geometry": {"type": "LineString", "coordinates": [[-3.7097791, 40.3971703], [-3.7104686, 40.3976963], [-3.7107386, 40.3978954], [-3.7109108, 40.3980796], [-3.7110561, 40.3983006], [-3.7111289, 40.3985684]]}, "properties": {"destination": "Glorieta de Marqu\u00e9s de Vadillo;Glorieta de Pir\u00e1mides", "highway": "motorway_link", "lanes": "1", "layer": "-1", "lit": "24/7", "maxspeed": "70", "oneway": "yes", "tunnel": "yes", "length": 197.51891215232683}}, {"type": "Feature", "geometry": {"type": "LineString", "coordinates": [[-3.7089849, 40.3967158], [-3.7096572, 40.3969835], [-3.7102151, 40.3972653], [-3.7110353, 40.3976708], [-3.7114327, 40.3978788], [-3.712023, 40.3982889], [-3.7126751, 40.3987806], [-3.7132589, 40.3992646], [-3.713715, 40.3995448], [-3.7143404, 40.3997874], [-3.7157738, 40.4001142], [-3.7164273, 40.4001972], [-3.7171378, 40.4002384]]}, "properties": {"highway": "motorway", "lanes": "2", "layer": "-2", "lit": "24/7", "maxheight": "4.5", "maxspeed": "70", "maxweight": "7.5", "name": "Bypass Sur", "oneway": "yes", "ref": "M-30", "ref:colour": "blue", "surface": "asphalt", "tunnel": "yes", "length": 816.4254638923086}}, {"type": "Feature", "geometry": {"type": "LineString", "coordinates": [[-3.7103028, 40.3976648], [-3.7105299, 40.3979805], [-3.710692, 40.3981992]]}, "properties": {"destination": "Glorieta de Marqu\u00e9s de Vadillo", "highway": "motorway_link", "layer": "-2", "lit": "24/7", "oneway": "yes", "tunnel": "yes", "length": 67.92113036288389}}, {"type": "Feature", "geometry": {"type": "LineString", "coordinates": [[-3.7089849, 40.3967158], [-3.7093686, 40.3970133], [-3.7096798, 40.3972413]]}, "properties": {"destination": "Glorieta de Marqu\u00e9s de Vadillo;Glorieta de Pir\u00e1mides", "highway": "motorway_link", "lanes": "1", "layer": "-2", "lit": "24/7", "oneway": "yes", "tunnel": "yes", "length": 82.98689784762715}}, {"type": "Feature", "geometry": {"type": "LineString", "coordinates": [[-3.7170751, 40.3995721], [-3.7164499, 40.3995278], [-3.7158771, 40.3994435]]}, "properties": {"destination": "Avenida de Andaluc\u00eda;C\u00f3rdoba;Toledo;Glorieta de Santa Mar\u00eda de la Cabeza", "destination:ref": "A-4;A-42", "highway": "motorway", "lanes": "3", "layer": "-1", "lit": "24/7", "maxheight": "4.5", "maxspeed": "70", "maxweight": "7.5", "name": "Calle 30", "oneway": "yes", "ref": "M-30", "surface": "asphalt", "tunnel": "yes", "length": 102.82340896504826}}, {"type": "Feature", "geometry": {"type": "LineString", "coordinates": [[-3.7170751, 40.3995721], [-3.7164287, 40.3996214], [-3.7158425, 40.3995913]]}, "properties": {"bicycle": "no", "destination": "Zaragoza;Valencia;Calle de O'Donnell", "destination:ref": "M-30;A-2;A-3", "foot": "no", "highway": "motorway", "lanes": "3", "layer": "-2", "lit": "24/7", "maxspeed": "70", "name": "Bypass Sur", "oneway": "yes", "ref": "M-30", "ref:colour": "blue", "surface": "asphalt", "tunnel": "yes", "url": "http://www.mc30.es/", "wikipedia": "es:M-30", "length": 105.02485138407187}}, {"type": "Feature", "geometry": {"type": "LineString", "coordinates": [[-3.7071167, 40.3954438], [-3.7067722, 40.3953095], [-3.706487, 40.3951791], [-3.7063024, 40.3949648]]}, "properties": {"destination": "Glorieta de Santa Mar\u00eda de la Cabeza;Toledo", "destination:ref": "A-42", "highway": "motorway_link", "lanes": "1", "layer": "-3", "maxspeed": "50", "oneway": "yes", "tunnel": "yes", "length": 89.5367184536488}}, {"type": "Feature", "geometry": {"type": "LineString", "coordinates": [[-3.7025857, 40.3953486], [-3.7025767, 40.3951605], [-3.7025784, 40.3950385], [-3.7027185, 40.3949167], [-3.7028963, 40.3948779], [-3.7030461, 40.3948685], [-3.7033331, 40.3949099], [-3.7035522, 40.3950167]]}, "properties": {"bicycle": "no", "foot": "no", "highway": "motorway_link", "layer": "-1", "maxheight": "4.5", "maxspeed": "50", "oneway": "yes", "tunnel": "yes", "length": 127.7754525933334}}, {"type": "Feature", "geometry": {"type": "LineString", "coordinates": [[-3.7053987, 40.396802], [-3.7057424, 40.3967095], [-3.7061747, 40.3965659], [-3.7067413, 40.3963336], [-3.7070696, 40.3962803], [-3.7071838, 40.3962841], [-3.7075057, 40.3962948]]}, "properties": {"highway": "motorway_link", "layer": "-1", "oneway": "yes", "tunnel": "yes", "length": 191.08555952083444}}, {"type": "Feature", "geometry": {"type": "LineString", "coordinates": [[-3.7053648, 40.3967273], [-3.7057141, 40.3966327], [-3.7059915, 40.3964894], [-3.7062577, 40.3961148], [-3.7063325, 40.3957323], [-3.7063153, 40.395434], [-3.7061916, 40.3951334], [-3.7057574, 40.3948131], [-3.7048435, 40.3944378], [-3.7043581, 40.3942543], [-3.704092, 40.3942052], [-3.7037532, 40.3941169], [-3.703192, 40.3938681]]}, "properties": {"highway": "motorway_link", "layer": "-3", "oneway": "yes", "tunnel": "yes", "length": 512.2945483267791}}, {"type": "Feature", "geometry": {"type": "LineString", "coordinates": [[-3.7056201, 40.3943489], [-3.7048213, 40.394223], [-3.7043497, 40.3941749], [-3.7039146, 40.3941025]]}, "properties": {"highway": "motorway_link", "lanes": "1", "layer": "-1", "oneway": "yes", "tunnel": "yes", "length": 147.44358056559133}}, {"type": "Feature", "geometry": {"type": "LineString", "coordinates": [[-3.7060406, 40.3945189], [-3.7058947, 40.3942705], [-3.7058518, 40.3940809], [-3.7061093, 40.393656], [-3.7066574, 40.3930662], [-3.7078678, 40.3919704]]}, "properties": {"highway": "motorway_link", "lanes": "1", "layer": "-1", "lit": "yes", "maxspeed": "50", "oneway": "yes", "tunnel": "yes", "length": 343.2154003670065}}, {"type": "Feature", "geometry": {"type": "LineString", "coordinates": [[-3.7138752, 40.3976703], [-3.7136741, 40.3975907], [-3.7135121, 40.3975339], [-3.7131613, 40.3974168], [-3.7124005, 40.3972177], [-3.7115081, 40.3969571], [-3.710906, 40.3967616]]}, "properties": {"highway": "motorway_link", "lanes": "2", "layer": "-1", "lit": "24/7", "maxheight": "4.5", "maxweight": "7.5", "oneway": "yes", "surface": "asphalt", "tunnel": "yes", "length": 271.75686674504857}}, {"type": "Feature", "geometry": {"type": "LineString", "coordinates": [[-3.7138448, 40.3977203], [-3.7133794, 40.3975769], [-3.7128982, 40.3974574], [-3.7118514, 40.3971728], [-3.7109323, 40.3968859]]}, "properties": {"highway": "motorway_link", "lanes": "2", "layer": "-2", "lit": "24/7", "maxheight": "4.5", "maxweight": "7.5", "oneway": "yes", "surface": "asphalt", "tunnel": "yes", "length": 264.1560721561625}}, {"type": "Feature", "geometry": {"type": "LineString", "coordinates": [[-3.7106454, 40.3979573], [-3.7108249, 40.3981287], [-3.7109373, 40.3983462], [-3.7110101, 40.3985682], [-3.7110396, 40.3991491], [-3.7110874, 40.3993627], [-3.7113638, 40.399671]]}, "properties": {"highway": "motorway_link", "lanes": "1", "layer": "-1", "lit": "24/7", "oneway": "yes", "tunnel": "yes", "length": 205.88475697616246}}, {"type": "Feature", "geometry": {"type": "LineString", "coordinates": [[-3.7157654, 40.3992038], [-3.7151819, 40.3991258], [-3.7147163, 40.3990143], [-3.7139852, 40.3987961]]}, "properties": {"highway": "motorway_link", "layer": "-1", "lit": "24/7", "maxspeed": "70", "oneway": "yes", "tunnel": "yes", "length": 158.33651206833315}}, {"type": "Feature", "geometry": {"type": "LineString", "coordinates": [[-3.7190541, 40.3994948], [-3.7187349, 40.3994463], [-3.7185318, 40.399427]]}, "properties": {"destination": "Glorieta de Marqu\u00e9s de Vadillo;Glorieta de Pir\u00e1mides", "highway": "motorway_link", "lanes": "1", "layer": "-1", "lit": "24/7", "oneway": "yes", "tunnel": "yes", "length": 45.00289734967765}}, {"type": "Feature", "geometry": {"type": "LineString", "coordinates": [[-3.7183747, 40.399407], [-3.7178278, 40.3993285], [-3.717564, 40.3992472], [-3.7173445, 40.3991795]]}, "properties": {"destination": "Glorieta de Pir\u00e1mides", "highway": "motorway_link", "layer": "-1", "lit": "24/7", "maxspeed": "50", "oneway": "yes", "tunnel": "yes", "length": 91.47974487519038}}, {"type": "Feature", "geometry": {"type": "LineString", "coordinates": [[-3.7115678, 40.3980881], [-3.711465, 40.3984834], [-3.7115337, 40.3987123], [-3.7116496, 40.3988821], [-3.7117525, 40.3989835], [-3.7130777, 40.3995639], [-3.7141099, 40.3999744], [-3.7150915, 40.4002076], [-3.7155678, 40.4002711], [-3.7161257, 40.400343]]}, "properties": {"highway": "motorway_link", "lanes": "1", "layer": "-3", "lit": "24/7", "maxheight": "4.5", "maxweight": "7.5", "oneway": "yes", "tunnel": "yes", "length": 511.1174146867308}}, {"type": "Feature", "geometry": {"type": "LineString", "coordinates": [[-3.7138169, 40.3977649], [-3.7134665, 40.3976788], [-3.7131211, 40.3976164], [-3.7128118, 40.3975572], [-3.712553, 40.3975229]]}, "properties": {"highway": "primary", "lanes": "2", "layer": "-3", "lit": "24/7", "maxheight": "4.5", "maxweight": "7.5", "name": "Calle 30", "oneway": "yes", "surface": "asphalt", "tunnel": "yes", "length": 110.74486327146053}}, {"type": "Feature", "geometry": {"type": "LineString", "coordinates": [[-3.7225661, 40.4195216], [-3.722655, 40.4191666], [-3.7226965, 40.418818], [-3.7227582, 40.4186687]]}, "properties": {"destination": "A-5 Badajoz", "highway": "motorway_link", "lanes": "1", "layer": "-1", "lit": "24/7", "maxspeed": "50", "oneway": "yes", "surface": "asphalt", "tunnel": "yes", "length": 96.39108521146984}}, {"type": "Feature", "geometry": {"type": "LineString", "coordinates": [[-3.7227582, 40.4186687], [-3.7229112, 40.4183394], [-3.7230836, 40.4181168], [-3.7233524, 40.41798], [-3.7235876, 40.4179348], [-3.7237301, 40.4178826], [-3.7238536, 40.4178042], [-3.7239447, 40.4176862], [-3.723991, 40.4175232], [-3.7239695, 40.4174018], [-3.723991, 40.4172683], [-3.7240417, 40.4171567], [-3.7241779, 40.4169509], [-3.7242485, 40.4168893], [-3.7245779, 40.4166946], [-3.7249008, 40.4165038], [-3.7261745, 40.415877]]}, "properties": {"highway": "motorway_link", "lanes": "2", "layer": "-1", "lit": "24/7", "maxspeed": "50", "oneway": "yes", "surface": "asphalt", "tunnel": "yes", "length": 451.20542635239}}, {"type": "Feature", "geometry": {"type": "LineString", "coordinates": [[-3.7247291, 40.4162944], [-3.7237399, 40.4166273], [-3.7228665, 40.4168669], [-3.7220638, 40.4171413]]}, "properties": {"highway": "motorway_link", "lanes": "2", "layer": "-2", "lit": "24/7", "oneway": "yes", "surface": "asphalt", "tunnel": "yes", "length": 245.12212991216}}, {"type": "Feature", "geometry": {"type": "LineString", "coordinates": [[-3.721107, 40.4180039], [-3.7211817, 40.4184552]]}, "properties": {"highway": "motorway_link", "lanes": "1", "layer": "-2", "lit": "24/7", "oneway": "yes", "surface": "asphalt", "tunnel": "yes", "length": 50.51299390888436}}, {"type": "Feature", "geometry": {"type": "LineString", "coordinates": [[-3.721107, 40.4180039], [-3.7211727, 40.4182491], [-3.721218, 40.4183973], [-3.7213118, 40.4185317], [-3.7214479, 40.4186432], [-3.721617, 40.4187244], [-3.7218078, 40.4187697], [-3.7220076, 40.4187762], [-3.7222028, 40.4187434], [-3.7223804, 40.4186735], [-3.7225284, 40.4185712], [-3.7226369, 40.4184434], [-3.7226986, 40.4182986], [-3.7227094, 40.4181466], [-3.7226685, 40.4179976], [-3.7226385, 40.4178102], [-3.7226434, 40.4175885]]}, "properties": {"highway": "motorway_link", "lanes": "1", "layer": "-2", "lit": "24/7", "oneway": "yes", "surface": "asphalt", "tunnel": "yes", "length": 293.491913202303}}, {"type": "Feature", "geometry": {"type": "LineString", "coordinates": [[-3.7226434, 40.4175885], [-3.7227231, 40.4172825]]}, "properties": {"highway": "motorway_link", "lanes": "1", "layer": "-1", "lit": "24/7", "oneway": "yes", "surface": "asphalt", "tunnel": "yes", "length": 34.64580079157893}}, {"type": "Feature", "geometry": {"type": "LineString", "coordinates": [[-3.7228827, 40.4170956], [-3.7230484, 40.4170555], [-3.7232125, 40.4170245], [-3.7233748, 40.4170138], [-3.7235355, 40.4170362], [-3.723686, 40.417099], [-3.7237987, 40.4171963], [-3.72387, 40.4173141], [-3.7238938, 40.4174426], [-3.723868, 40.4175709], [-3.7237949, 40.4176881], [-3.7236807, 40.4177844], [-3.7235349, 40.4178516], [-3.7233699, 40.4178841], [-3.7231996, 40.4178791], [-3.7230383, 40.417837], [-3.7228998, 40.4177615], [-3.7227956, 40.4176588], [-3.7227346, 40.4175376], [-3.7227219, 40.4174082], [-3.7227231, 40.4172825]]}, "properties": {"destination": "Casa de Campo; A-42 Toledo", "highway": "motorway_link", "lanes": "1", "layer": "-2", "lit": "24/7", "maxspeed": "30", "oneway": "yes", "surface": "asphalt", "tunnel": "yes", "length": 287.35669005573027}}, {"type": "Feature", "geometry": {"type": "LineString", "coordinates": [[-3.7209783, 40.4180562], [-3.7206578, 40.4194631], [-3.7206067, 40.4196421], [-3.7205335, 40.4198103], [-3.7204829, 40.4199064], [-3.7204151, 40.4199631], [-3.720333, 40.4200188], [-3.7202488, 40.4200556], [-3.7201468, 40.4200962]]}, "properties": {"highway": "motorway_link", "lanes": "2", "layer": "-1", "lit": "24/7", "oneway": "yes", "surface": "asphalt", "tunnel": "yes", "length": 245.94510551068}}, {"type": "Feature", "geometry": {"type": "LineString", "coordinates": [[-3.7209783, 40.4180562], [-3.7206913, 40.4184522]]}, "properties": {"highway": "motorway_link", "lanes": "1", "layer": "-1", "lit": "24/7", "oneway": "yes", "surface": "asphalt", "tunnel": "yes", "length": 50.26849009402012}}, {"type": "Feature", "geometry": {"type": "LineString", "coordinates": [[-3.7201468, 40.4200962], [-3.7198352, 40.4201519]]}, "properties": {"highway": "motorway_link", "lanes": "1", "layer": "-1", "lit": "24/7", "maxheight": "4", "oneway": "yes", "surface": "asphalt", "tunnel": "yes", "length": 27.15860657350501}}, {"type": "Feature", "geometry": {"type": "LineString", "coordinates": [[-3.7225822, 40.4100105], [-3.7222578, 40.40948]]}, "properties": {"highway": "motorway_link", "lanes": "1", "layer": "-1", "lit": "24/7", "oneway": "yes", "tunnel": "yes", "length": 65.02585388932327}}, {"type": "Feature", "geometry": {"type": "LineString", "coordinates": [[-3.6775183, 40.3692902], [-3.6789053, 40.3690494]]}, "properties": {"highway": "secondary", "layer": "-1", "name": "Calle de Embajadores", "tunnel": "yes", "length": 120.7975071242853}}, {"type": "Feature", "geometry": {"type": "LineString", "coordinates": [[-3.6954814, 40.4051744], [-3.6961527, 40.4044299], [-3.6965069, 40.40404], [-3.6989703, 40.4012622], [-3.6991761, 40.4010061], [-3.6996223, 40.4005874], [-3.7006004, 40.3995166], [-3.7014859, 40.3985389], [-3.7023314, 40.3977048]]}, "properties": {"bicycle": "no", "foot": "no", "highway": "primary", "lanes": "2", "layer": "-3", "lit": "yes", "maxheight": "4.3", "maxspeed": "50", "name": "Paseo de Santa Mar\u00eda de la Cabeza", "name:etymology:wikidata": "Q6065630", "oneway": "yes", "postal_code": "28045", "shoulder": "no", "sidewalk": "no", "smoothness": "good", "source": "http://www.madrid.es/UnidadesDescentralizadas/UDCMedios/noticias/2009/01Enero/14Miercoles/NotasPrensa/TunelStaMariaCabeza/ficheros/Gal_TunelSantaMariaCabeza_1.jpg", "source:name": "local knowledge", "surface": "asphalt", "tunnel": "yes", "length": 1013.3823872427871}}, {"type": "Feature", "geometry": {"type": "LineString", "coordinates": [[-3.6878441, 40.3837102], [-3.687417, 40.3828728], [-3.6870066, 40.382238], [-3.6866988, 40.3818026], [-3.6865011, 40.3815796], [-3.6863281, 40.3813759], [-3.6861393, 40.381127], [-3.6859706, 40.3808072], [-3.6858444, 40.3804927], [-3.68578, 40.3801274]]}, "properties": {"highway": "motorway_link", "lanes": "2", "layer": "-1", "maxheight": "4.5", "maxspeed": "50", "name": "T\u00fanel de Embajadores", "oneway": "yes", "tunnel": "yes", "length": 437.994945446353}}, {"type": "Feature", "geometry": {"type": "LineString", "coordinates": [[-3.685651, 40.3801652], [-3.6857217, 40.380514], [-3.6858374, 40.3808271], [-3.6860253, 40.3811648], [-3.6862145, 40.3814098], [-3.6865772, 40.3818348], [-3.686912, 40.3823015], [-3.6872678, 40.3828761], [-3.6877069, 40.3837238], [-3.6879172, 40.3842673], [-3.6880856, 40.3846163], [-3.6882435, 40.384858], [-3.6894483, 40.3860078], [-3.6895839, 40.3861408], [-3.689773, 40.3863371]]}, "properties": {"highway": "motorway_link", "lanes": "2", "layer": "-3", "maxheight": "4.5", "maxspeed": "50", "name": "T\u00fanel de Embajadores", "oneway": "yes", "tunnel": "yes", "length": 778.6282538058956}}, {"type": "Feature", "geometry": {"type": "LineString", "coordinates": [[-3.6941028, 40.4073215], [-3.6938305, 40.407407], [-3.6935842, 40.407504], [-3.6934206, 40.4075898], [-3.6932489, 40.4077184], [-3.6929987, 40.4080086], [-3.692624, 40.4084496], [-3.6925222, 40.4085289], [-3.692404, 40.4085844], [-3.6922699, 40.4086273], [-3.6920877, 40.4086637], [-3.6918887, 40.4086624], [-3.6916883, 40.4086284], [-3.6914031, 40.4085298]]}, "properties": {"cycleway:right": "no", "foot": "no", "highway": "primary", "lanes": "2", "layer": "-1", "lit": "yes", "maxheight": "4.5", "maxspeed": "50", "name": "T\u00fanel de Atocha", "oneway": "yes", "postal_code": "28012", "sidewalk": "no", "surface": "asphalt", "tunnel": "yes", "length": 296.06002671716783}}, {"type": "Feature", "geometry": {"type": "LineString", "coordinates": [[-3.6695816, 40.4586876], [-3.6689966, 40.4588567]]}, "properties": {"foot": "no", "hazmat": "no", "highway": "secondary", "lanes": "2", "layer": "-1", "maxheight": "4 m", "maxspeed": "50", "name": "Calle de Costa Rica", "oneway": "yes", "surface": "asphalt", "tunnel": "yes", "length": 53.05361448289761}}, {"type": "Feature", "geometry": {"type": "LineString", "coordinates": [[-3.6676882, 40.459305], [-3.6681867, 40.4591743], [-3.6684424, 40.4590948]]}, "properties": {"foot": "no", "hazmat": "no", "highway": "secondary", "lanes": "2", "layer": "-1", "maxheight": "4 m", "maxspeed": "50", "name": "Calle de Costa Rica", "oneway": "yes", "surface": "asphalt", "tunnel": "yes", "length": 68.1199076519816}}, {"type": "Feature", "geometry": {"type": "LineString", "coordinates": [[-3.6676464, 40.4595072], [-3.6680751, 40.4592748], [-3.6684424, 40.4590948]]}, "properties": {"foot": "no", "highway": "motorway_link", "lanes": "1", "layer": "-1", "maxspeed": "50", "oneway": "yes", "tunnel": "yes", "length": 81.60348838131222}}, {"type": "Feature", "geometry": {"type": "LineString", "coordinates": [[-3.6668533, 40.4605621], [-3.6671623, 40.4601214]]}, "properties": {"highway": "motorway_link", "layer": "-1", "oneway": "yes", "tunnel": "yes", "length": 55.51315738441608}}, {"type": "Feature", "geometry": {"type": "LineString", "coordinates": [[-3.5757457, 40.4266553], [-3.5770748, 40.4268793]]}, "properties": {"highway": "secondary", "lanes": "2", "layer": "-1", "maxheight:lanes": "5.48|5.50", "maxspeed": "50", "noname": "yes", "oneway": "yes", "tunnel": "yes", "length": 115.49744858896881}}, {"type": "Feature", "geometry": {"type": "LineString", "coordinates": [[-3.6564897, 40.4058665], [-3.6573386, 40.4060183], [-3.6583723, 40.4061092], [-3.660564, 40.4062363], [-3.662645, 40.4061508], [-3.6644732, 40.4058698], [-3.6654035, 40.4056628]]}, "properties": {"highway": "motorway_link", "lanes": "2", "layer": "-2", "lit": "24/7", "maxheight": "4.5", "maxspeed": "50", "maxweight": "7.5", "oneway": "yes", "tunnel": "yes", "length": 766.3522553305309}}, {"type": "Feature", "geometry": {"type": "LineString", "coordinates": [[-3.7513713, 40.4783274], [-3.7514225, 40.4798204]]}, "properties": {"highway": "tertiary_link", "lanes": "1", "layer": "-1", "name": "Carretera de El Pardo", "oneway": "yes", "ref": "M-605", "surface": "asphalt", "tunnel": "yes", "length": 165.84530685813934}}, {"type": "Feature", "geometry": {"type": "LineString", "coordinates": [[-3.6843763, 40.3926259], [-3.684438, 40.3925284], [-3.6849552, 40.3913812], [-3.6851792, 40.3910553]]}, "properties": {"highway": "primary", "lanes": "2", "layer": "-1", "maxheight": "4", "name": "Avenida del Planetario", "name:etymology:wikidata": "Q17622122", "oneway": "yes", "postal_code": "28045", "sidewalk": "right", "surface": "asphalt", "tunnel": "yes", "length": 187.6529399031734}}, {"type": "Feature", "geometry": {"type": "LineString", "coordinates": [[-3.6850919, 40.3910108], [-3.6848578, 40.3913615], [-3.6843357, 40.3925214], [-3.6842328, 40.3926916]]}, "properties": {"foot": "no", "highway": "primary", "lanes": "2", "layer": "-1", "maxheight": "4", "name": "Avenida del Planetario", "name:etymology:wikidata": "Q17622122", "oneway": "yes", "postal_code": "28045", "sidewalk": "no", "surface": "asphalt", "tunnel": "yes", "length": 200.75515548707324}}, {"type": "Feature", "geometry": {"type": "LineString", "coordinates": [[-3.6843637, 40.4209565], [-3.6850165, 40.4208183]]}, "properties": {"highway": "primary", "lanes": "3", "layer": "-1", "lit": "24/7", "maxheight": "4.3 m", "maxspeed": "50", "name": "Calle de Alcal\u00e1", "name:etymology:wikidata": "Q2424746", "oneway": "yes", "postal_code": "28009", "source:name": "local knowledge", "tunnel": "yes", "length": 57.48749659136696}}, {"type": "Feature", "geometry": {"type": "LineString", "coordinates": [[-3.7231139, 40.4048117], [-3.7231394, 40.404644], [-3.7231348, 40.4044204], [-3.7231983, 40.4043523], [-3.7234711, 40.404221]]}, "properties": {"destination": "P\u00ba Ermita del Santo;Puente de San Isidro", "highway": "motorway_link", "lanes": "1", "layer": "-1", "lit": "24/7", "maxheight": "4.5", "maxspeed": "50", "oneway": "yes", "tunnel": "yes", "length": 80.23086962942808}}, {"type": "Feature", "geometry": {"type": "LineString", "coordinates": [[-3.6734985, 40.4390232], [-3.6730609, 40.4390976]]}, "properties": {"highway": "motorway", "lanes": "2", "layer": "-1", "lit": "24/7", "maxheight": "4.80", "maxspeed": "50", "name": "Avenida de Am\u00e9rica", "name:etymology:wikidata": "Q5686040", "oneway": "yes", "ref": "A-2", "source:name": "local knowledge", "surface": "asphalt", "tunnel": "yes", "length": 38.035988305446054}}, {"type": "Feature", "geometry": {"type": "LineString", "coordinates": [[-3.6621251, 40.4438937], [-3.6624242, 40.4440072], [-3.6625679, 40.4440142], [-3.6627103, 40.443992]]}, "properties": {"highway": "motorway_link", "layer": "-1", "maxspeed": "40", "oneway": "yes", "tunnel": "yes", "length": 52.878626498208156}}, {"type": "Feature", "geometry": {"type": "LineString", "coordinates": [[-3.6585565, 40.4449933], [-3.658288, 40.4451037]]}, "properties": {"highway": "motorway_link", "layer": "-1", "name": "Avenida de Am\u00e9rica", "name:etymology:wikidata": "Q5686040", "oneway": "yes", "source:name": "local knowledge", "tunnel": "yes", "length": 25.86806210372542}}, {"type": "Feature", "geometry": {"type": "LineString", "coordinates": [[-3.7606161, 40.3584706], [-3.7613294, 40.3589156]]}, "properties": {"highway": "motorway", "lanes": "3", "layer": "-1", "maxspeed": "100", "motorroad": "yes", "name": "M-45", "oneway": "yes", "ref": "M-45", "tunnel": "yes", "turn:lanes": "||merge_to_left", "length": 78.18584053861619}}, {"type": "Feature", "geometry": {"type": "LineString", "coordinates": [[-3.7548415, 40.347043], [-3.7558832, 40.3470306]]}, "properties": {"highway": "primary", "lanes": "2", "layer": "-1", "name": "Ronda Norte", "oneway": "yes", "tunnel": "yes", "length": 88.51353460741173}}, {"type": "Feature", "geometry": {"type": "LineString", "coordinates": [[-3.7558674, 40.3469353], [-3.7548363, 40.3469554]]}, "properties": {"highway": "primary", "lanes": "2", "layer": "-1", "name": "Ronda Norte", "oneway": "yes", "tunnel": "yes", "length": 87.63079467060531}}, {"type": "Feature", "geometry": {"type": "LineString", "coordinates": [[-3.7358149, 40.4921982], [-3.7360591, 40.4922952], [-3.7363509, 40.4923767]]}, "properties": {"highway": "motorway_link", "lanes": "1", "layer": "-1", "oneway": "yes", "surface": "asphalt", "tunnel": "yes", "length": 49.678628396023115}}, {"type": "Feature", "geometry": {"type": "LineString", "coordinates": [[-3.6721904, 40.3897668], [-3.6719179, 40.3898191]]}, "properties": {"highway": "tertiary", "layer": "-1", "surface": "asphalt", "tunnel": "yes", "length": 23.85469779129008}}, {"type": "Feature", "geometry": {"type": "LineString", "coordinates": [[-3.7161257, 40.400343], [-3.7167681, 40.4003889], [-3.7170364, 40.4003842], [-3.7177684, 40.400293], [-3.7181309, 40.4002479], [-3.7187812, 40.4002156], [-3.7190658, 40.4002165], [-3.7194023, 40.4002467]]}, "properties": {"highway": "motorway_link", "lanes": "2", "layer": "-1", "lit": "24/7", "maxspeed": "70", "oneway": "yes", "surface": "asphalt", "tunnel": "yes", "length": 279.9418286642466}}, {"type": "Feature", "geometry": {"type": "LineString", "coordinates": [[-3.7194023, 40.4002467], [-3.7197918, 40.4003233], [-3.7199357, 40.4003743], [-3.7200868, 40.4004326]]}, "properties": {"highway": "motorway_link", "lanes": "2", "layer": "-1", "lit": "24/7", "maxspeed": "90", "oneway": "yes", "surface": "asphalt", "tunnel": "yes", "length": 61.97569262141148}}, {"type": "Feature", "geometry": {"type": "LineString", "coordinates": [[-3.7222259, 40.4040072], [-3.7223288, 40.4046304]]}, "properties": {"destination:lanes": "A-6 A Coru\u00f1a|A-6 A Coru\u00f1a|A-6 A Coru\u00f1a|Plaza de Espa\u00f1a;A-5 Badajoz|Paseo Virgen del Puerto;c/ Segovia;Casa de Campo", "highway": "motorway", "lanes": "5", "layer": "-1", "lit": "24/7", "maxspeed": "70", "name": "Calle 30", "oneway": "yes", "ref": "M-30", "ref:colour": "blue", "source:name": "local knowledge", "surface": "asphalt", "tunnel": "yes", "length": 69.75073989558963}}, {"type": "Feature", "geometry": {"type": "LineString", "coordinates": [[-3.6669718, 40.4023433], [-3.6665416, 40.4029159], [-3.6661433, 40.4033517]]}, "properties": {"destination": "Calle del Bosco;Valencia", "destination:ref": "A-3", "highway": "motorway_link", "lanes": "1", "layer": "-1", "lit": "yes", "maxheight": "4.5", "maxweight": "7.5", "oneway": "yes", "tunnel": "yes", "length": 132.35859177344292}}, {"type": "Feature", "geometry": {"type": "LineString", "coordinates": [[-3.5842951, 40.4064102], [-3.5836111, 40.4068203]]}, "properties": {"highway": "secondary", "lanes": "2", "layer": "-1", "maxspeed": "30", "name": "Calle de La Roda", "postal_code": "28052", "source": "PNOA", "source:date": "2009", "surface": "asphalt", "tunnel": "yes", "length": 73.78950143734897}}, {"type": "Feature", "geometry": {"type": "LineString", "coordinates": [[-3.747612, 40.3410092], [-3.7476007, 40.3407295]]}, "properties": {"highway": "tertiary", "layer": "-1", "maxheight": "default", "name": "Calle Petra Kelly", "oneway": "yes", "surface": "asphalt", "tunnel": "yes", "length": 31.07305818940489}}, {"type": "Feature", "geometry": {"type": "LineString", "coordinates": [[-3.7488434, 40.3406891], [-3.7488521, 40.3409965]]}, "properties": {"highway": "tertiary", "layer": "-1", "maxheight": "default", "name": "Calle Clara Jan\u00e9s", "oneway": "yes", "surface": "asphalt", "tunnel": "yes", "length": 34.14206517423012}}, {"type": "Feature", "geometry": {"type": "LineString", "coordinates": [[-3.6218065, 40.4139637], [-3.6218968, 40.4139141], [-3.622044, 40.4138021], [-3.6221848, 40.4136741], [-3.6222815, 40.4135732]]}, "properties": {"highway": "motorway_link", "lanes": "2", "layer": "-1", "lit": "24/7", "oneway": "yes", "surface": "asphalt", "tunnel": "yes", "length": 59.52521914224841}}, {"type": "Feature", "geometry": {"type": "LineString", "coordinates": [[-3.6187157, 40.4141358], [-3.6198194, 40.4143135], [-3.6201208, 40.4143574], [-3.6205958, 40.4143574], [-3.6209342, 40.4143142], [-3.6212363, 40.4142432]]}, "properties": {"highway": "motorway_link", "lanes": "2", "layer": "-1", "lit": "24/7", "oneway": "yes", "surface": "asphalt", "tunnel": "yes", "length": 218.03586419316235}}, {"type": "Feature", "geometry": {"type": "LineString", "coordinates": [[-3.6224391, 40.4133284], [-3.6225085, 40.4131764], [-3.6225484, 40.4130564], [-3.6225715, 40.4129379], [-3.6226091, 40.4125638]]}, "properties": {"highway": "motorway_link", "lanes": "2", "layer": "-1", "lit": "24/7", "oneway": "yes", "surface": "asphalt", "tunnel": "yes", "length": 86.59279084508131}}, {"type": "Feature", "geometry": {"type": "LineString", "coordinates": [[-3.6465192, 40.4148941], [-3.6465203, 40.4149367], [-3.646532, 40.4150394], [-3.6465571, 40.4151011], [-3.6466163, 40.4151856], [-3.6466798, 40.4152592], [-3.6467679, 40.4153152]]}, "properties": {"highway": "motorway_link", "lanes": "1", "layer": "-1", "maxspeed": "70", "oneway": "yes", "surface": "asphalt", "tunnel": "yes", "length": 53.5122446765278}}, {"type": "Feature", "geometry": {"type": "LineString", "coordinates": [[-3.7111069, 40.466239], [-3.7106751, 40.4659002], [-3.7100716, 40.4655606], [-3.7088536, 40.4649884], [-3.7073379, 40.4645596], [-3.7061646, 40.4642131], [-3.7045597, 40.4637335], [-3.7040975, 40.4635653], [-3.7017326, 40.4622924], [-3.6993533, 40.4609889], [-3.6986222, 40.4606358], [-3.6973918, 40.4602817], [-3.6972984, 40.4602564]]}, "properties": {"foot": "no", "highway": "secondary", "lanes": "2", "layer": "-1", "lit": "yes", "maxheight": "4.4", "maxspeed": "50", "name": "T\u00fanel Marqu\u00e9s de Viana - Sor \u00c1ngela de la Cruz", "oneway": "yes", "postal_code": "28039", "shoulder": "no", "sidewalk": "no", "source": "survey", "surface": "asphalt", "tunnel": "yes", "length": 1357.733642504914}}, {"type": "Feature", "geometry": {"type": "LineString", "coordinates": [[-3.6689936, 40.4215576], [-3.6690671, 40.4208128]]}, "properties": {"highway": "primary", "lanes": "2", "layer": "-1", "maxheight": "4.46", "maxspeed": "50", "name": "Calle del Doctor Esquerdo", "name:etymology:wikidata": "Q9014392", "oneway": "yes", "postal_code": "28028", "tunnel": "yes", "length": 82.93952645575094}}, {"type": "Feature", "geometry": {"type": "LineString", "coordinates": [[-3.6689827, 40.4208088], [-3.6689165, 40.4215581]]}, "properties": {"foot": "no", "highway": "primary", "lanes": "2", "layer": "-1", "maxheight": "4.46", "maxspeed": "40", "maxspeed:advisory": "30", "name": "Calle del Doctor Esquerdo", "name:etymology:wikidata": "Q9014392", "oneway": "yes", "postal_code": "28028", "tunnel": "yes", "length": 83.39378518877753}}, {"type": "Feature", "geometry": {"type": "LineString", "coordinates": [[-3.7238613, 40.3439504], [-3.7234677, 40.3439362]]}, "properties": {"highway": "motorway_link", "lanes": "2", "layer": "-1", "maxspeed": "40", "oneway": "no", "tunnel": "yes", "length": 33.47893303420034}}, {"type": "Feature", "geometry": {"type": "LineString", "coordinates": [[-3.6063035, 40.4536888], [-3.6065131, 40.4537941], [-3.6067601, 40.4538967], [-3.606995, 40.453974], [-3.6072393, 40.4540381]]}, "properties": {"highway": "motorway_link", "lanes": "1", "layer": "-1", "oneway": "yes", "tunnel": "yes", "length": 88.7361987370021}}, {"type": "Feature", "geometry": {"type": "LineString", "coordinates": [[-3.6075326, 40.4535426], [-3.6070654, 40.4532893]]}, "properties": {"change:lanes": "no|no", "highway": "motorway_link", "lanes": "2", "layer": "-1", "maxspeed": "40", "oneway": "yes", "tunnel": "yes", "length": 48.59784655457385}}, {"type": "Feature", "geometry": {"type": "LineString", "coordinates": [[-3.6119055, 40.4556082], [-3.6118214, 40.4555111], [-3.6115699, 40.4552896], [-3.6110092, 40.4549022], [-3.6105212, 40.4546278], [-3.6102587, 40.4545021]]}, "properties": {"highway": "motorway", "lanes": "2", "layer": "-1", "maxheight": "4.50", "maxspeed": "80", "oneway": "yes", "ref": "M-12", "toll": "yes", "tunnel": "yes", "length": 187.29660231313676}}, {"type": "Feature", "geometry": {"type": "LineString", "coordinates": [[-3.6972581, 40.4603112], [-3.6985588, 40.4607153], [-3.6993, 40.4610702], [-3.7040492, 40.4636435], [-3.7045301, 40.4638159], [-3.7061528, 40.4642865], [-3.7073186, 40.4646104], [-3.7088147, 40.4650171], [-3.710039, 40.4656113], [-3.7106214, 40.465949], [-3.7110428, 40.4662839]]}, "properties": {"cycleway:right": "no", "foot": "no", "highway": "secondary", "lanes": "2", "layer": "-1", "lit": "yes", "maxheight": "4.4", "maxspeed": "50", "name": "T\u00fanel Marqu\u00e9s de Viana - Sor \u00c1ngela de la Cruz", "oneway": "yes", "postal_code": "28039", "shoulder": "no", "sidewalk": "no", "source": "survey", "surface": "asphalt", "tunnel": "yes", "length": 1355.9476912964913}}, {"type": "Feature", "geometry": {"type": "LineString", "coordinates": [[-3.7459877, 40.3609281], [-3.7450106, 40.3611426]]}, "properties": {"highway": "motorway", "lanes": "2", "layer": "-1", "oneway": "yes", "ref": "R-5", "toll": "yes", "tunnel": "yes", "length": 86.34731981773442}}, {"type": "Feature", "geometry": {"type": "LineString", "coordinates": [[-3.689773, 40.3863371], [-3.6903004, 40.3868017], [-3.6905177, 40.3871087], [-3.6907792, 40.3875627]]}, "properties": {"highway": "motorway_link", "lanes": "2", "layer": "-2", "maxheight": "4.5", "name": "T\u00fanel de Embajadores", "oneway": "yes", "tunnel": "yes", "length": 162.16411696716932}}, {"type": "Feature", "geometry": {"type": "LineString", "coordinates": [[-3.6907792, 40.3875627], [-3.6909779, 40.3878933], [-3.6911144, 40.3881637], [-3.6915663, 40.3889576], [-3.6919445, 40.3895539], [-3.6921832, 40.3899676]]}, "properties": {"highway": "motorway_link", "lanes": "1", "layer": "-1", "lit": "24/7", "maxheight": "4.5", "name": "T\u00fanel de Embajadores", "oneway": "yes", "tunnel": "yes", "length": 292.53189931860487}}, {"type": "Feature", "geometry": {"type": "LineString", "coordinates": [[-3.6979356, 40.48989], [-3.6980302, 40.4902644]]}, "properties": {"highway": "secondary_link", "layer": "-1", "maxspeed": "60", "name": "V\u00eda de servicio Autov\u00eda de Colmenar", "oneway": "yes", "postal_code": "28034", "ref": "M-607", "surface": "asphalt", "tunnel": "yes", "length": 42.341421022682844}}, {"type": "Feature", "geometry": {"type": "LineString", "coordinates": [[-3.6981223, 40.4899791], [-3.698166, 40.4902321]]}, "properties": {"highway": "motorway", "lanes": "4", "layer": "-1", "name": "Autov\u00eda de Colmenar", "oneway": "yes", "ref": "M-607", "tunnel": "yes", "length": 28.337385801390987}}, {"type": "Feature", "geometry": {"type": "LineString", "coordinates": [[-3.6983533, 40.4901952], [-3.698317, 40.4899759]]}, "properties": {"highway": "motorway", "lanes": "3", "layer": "-1", "maxspeed": "70", "name": "Autov\u00eda de Colmenar", "oneway": "yes", "ref": "M-607", "surface": "paved", "tunnel": "yes", "length": 24.545656877065213}}, {"type": "Feature", "geometry": {"type": "LineString", "coordinates": [[-3.6984652, 40.4901651], [-3.6984109, 40.4899609]]}, "properties": {"highway": "motorway_link", "lanes": "2", "layer": "-1", "name": "V\u00eda de servicio Autov\u00eda de Colmenar", "oneway": "yes", "ref": "M-607", "surface": "asphalt", "tunnel": "yes", "length": 23.137792652715863}}, {"type": "Feature", "geometry": {"type": "LineString", "coordinates": [[-3.7005321, 40.4952338], [-3.7010395, 40.4951157]]}, "properties": {"foot": "yes", "highway": "tertiary_link", "lanes": "2", "layer": "-1", "maxheight": "5.5", "name": "Traves\u00eda de Costa Brava", "surface": "asphalt", "tunnel": "yes", "length": 44.96899516446441}}, {"type": "Feature", "geometry": {"type": "LineString", "coordinates": [[-3.651495, 40.4042399], [-3.6515703, 40.4040587], [-3.6516516, 40.4039961], [-3.6517758, 40.4039387], [-3.6520312, 40.4039064]]}, "properties": {"highway": "motorway_link", "lanes": "1", "layer": "-1", "maxheight": "4.5", "maxspeed": "40", "maxweight": "7.5", "oneway": "yes", "tunnel": "yes", "length": 65.20248210262716}}, {"type": "Feature", "geometry": {"type": "LineString", "coordinates": [[-3.5745051, 40.4684714], [-3.574559, 40.4679527]]}, "properties": {"highway": "motorway_link", "layer": "-1", "oneway": "yes", "surface": "asphalt", "tunnel": "yes", "length": 57.779441267243506}}, {"type": "Feature", "geometry": {"type": "LineString", "coordinates": [[-3.7433493, 40.3641477], [-3.7435056, 40.363883]]}, "properties": {"bicycle": "yes", "highway": "primary", "lanes": "2", "layer": "-1", "lit": "24/7", "maxspeed": "40", "motor_vehicle": "designated", "name": "V\u00eda Lusitana", "oneway": "yes", "ref": "M-425", "source": "YWMS", "surface": "asphalt", "tunnel": "yes", "length": 32.251852832646655}}, {"type": "Feature", "geometry": {"type": "LineString", "coordinates": [[-3.7232274, 40.403304], [-3.7230386, 40.4031343], [-3.7229553, 40.4030121], [-3.7228545, 40.4028168]]}, "properties": {"highway": "motorway_link", "lanes": "1", "layer": "-1", "lit": "24/7", "oneway": "yes", "tunnel": "yes", "length": 63.35289441438111}}, {"type": "Feature", "geometry": {"type": "LineString", "coordinates": [[-3.6367629, 40.3530738], [-3.6370136, 40.3532096], [-3.6374101, 40.3533511], [-3.6377962, 40.3534193]]}, "properties": {"highway": "motorway_link", "lanes": "2", "layer": "-1", "lit": "no", "oneway": "yes", "tunnel": "yes", "length": 96.92634610505812}}, {"type": "Feature", "geometry": {"type": "LineString", "coordinates": [[-3.5677097, 40.3586501], [-3.567471, 40.3583557], [-3.5671532, 40.3581519]]}, "properties": {"highway": "motorway_link", "lanes": "2", "layer": "-1", "oneway": "yes", "tunnel": "yes", "length": 73.69480109030565}}, {"type": "Feature", "geometry": {"type": "LineString", "coordinates": [[-3.6400446, 40.3786874], [-3.6397714, 40.3780001]]}, "properties": {"highway": "tertiary", "lanes": "2", "layer": "-1", "maxheight": "5", "name": "Calle del Cocher\u00f3n de la Villa", "oneway": "yes", "sidewalk": "separate", "tunnel": "yes", "length": 79.76754661197798}}, {"type": "Feature", "geometry": {"type": "LineString", "coordinates": [[-3.713818, 40.479755], [-3.7136642, 40.479842], [-3.7135529, 40.4799425], [-3.7134575, 40.4800545], [-3.7133911, 40.4801523], [-3.7133364, 40.4803008], [-3.7132698, 40.4805305], [-3.7132105, 40.4808956], [-3.7132245, 40.4810531], [-3.7132562, 40.4812106]]}, "properties": {"highway": "motorway_link", "lanes": "2", "layer": "-2", "maxspeed": "50", "name": "T\u00fanel de Ventisquero de la Condesa", "oneway": "yes", "surface": "asphalt", "tunnel": "yes", "length": 177.24557060129877}}, {"type": "Feature", "geometry": {"type": "LineString", "coordinates": [[-3.7118427, 40.4806689], [-3.7120934, 40.4806301], [-3.7122485, 40.4806119], [-3.7123888, 40.4806072], [-3.7125251, 40.480612], [-3.7126721, 40.4806609], [-3.712897, 40.4807935], [-3.7129821, 40.4808648], [-3.7132562, 40.4812106]]}, "properties": {"highway": "trunk_link", "lanes": "1", "layer": "-2", "maxspeed": "50", "name": "T\u00fanel de Ventisquero de la Condesa", "oneway": "yes", "surface": "asphalt", "tunnel": "yes", "length": 151.7582485123629}}, {"type": "Feature", "geometry": {"type": "LineString", "coordinates": [[-3.7154864, 40.4838727], [-3.7148124, 40.483384], [-3.7146227, 40.4832064], [-3.7145408, 40.483119], [-3.7144454, 40.4829752], [-3.7134675, 40.4811632]]}, "properties": {"highway": "motorway_link", "lanes": "2", "layer": "-2", "maxspeed": "50", "name": "T\u00fanel de Ventisquero de la Condesa", "oneway": "yes", "surface": "asphalt", "tunnel": "yes", "turn:lanes": "slight_left|slight_right", "length": 351.71722610170065}}, {"type": "Feature", "geometry": {"type": "LineString", "coordinates": [[-3.7134675, 40.4811632], [-3.7131748, 40.4807069], [-3.7130947, 40.4805763], [-3.7130297, 40.4804877], [-3.712931, 40.4803947], [-3.7127866, 40.4803276], [-3.7127058, 40.4802985], [-3.7125998, 40.4802716], [-3.7125389, 40.4802661], [-3.7124728, 40.4802647], [-3.7123887, 40.4802785]]}, "properties": {"highway": "trunk_link", "lanes": "1", "layer": "-1", "maxspeed": "50", "name": "T\u00fanel de Ventisquero de la Condesa", "oneway": "yes", "surface": "asphalt", "tunnel": "yes", "length": 146.48463359159072}}, {"type": "Feature", "geometry": {"type": "LineString", "coordinates": [[-3.6654035, 40.4056628], [-3.6658927, 40.4050863], [-3.6661176, 40.4046138], [-3.6667633, 40.4030963]]}, "properties": {"highway": "motorway_link", "lanes": "1", "layer": "-1", "lit": "yes", "maxheight": "4.5", "maxweight": "7.5", "oneway": "yes", "tunnel": "yes", "length": 309.3358242903064}}, {"type": "Feature", "geometry": {"type": "LineString", "coordinates": [[-3.7242355, 40.4740767], [-3.7231629, 40.4745805], [-3.7222084, 40.4751638]]}, "properties": {"highway": "motorway", "lanes": "4", "layer": "-1", "maxspeed": "90", "name": "Calle 30", "oneway": "yes", "ref": "M-30", "ref:colour": "blue", "source:ref": "local knowledge", "surface": "asphalt", "tunnel": "yes", "turn:lanes": "|||merge_to_left", "length": 210.45088828457259}}, {"type": "Feature", "geometry": {"type": "LineString", "coordinates": [[-3.5991153, 40.4868603], [-3.5991057, 40.4866011], [-3.5991095, 40.4863739]]}, "properties": {"highway": "tertiary", "lanes": "2", "layer": "-1", "noname": "yes", "oneway": "yes", "ref": "M-110", "surface": "asphalt", "tunnel": "yes", "length": 54.02536392657415}}, {"type": "Feature", "geometry": {"type": "LineString", "coordinates": [[-3.603211, 40.4698428], [-3.6058656, 40.4673519], [-3.6089179, 40.4654003], [-3.6120057, 40.4623263], [-3.6126988, 40.4604537], [-3.6129988, 40.4579388], [-3.6128145, 40.4571225]]}, "properties": {"highway": "motorway", "lanes": "2", "layer": "-1", "maxheight": "4.50", "maxspeed": "80", "oneway": "yes", "ref": "M-12", "ref:colour": "blue", "toll": "yes", "tunnel": "yes", "length": 1712.969052856871}}, {"type": "Feature", "geometry": {"type": "LineString", "coordinates": [[-3.5989947, 40.4863661], [-3.5989999, 40.486846]]}, "properties": {"highway": "tertiary", "lanes": "2", "layer": "-1", "noname": "yes", "oneway": "yes", "ref": "M-110", "surface": "asphalt", "tunnel": "yes", "length": 53.29183837420925}}, {"type": "Feature", "geometry": {"type": "LineString", "coordinates": [[-3.5991718, 40.4961999], [-3.5991745, 40.4958161]]}, "properties": {"highway": "tertiary", "lanes": "2", "layer": "-1", "noname": "yes", "oneway": "yes", "ref": "M-110", "tunnel": "yes", "length": 42.61937061869898}}, {"type": "Feature", "geometry": {"type": "LineString", "coordinates": [[-3.59906, 40.4958119], [-3.5990581, 40.496199]]}, "properties": {"highway": "tertiary", "lanes": "2", "layer": "-1", "noname": "yes", "oneway": "yes", "ref": "M-110", "tunnel": "yes", "length": 42.985503535448096}}, {"type": "Feature", "geometry": {"type": "LineString", "coordinates": [[-3.5755131, 40.3999291], [-3.5752961, 40.3998385], [-3.5750911, 40.3997631], [-3.574824, 40.3997017], [-3.5745744, 40.3996598], [-3.5742666, 40.3996433], [-3.5739703, 40.3996575]]}, "properties": {"highway": "motorway_link", "lanes": "2", "layer": "-1", "oneway": "yes", "tunnel": "yes", "length": 137.0727376153297}}, {"type": "Feature", "geometry": {"type": "LineString", "coordinates": [[-3.5746709, 40.4004906], [-3.5744275, 40.4003598], [-3.574158, 40.4002501], [-3.5739379, 40.4001846], [-3.5736212, 40.4001118]]}, "properties": {"highway": "motorway_link", "lanes": "2", "layer": "-1", "oneway": "yes", "tunnel": "yes", "length": 99.30185737846661}}, {"type": "Feature", "geometry": {"type": "LineString", "coordinates": [[-3.5754164, 40.4013226], [-3.57528, 40.4010681], [-3.5750655, 40.4008045]]}, "properties": {"highway": "motorway_link", "lanes": "2", "layer": "-1", "oneway": "yes", "tunnel": "yes", "length": 65.01310809369497}}, {"type": "Feature", "geometry": {"type": "LineString", "coordinates": [[-3.6692518, 40.4066497], [-3.6709784, 40.4068001]]}, "properties": {"highway": "motorway_link", "lanes": "4", "layer": "-1", "maxheight": "4.5", "maxspeed": "50", "name": "Avenida del Mediterr\u00e1neo", "oneway": "no", "sidewalk": "no", "surface": "asphalt", "tunnel": "yes", "length": 147.5109931481474}}, {"type": "Feature", "geometry": {"type": "LineString", "coordinates": [[-3.6794124, 40.4074179], [-3.6791723, 40.4074534], [-3.6789341, 40.4074901], [-3.6786959, 40.4074995], [-3.6784576, 40.4074816], [-3.678234, 40.4074662]]}, "properties": {"bicycle": "no", "foot": "no", "highway": "primary", "horse": "no", "lanes": "2", "lanes:backward": "1", "lanes:forward": "1", "layer": "-1", "maxheight": "4.5", "maxspeed": "50", "name": "T\u00fanel de Mariano de Cavia", "oneway": "no", "postal_code": "28007", "sidewalk": "no", "surface": "asphalt", "tunnel": "yes", "length": 101.01299635405283}}, {"type": "Feature", "geometry": {"type": "LineString", "coordinates": [[-3.6732159, 40.3462647], [-3.672967, 40.3460544], [-3.6726638, 40.3457803]]}, "properties": {"highway": "tertiary", "lanes": "2", "lanes:backward": "1", "lanes:forward": "1", "layer": "-1", "name": "Avenida de los Rosales", "surface": "asphalt", "tunnel": "yes", "length": 71.37842187671876}}, {"type": "Feature", "geometry": {"type": "LineString", "coordinates": [[-3.7052021, 40.4147142], [-3.705724, 40.4148715], [-3.706208, 40.4150114], [-3.7065452, 40.4151211], [-3.7065999, 40.415135], [-3.7066557, 40.4151389], [-3.7067592, 40.4151396], [-3.7068937, 40.4151302], [-3.707181, 40.4151114], [-3.7072982, 40.4151066], [-3.7073769, 40.4151055], [-3.707502, 40.4151195], [-3.7076044, 40.4151658], [-3.7077135, 40.4152356], [-3.7077459, 40.4152697], [-3.7077706, 40.4153144], [-3.7078387, 40.4154622]]}, "properties": {"foot": "no", "highway": "tertiary", "lanes": "1", "layer": "-2", "lit": "yes", "location": "underground", "maxheight": "2.7 m", "maxspeed": "20", "name": "Calle de Atocha", "name:etymology:wikidata": "Q5492657", "oneway": "yes", "postal_code": "28012", "shoulder": "no", "surface": "asphalt", "tunnel": "yes", "length": 254.0233546358598}}, {"type": "Feature", "geometry": {"type": "LineString", "coordinates": [[-3.6530836, 40.3711406], [-3.6526959, 40.3712055]]}, "properties": {"highway": "motorway_link", "lanes": "1", "layer": "-1", "oneway": "yes", "tunnel": "yes", "length": 33.70665678942636}}, {"type": "Feature", "geometry": {"type": "LineString", "coordinates": [[-3.7199167, 40.4202199], [-3.7201881, 40.4201497], [-3.7203746, 40.4200723], [-3.7204865, 40.4200006], [-3.7205661, 40.4199317], [-3.7206288, 40.4198291], [-3.7206956, 40.4196549], [-3.7207361, 40.4194691], [-3.7208298, 40.419099], [-3.7210205, 40.4183876]]}, "properties": {"highway": "motorway_link", "lanes": "2", "layer": "-3", "lit": "24/7", "maxspeed": "50", "oneway": "yes", "surface": "asphalt", "tunnel": "yes", "length": 241.07029549172228}}, {"type": "Feature", "geometry": {"type": "LineString", "coordinates": [[-3.7130446, 40.4221389], [-3.7131968, 40.4219901], [-3.7132462, 40.4219403]]}, "properties": {"highway": "secondary", "lanes": "1", "layer": "-1", "lit": "24/7", "maxspeed": "50", "name": "Plaza de Espa\u00f1a", "name:etymology:wikidata": "Q1326261", "oneway": "yes", "postal_code": "28008", "surface": "asphalt", "tunnel": "yes", "length": 27.912127482742267}}, {"type": "Feature", "geometry": {"type": "LineString", "coordinates": [[-3.7133765, 40.4223752], [-3.7136353, 40.4225486], [-3.7139102, 40.4227485], [-3.7144199, 40.4231873], [-3.7146328, 40.4233894]]}, "properties": {"highway": "secondary", "lanes": "2", "lit": "24/7", "maxspeed": "40", "name": "Plaza de Espa\u00f1a", "name:etymology:wikidata": "Q1326261", "oneway": "yes", "postal_code": "28008", "surface": "asphalt", "tunnel": "yes", "length": 155.37692416780357}}, {"type": "Feature", "geometry": {"type": "LineString", "coordinates": [[-3.7145203, 40.4231254], [-3.7142945, 40.4228884], [-3.7142075, 40.4228087], [-3.7136782, 40.4223409], [-3.7135319, 40.4222236], [-3.7134689, 40.4221741], [-3.7133771, 40.4220863], [-3.7133187, 40.4220208], [-3.7132932, 40.4219853]]}, "properties": {"bicycle": "no", "highway": "primary", "lanes": "2", "layer": "-1", "lit": "24/7", "maxspeed": "40", "name": "Plaza de Espa\u00f1a", "name:etymology:wikidata": "Q1326261", "oneway": "yes", "postal_code": "28008", "surface": "asphalt", "tunnel": "yes", "length": 164.19475992321202}}, {"type": "Feature", "geometry": {"type": "LineString", "coordinates": [[-3.7127907, 40.4217343], [-3.7128364, 40.4218717], [-3.7128866, 40.421991], [-3.7128912, 40.4220357]]}, "properties": {"highway": "secondary", "lanes": "2", "layer": "-1", "lit": "24/7", "name": "Calle de Bail\u00e9n", "name:etymology:wikidata": "Q1364346", "oneway": "yes", "postal_code": "28013", "surface": "asphalt", "tunnel": "yes", "length": 34.637022495223505}}, {"type": "Feature", "geometry": {"type": "LineString", "coordinates": [[-3.712927, 40.4207817], [-3.7129451, 40.4202699], [-3.7129787, 40.4199359]]}, "properties": {"construction": "secondary", "highway": "secondary", "lanes": "2", "lit": "24/7", "maxspeed": "40", "name": "Calle de Bail\u00e9n", "name:etymology:wikidata": "Q1364346", "oneway": "yes", "surface": "asphalt", "tunnel": "yes", "length": 94.0501513531295}}, {"type": "Feature", "geometry": {"type": "LineString", "coordinates": [[-3.6661451, 40.4484226], [-3.6661482, 40.4485562], [-3.6661736, 40.4487329], [-3.6665259, 40.4493632]]}, "properties": {"highway": "tertiary", "lanes": "2", "lanes:backward": "1", "lanes:forward": "1", "layer": "-1", "maxspeed": "50", "name": "Calle del Coraz\u00f3n de Mar\u00eda", "oneway": "no", "surface": "asphalt", "tunnel": "yes", "length": 110.68134734282356}}, {"type": "Feature", "geometry": {"type": "LineString", "coordinates": [[-3.7002159, 40.4419453], [-3.7048046, 40.4420758], [-3.7049536, 40.4420505], [-3.7051775, 40.4419623]]}, "properties": {"foot": "no", "highway": "primary", "lanes": "2", "layer": "-1", "maxheight": "4.4", "maxspeed": "50", "name": "T\u00fanel de R\u00edos Rosas", "name:etymology:wikidata": "Q27267331", "oneway": "yes", "postal_code": "28003", "sidewalk": "no", "surface": "asphalt", "tunnel": "yes", "length": 423.89989302440557}}, {"type": "Feature", "geometry": {"type": "LineString", "coordinates": [[-3.6726232, 40.4703451], [-3.6726386, 40.4704363], [-3.6726586, 40.4705477], [-3.6727243, 40.470639], [-3.6728644, 40.4707718]]}, "properties": {"highway": "tertiary", "lanes": "1", "layer": "-1", "maxspeed": "40", "name": "Avenida de P\u00edo XII", "name:etymology:wikidata": "Q2604", "oneway": "yes", "surface": "asphalt", "tunnel": "yes", "length": 53.202830482964494}}, {"type": "Feature", "geometry": {"type": "LineString", "coordinates": [[-3.7129101, 40.4221004], [-3.7126912, 40.422304]]}, "properties": {"highway": "primary", "lanes": "3", "layer": "-1", "lit": "24/7", "maxspeed": "50", "name": "Plaza de Espa\u00f1a", "name:etymology:wikidata": "Q1326261", "oneway": "yes", "postal_code": "28008", "surface": "asphalt", "tunnel": "yes", "length": 29.261637512807894}}, {"type": "Feature", "geometry": {"type": "LineString", "coordinates": [[-3.7131549, 40.4218526], [-3.7129101, 40.4221004]]}, "properties": {"highway": "primary", "lanes": "3", "layer": "-1", "lit": "24/7", "maxspeed": "50", "name": "Plaza de Espa\u00f1a", "name:etymology:wikidata": "Q1326261", "oneway": "yes", "postal_code": "28008", "surface": "asphalt", "tunnel": "yes", "length": 34.47839387131543}}, {"type": "Feature", "geometry": {"type": "LineString", "coordinates": [[-3.7241885, 40.3378941], [-3.724602, 40.3379086]]}, "properties": {"destination:lanes": "Getafe;Toledo|Legan\u00e9s;Villaverde|Legan\u00e9s;Villaverde", "destination:ref:lanes": "A-42|none|none", "highway": "tertiary", "lanes": "3", "layer": "-1", "maxspeed": "40", "oneway": "yes", "sidewalk": "right", "tunnel": "yes", "turn:lanes": "through;left|through|through", "length": 35.17256827953201}}, {"type": "Feature", "geometry": {"type": "LineString", "coordinates": [[-3.6823946, 40.4212044], [-3.6814117, 40.4213746], [-3.6812373, 40.4214068], [-3.6796826, 40.4216936], [-3.6793758, 40.421707], [-3.6777786, 40.4216229], [-3.6691746, 40.4211728], [-3.6685252, 40.4210424], [-3.6677452, 40.4208495]]}, "properties": {"bicycle": "no", "foot": "no", "highway": "primary", "horse": "no", "lanes": "2", "layer": "-2", "lit": "24/7", "maxspeed": "50", "name": "T\u00fanel de O'Donnell", "name:etymology:wikidata": "Q454265", "oneway": "yes", "postal_code": "28009", "source:name": "local knowledge", "surface": "asphalt", "tunnel": "yes", "length": 1256.8961451856694}}, {"type": "Feature", "geometry": {"type": "LineString", "coordinates": [[-3.7134675, 40.4811632], [-3.713403, 40.4809336], [-3.7133858, 40.4807673], [-3.7134174, 40.4805236], [-3.7134682, 40.4804237], [-3.7135545, 40.4803151], [-3.7136292, 40.4802608], [-3.7137837, 40.4801764]]}, "properties": {"highway": "motorway_link", "lanes": "1", "layer": "-2", "maxspeed": "50", "name": "T\u00fanel de Ventisquero de la Condesa", "oneway": "yes", "surface": "asphalt", "tunnel": "yes", "length": 122.65237017647078}}, {"type": "Feature", "geometry": {"type": "LineString", "coordinates": [[-3.7132562, 40.4812106], [-3.7141966, 40.482982], [-3.7143232, 40.4831816], [-3.7144032, 40.4832602], [-3.7153755, 40.4839466]]}, "properties": {"highway": "motorway_link", "lanes": "2", "layer": "-2", "maxspeed": "50", "name": "T\u00fanel de Ventisquero de la Condesa", "oneway": "yes", "surface": "asphalt", "tunnel": "yes", "length": 360.2068682800474}}, {"type": "Feature", "geometry": {"type": "LineString", "coordinates": [[-3.7141605, 40.3645211], [-3.714259, 40.3641297]]}, "properties": {"highway": "tertiary", "layer": "-1", "name": "Avenida de Rafaela Ybarra", "oneway": "yes", "tunnel": "yes", "length": 44.25964607660863}}, {"type": "Feature", "geometry": {"type": "LineString", "coordinates": [[-3.6650082, 40.4199998], [-3.6648529, 40.4203709]]}, "properties": {"highway": "tertiary", "lanes": "2", "layer": "-1", "maxspeed": "50", "name": "Calle del Alcalde S\u00e1inz de Baranda", "oneway": "yes", "postal_code": "28007", "tunnel": "yes", "length": 43.26440057109415}}, {"type": "Feature", "geometry": {"type": "LineString", "coordinates": [[-3.7225661, 40.4195216], [-3.7225056, 40.4192275], [-3.722549, 40.4188469], [-3.722712, 40.4183895], [-3.7229009, 40.4179283], [-3.722941, 40.4176773], [-3.7229533, 40.4174214], [-3.7230125, 40.4171964], [-3.7231119, 40.4168562], [-3.7232251, 40.4166172]]}, "properties": {"destination": "c/ Segovia;Paseo de Extremadura;Casa de Campo", "highway": "motorway_link", "lanes": "1", "layer": "-1", "lit": "24/7", "maxspeed": "50", "oneway": "yes", "surface": "asphalt", "tunnel": "yes", "length": 330.7171711918439}}, {"type": "Feature", "geometry": {"type": "LineString", "coordinates": [[-3.7132882, 40.4219089], [-3.7133877, 40.4218358], [-3.7135118, 40.4217501]]}, "properties": {"highway": "primary", "lanes": "3", "layer": "-1", "lit": "24/7", "maxspeed": "50", "name": "Cuesta de San Vicente", "name:etymology:wikidata": "Q5794006", "oneway": "yes", "postal_code": "28008", "surface": "asphalt", "tunnel": "yes", "length": 25.907384230075735}}, {"type": "Feature", "geometry": {"type": "LineString", "coordinates": [[-3.570719, 40.4662226], [-3.5708909, 40.4661646], [-3.5710395, 40.4661347]]}, "properties": {"highway": "tertiary", "lanes": "1", "layer": "-1", "noname": "yes", "noref": "yes", "oneway": "yes", "surface": "asphalt", "tunnel": "yes", "length": 28.970980324063532}}, {"type": "Feature", "geometry": {"type": "LineString", "coordinates": [[-3.6506174, 40.4482983], [-3.6501725, 40.4484832]]}, "properties": {"highway": "motorway", "lanes": "4", "maxheight:lanes": "5.23|6.82|6.78", "maxspeed": "70", "name": "Avenida de Am\u00e9rica", "name:etymology:wikidata": "Q5686040", "oneway": "yes", "recommended_speed": "80", "ref": "A-2", "surface": "asphalt", "tunnel": "yes", "length": 42.96536069265414}}, {"type": "Feature", "geometry": {"type": "LineString", "coordinates": [[-3.7078387, 40.4154622], [-3.7079362, 40.415781], [-3.7079813, 40.4160665], [-3.7080091, 40.4161431], [-3.7080297, 40.4161747], [-3.7080645, 40.4162021], [-3.7081475, 40.4162571]]}, "properties": {"foot": "no", "highway": "tertiary", "lanes": "2", "layer": "-1", "lit": "24/7", "maxspeed": "20", "name": "Calle de Toledo", "name:etymology:wikidata": "Q5740883", "oneway": "yes", "postal_code": "28012", "tunnel": "yes", "length": 94.59881694119656}}, {"type": "Feature", "geometry": {"type": "LineString", "coordinates": [[-3.5546108, 40.494444], [-3.5554532, 40.4941761], [-3.5565773, 40.4939907], [-3.5649471, 40.4933192], [-3.5683112, 40.492942], [-3.5688892, 40.4927855], [-3.5694631, 40.4925438], [-3.5702692, 40.492113], [-3.5725124, 40.4907194], [-3.5778791, 40.4873116], [-3.579007, 40.4864296], [-3.5796323, 40.4853242], [-3.5802347, 40.4841309]]}, "properties": {"cycleway:right": "track", "foot": "no", "highway": "primary", "lanes": "2", "layer": "-2", "maxheight": "5.0", "maxspeed:lanes": "80|60", "noname": "yes", "oneway": "yes", "ref": "M-111", "ref:colour": "orange", "tunnel": "yes", "length": 2617.1324821134895}}, {"type": "Feature", "geometry": {"type": "LineString", "coordinates": [[-3.6832808, 40.4009175], [-3.6828449, 40.4012532], [-3.6824761, 40.401657], [-3.6820854, 40.4022756]]}, "properties": {"highway": "secondary", "lanes": "2", "layer": "-1", "maxheight": "4.6", "maxspeed": "50", "name": "Calle del Comercio", "oneway": "yes", "postal_code": "28007", "surface": "asphalt", "tunnel": "yes", "length": 183.49163272883155}}, {"type": "Feature", "geometry": {"type": "LineString", "coordinates": [[-3.7214644, 40.4182555], [-3.7213755, 40.4187289]]}, "properties": {"highway": "motorway_link", "lanes": "1", "layer": "-3", "lit": "24/7", "oneway": "yes", "surface": "asphalt", "tunnel": "yes", "length": 53.10630717756291}}, {"type": "Feature", "geometry": {"type": "LineString", "coordinates": [[-3.7211821, 40.4194346], [-3.7212238, 40.4195981], [-3.7213175, 40.4197487], [-3.7214574, 40.4198768], [-3.7216346, 40.4199745], [-3.7218382, 40.4200357], [-3.7220553, 40.4200565], [-3.7222724, 40.4200356], [-3.7224759, 40.4199744], [-3.7226531, 40.4198766], [-3.7227929, 40.4197485], [-3.7228865, 40.4195979], [-3.7229282, 40.4194343], [-3.7229152, 40.419268]]}, "properties": {"highway": "motorway_link", "lanes": "1", "layer": "-3", "lit": "24/7", "oneway": "yes", "surface": "asphalt", "tunnel": "yes", "length": 240.94799453482372}}, {"type": "Feature", "geometry": {"type": "LineString", "coordinates": [[-3.593712, 40.4902009], [-3.5937126, 40.4908216]]}, "properties": {"covered": "yes", "highway": "tertiary", "level": "0", "noname": "yes", "noref": "yes", "oneway": "yes", "tunnel": "yes", "length": 68.92507507020584}}, {"type": "Feature", "geometry": {"type": "LineString", "coordinates": [[-3.6654035, 40.4056628], [-3.6658486, 40.4053973], [-3.6662545, 40.404947], [-3.6669294, 40.4037017]]}, "properties": {"highway": "motorway_link", "lanes": "1", "layer": "-1", "maxheight": "4.5", "maxspeed": "50", "maxweight": "7.5", "oneway": "yes", "tunnel": "yes", "length": 258.3278304812743}}, {"type": "Feature", "geometry": {"type": "LineString", "coordinates": [[-3.7220638, 40.4171413], [-3.7215636, 40.4174026], [-3.7212958, 40.4176314], [-3.7211519, 40.4178274], [-3.721107, 40.4180039]]}, "properties": {"highway": "motorway_link", "lanes": "2", "layer": "-2", "lit": "24/7", "oneway": "yes", "surface": "asphalt", "tunnel": "yes", "length": 130.433460035944}}, {"type": "Feature", "geometry": {"type": "LineString", "coordinates": [[-3.6902166, 40.4763144], [-3.6897016, 40.475411], [-3.6892469, 40.4750026], [-3.6889768, 40.474662]]}, "properties": {"bicycle": "no", "foot": "no", "highway": "tertiary", "lanes": "1", "layer": "-3", "name": "T\u00fanel de P\u00edo XII", "oneway": "yes", "postal_code": "28029", "surface": "asphalt", "tunnel": "yes", "length": 213.1529494402431}}, {"type": "Feature", "geometry": {"type": "LineString", "coordinates": [[-3.6750895, 40.4728832], [-3.6754859, 40.4727917], [-3.6758729, 40.4727495], [-3.676214, 40.4728147], [-3.6778418, 40.4735628]]}, "properties": {"foot": "no", "highway": "primary", "lanes": "2", "layer": "-2", "lit": "yes", "maxheight": "4.3", "maxspeed": "50", "name": "T\u00fanel de P\u00edo XII", "oneway": "yes", "shoulder": "no", "surface": "asphalt", "tunnel": "yes", "length": 259.1954685151072}}, {"type": "Feature", "geometry": {"type": "LineString", "coordinates": [[-3.6211653, 40.4141244], [-3.6216727, 40.4137059]]}, "properties": {"highway": "motorway_link", "lanes": "2", "layer": "-1", "lit": "24/7", "oneway": "yes", "ref": "R-3", "surface": "asphalt", "tunnel": "yes", "length": 63.35828762378114}}, {"type": "Feature", "geometry": {"type": "LineString", "coordinates": [[-3.6219489, 40.4132995], [-3.6219809, 40.4131828], [-3.622004, 40.4130451], [-3.6219857, 40.412787], [-3.6218983, 40.412529]]}, "properties": {"highway": "motorway_link", "lanes": "2", "layer": "-1", "lit": "24/7", "oneway": "yes", "ref": "R-3", "surface": "asphalt", "tunnel": "yes", "length": 86.95199126574036}}, {"type": "Feature", "geometry": {"type": "LineString", "coordinates": [[-3.6902667, 40.3864411], [-3.6901586, 40.3862925], [-3.6899202, 40.3860802], [-3.6897018, 40.3859786]]}, "properties": {"highway": "motorway_link", "lanes": "2", "layer": "-1", "maxheight": "4.5", "name": "T\u00fanel de Embajadores", "oneway": "yes", "tunnel": "yes", "length": 71.66141052353504}}, {"type": "Feature", "geometry": {"type": "LineString", "coordinates": [[-3.6909779, 40.3878933], [-3.6910729, 40.3880126], [-3.6911155, 40.3880785], [-3.6911844, 40.3882058]]}, "properties": {"highway": "motorway_link", "layer": "-1", "maxheight": "4.5", "oneway": "yes", "tunnel": "yes", "length": 38.97114924986669}}, {"type": "Feature", "geometry": {"type": "LineString", "coordinates": [[-3.6012373, 40.3987744], [-3.6013084, 40.3987651], [-3.6013794, 40.3987676], [-3.6015573, 40.3987806]]}, "properties": {"foot": "no", "highway": "secondary", "lanes": "1", "layer": "-1", "maxspeed": "30", "name": "Calle Aurora Boreal", "oneway": "yes", "postal_code": "28032", "tunnel": "yes", "length": 27.329338944461}}, {"type": "Feature", "geometry": {"type": "LineString", "coordinates": [[-3.7416598, 40.4091005], [-3.7420792, 40.4092714]]}, "properties": {"highway": "primary", "lanes": "2", "layer": "-1", "lit": "24/7", "name": "Paseo de Extremadura", "oneway": "yes", "tunnel": "yes", "length": 40.34175044693736}}, {"type": "Feature", "geometry": {"type": "LineString", "coordinates": [[-3.7411885, 40.4089621], [-3.7413347, 40.408886], [-3.7414044, 40.408825], [-3.7414458, 40.4087611], [-3.7414809, 40.4086851]]}, "properties": {"highway": "secondary", "layer": "-1", "lit": "yes", "name": "Calle de la Huerta de Casta\u00f1eda", "oneway": "yes", "tunnel": "yes", "length": 40.87510535659305}}, {"type": "Feature", "geometry": {"type": "LineString", "coordinates": [[-3.7439646, 40.3624839], [-3.7446857, 40.362414]]}, "properties": {"highway": "motorway", "lanes": "2", "layer": "-1", "oneway": "yes", "ref": "R-5", "toll": "yes", "tunnel": "yes", "length": 61.74054100163999}}, {"type": "Feature", "geometry": {"type": "LineString", "coordinates": [[-3.8151735, 40.4351312], [-3.8150412, 40.4351019], [-3.8143419, 40.4349462], [-3.8141531, 40.4348984], [-3.8140619, 40.4348425], [-3.8139357, 40.4347635]]}, "properties": {"highway": "tertiary", "layer": "-1", "maxspeed": "20", "name": "T\u00fanel Padre Vallet", "oneway": "yes", "source": "survey", "source:date": "01012012", "surface": "asphalt", "tunnel": "yes", "length": 114.12934360145695}}, {"type": "Feature", "geometry": {"type": "LineString", "coordinates": [[-3.8134644, 40.4352813], [-3.8135802, 40.4352753], [-3.8137199, 40.4352885], [-3.8142149, 40.4354883], [-3.8143481, 40.435539], [-3.814515, 40.4356024], [-3.8151893, 40.4360074], [-3.8155763, 40.4362046]]}, "properties": {"highway": "tertiary", "layer": "-1", "name": "T\u00fanel Padre Vallet", "oneway": "yes", "source": "survey", "source:date": "01012012", "tunnel": "yes", "length": 209.97396419221235}}, {"type": "Feature", "geometry": {"type": "LineString", "coordinates": [[-3.7053123, 40.3956755], [-3.705794, 40.3957706]]}, "properties": {"highway": "motorway_link", "lanes": "1", "layer": "-1", "oneway": "yes", "tunnel": "yes", "length": 42.23720573763668}}, {"type": "Feature", "geometry": {"type": "LineString", "coordinates": [[-3.6886785, 40.4092694], [-3.6887065, 40.4099598]]}, "properties": {"cycleway:both": "no", "highway": "tertiary", "lanes": "2", "lanes:backward": "1", "lanes:forward": "1", "layer": "-1", "maxspeed": "50", "name": "Calle de Alfonso XII", "name:etymology:wikidata": "Q32347", "oneway": "no", "postal_code": "28014", "sidewalk": "no", "source:name": "local knowledge", "surface": "asphalt", "tunnel": "yes", "length": 76.70058321992997}}, {"type": "Feature", "geometry": {"type": "LineString", "coordinates": [[-3.5746836, 40.4263864], [-3.5749877, 40.4264912]]}, "properties": {"highway": "secondary", "lanes": "2", "maxheight:lanes": "5.48|5.50", "maxspeed": "50", "noname": "yes", "oneway": "yes", "tunnel": "yes", "length": 28.308599017415954}}, {"type": "Feature", "geometry": {"type": "LineString", "coordinates": [[-3.5751545, 40.4261583], [-3.5748802, 40.4261052]]}, "properties": {"foot": "no", "highway": "secondary", "lanes": "2", "layer": "-1", "maxheight": "4.20", "maxspeed": "50", "noname": "yes", "oneway": "yes", "surface": "asphalt", "tunnel": "yes", "length": 24.012477489255637}}, {"type": "Feature", "geometry": {"type": "LineString", "coordinates": [[-3.7437684, 40.363288], [-3.743604, 40.363568]]}, "properties": {"bicycle": "yes", "highway": "primary", "lanes": "2", "layer": "-1", "lit": "24/7", "maxheight": "4.5 m", "maxspeed": "40", "motor_vehicle": "designated", "name": "V\u00eda Lusitana", "oneway": "yes", "ref": "M-425", "source": "YWMS", "surface": "asphalt", "tunnel": "yes", "length": 34.083506997498326}}, {"type": "Feature", "geometry": {"type": "LineString", "coordinates": [[-3.7223288, 40.4046304], [-3.7223453, 40.4047984], [-3.7222511, 40.405659], [-3.7220724, 40.4063974], [-3.7217853, 40.4070459], [-3.7214547, 40.4078614], [-3.721402, 40.4079915]]}, "properties": {"destination:lanes": "A-6 A Coru\u00f1a|A-6 A Coru\u00f1a|A-6 A Coru\u00f1a|Plaza de Espa\u00f1a;A-5 Badajoz|Paseo Virgen del Puerto;c/ Segovia;Casa de Campo", "highway": "motorway", "lanes": "5", "layer": "-1", "lit": "24/7", "maxheight": "4.5", "maxspeed": "70", "maxweight": "7.5", "name": "Calle 30", "oneway": "yes", "ref": "M-30", "ref:colour": "blue", "source:name": "local knowledge", "surface": "asphalt", "tunnel": "yes", "length": 383.94000478687065}}, {"type": "Feature", "geometry": {"type": "LineString", "coordinates": [[-3.7171378, 40.4002384], [-3.7181217, 40.4001511], [-3.718729, 40.4001162], [-3.7190693, 40.4001228], [-3.7194122, 40.4001499]]}, "properties": {"highway": "motorway", "lanes": "3", "layer": "-1", "lit": "24/7", "maxheight": "4.5", "maxspeed": "70", "maxweight": "7.5", "name": "Calle 30", "oneway": "yes", "ref": "M-30", "ref:colour": "blue", "source:name": "local knowledge", "surface": "asphalt", "tunnel": "yes", "length": 193.9518560398239}}, {"type": "Feature", "geometry": {"type": "LineString", "coordinates": [[-3.6857883, 40.3795325], [-3.6857817, 40.3794105], [-3.6856987, 40.3790329], [-3.685647, 40.3788998], [-3.685572, 40.3787423], [-3.6854867, 40.3785932]]}, "properties": {"highway": "motorway_link", "lanes": "2", "layer": "-1", "maxheight": "4.5", "maxspeed": "50", "name": "T\u00fanel de Embajadores", "oneway": "yes", "tunnel": "yes", "length": 108.178747113198}}, {"type": "Feature", "geometry": {"type": "LineString", "coordinates": [[-3.6894254, 40.3872737], [-3.6898881, 40.3869202], [-3.6899953, 40.3868066], [-3.6900453, 40.3866933], [-3.6900601, 40.3865629], [-3.6900246, 40.3864145], [-3.6897018, 40.3859786]]}, "properties": {"highway": "motorway_link", "lanes": "1", "layer": "-1", "maxheight": "4.5", "maxspeed": "30", "name": "T\u00fanel de Embajadores", "oneway": "yes", "tunnel": "yes", "length": 171.28195732978077}}, {"type": "Feature", "geometry": {"type": "LineString", "coordinates": [[-3.6685275, 40.4589951], [-3.6679524, 40.4590864], [-3.6673559, 40.4591362]]}, "properties": {"foot": "no", "highway": "motorway_link", "lanes": "1", "layer": "-1", "maxheight": "4 m", "maxspeed": "50", "oneway": "yes", "surface": "asphalt", "tunnel": "yes", "length": 100.71797100729381}}, {"type": "Feature", "geometry": {"type": "LineString", "coordinates": [[-3.6004, 40.3990766], [-3.6004817, 40.3990208], [-3.6005263, 40.3989934], [-3.600596, 40.3989555], [-3.6006852, 40.3989144]]}, "properties": {"foot": "no", "highway": "secondary", "lanes": "1", "layer": "-1", "maxspeed": "30", "name": "Avenida de la Gran V\u00eda del Este", "oneway": "yes", "postal_code": "28032", "tunnel": "yes", "length": 30.26049446898452}}, {"type": "Feature", "geometry": {"type": "LineString", "coordinates": [[-3.6011974, 40.3985135], [-3.6012223, 40.398455], [-3.6012614, 40.3983964], [-3.6013067, 40.3983468], [-3.6013719, 40.3982846]]}, "properties": {"foot": "no", "highway": "tertiary", "lanes": "1", "layer": "-1", "maxspeed": "30", "name": "Avenida de la Gran V\u00eda del Este", "oneway": "yes", "postal_code": "28032", "tunnel": "yes", "length": 29.704732213495753}}, {"type": "Feature", "geometry": {"type": "LineString", "coordinates": [[-3.6001525, 40.3985105], [-3.5996211, 40.3984125]]}, "properties": {"foot": "no", "highway": "secondary", "lanes": "2", "layer": "-1", "maxspeed": "50", "name": "Calle de la Pirotecnia", "oneway": "yes", "postal_code": "28032", "source": "PNOA", "source:date": "2009", "tunnel": "yes", "length": 46.40735962281682}}, {"type": "Feature", "geometry": {"type": "LineString", "coordinates": [[-3.6996622, 40.3901665], [-3.6985571, 40.3890061], [-3.6977954, 40.388336], [-3.6967147, 40.3873672]]}, "properties": {"highway": "motorway", "lanes": "3", "layer": "-1", "lit": "24/7", "maxheight": "4.5", "maxspeed": "70", "maxweight": "7.5", "name": "Calle 30", "name:etymology:wikidata": "Q2606591", "oneway": "yes", "ref": "M-30", "ref:colour": "blue", "surface": "asphalt", "tunnel": "yes", "length": 399.38076644612977}}, {"type": "Feature", "geometry": {"type": "LineString", "coordinates": [[-3.7015781, 40.3922975], [-3.7008779, 40.3915187], [-3.7000776, 40.3906286], [-3.6996929, 40.3902007], [-3.6996622, 40.3901665]]}, "properties": {"highway": "motorway", "lanes": "4", "layer": "-1", "lit": "24/7", "maxheight": "4.5", "maxspeed": "70", "maxweight": "7.5", "name": "Calle 30", "oneway": "yes", "ref": "M-30", "ref:colour": "blue", "surface": "asphalt", "tunnel": "yes", "length": 287.15016490896096}}, {"type": "Feature", "geometry": {"type": "LineString", "coordinates": [[-3.7053123, 40.3956755], [-3.7054132, 40.3957512], [-3.7055202, 40.3958316], [-3.7055829, 40.3959009], [-3.705631, 40.3960239], [-3.7056301, 40.3961129], [-3.7056164, 40.3962314], [-3.7055778, 40.3963494], [-3.7054842, 40.3964706]]}, "properties": {"destination": "Plaza Fern\u00e1ndez Ladreda;Toledo", "destination:lanes": "none", "destination:ref": "A-42", "highway": "motorway_link", "lanes": "1", "layer": "-1", "maxspeed": "40", "oneway": "yes", "tunnel": "yes", "length": 100.57976603751008}}, {"type": "Feature", "geometry": {"type": "LineString", "coordinates": [[-3.7035522, 40.3950167], [-3.7045577, 40.395451], [-3.7053123, 40.3956755]]}, "properties": {"highway": "motorway_link", "lanes": "2", "layer": "-1", "oneway": "yes", "tunnel": "yes", "length": 166.79077777808436}}, {"type": "Feature", "geometry": {"type": "LineString", "coordinates": [[-3.7103028, 40.3976648], [-3.7106454, 40.3979573]]}, "properties": {"destination": "Glorieta de Pir\u00e1mides", "highway": "motorway_link", "layer": "-2", "lit": "24/7", "oneway": "yes", "tunnel": "yes", "length": 43.59937651409707}}, {"type": "Feature", "geometry": {"type": "LineString", "coordinates": [[-3.721402, 40.4079915], [-3.7213843, 40.4087063], [-3.7214231, 40.4092925], [-3.721442, 40.4093761], [-3.7216579, 40.409906], [-3.7220899, 40.4111981], [-3.7224606, 40.4121725], [-3.7225416, 40.4125009], [-3.7225912, 40.4128117], [-3.7225833, 40.4131735], [-3.7225052, 40.4134884], [-3.7223648, 40.413759], [-3.7223138, 40.4139942], [-3.7223284, 40.4143252], [-3.7223976, 40.4146333], [-3.7224285, 40.4149333], [-3.7224464, 40.4151394]]}, "properties": {"highway": "motorway", "lanes": "4", "layer": "-2", "lit": "24/7", "maxheight": "4.5", "maxspeed": "70", "maxweight": "7.5", "name": "Calle 30", "oneway": "yes", "ref": "M-30", "ref:colour": "blue", "source:name": "local knowledge", "surface": "asphalt", "tunnel": "yes", "length": 810.6719582056713}}, {"type": "Feature", "geometry": {"type": "LineString", "coordinates": [[-3.7220766, 40.4162675], [-3.7219649, 40.4166106]]}, "properties": {"highway": "motorway_link", "lanes": "2", "layer": "-1", "lit": "24/7", "oneway": "yes", "surface": "asphalt", "tunnel": "yes", "length": 39.26053237162072}}, {"type": "Feature", "geometry": {"type": "LineString", "coordinates": [[-3.7224464, 40.4151394], [-3.7224159, 40.4155909], [-3.722354, 40.4159934], [-3.7216906, 40.4180994], [-3.7216047, 40.4184746], [-3.721557, 40.4188944], [-3.7215553, 40.4192824], [-3.7216185, 40.4197266], [-3.7217039, 40.4200509], [-3.7218884, 40.4203946], [-3.7221096, 40.4207079]]}, "properties": {"highway": "motorway", "lanes": "3", "layer": "-1", "lit": "24/7", "maxheight": "4.5", "maxspeed": "70", "maxweight": "7.5", "name": "Calle 30", "oneway": "yes", "ref": "M-30", "ref:colour": "blue", "source:name": "local knowledge", "surface": "asphalt", "tunnel": "yes", "length": 635.0487782174099}}, {"type": "Feature", "geometry": {"type": "LineString", "coordinates": [[-3.7221096, 40.4207079], [-3.7224755, 40.4209692], [-3.7228792, 40.4211741], [-3.725652, 40.4223363]]}, "properties": {"highway": "motorway", "lanes": "4", "layer": "-1", "lit": "24/7", "maxheight": "4.5", "maxspeed": "70", "maxweight": "7.5", "name": "Calle 30", "oneway": "yes", "ref": "M-30", "ref:colour": "blue", "surface": "asphalt", "tunnel": "yes", "length": 352.0090130977061}}, {"type": "Feature", "geometry": {"type": "LineString", "coordinates": [[-3.7025849, 40.3943296], [-3.7031029, 40.3946564], [-3.7036319, 40.395012]]}, "properties": {"bicycle": "no", "destination": "Badajoz", "destination:ref": "M-30;A-5;A-6;A-1", "foot": "no", "highway": "motorway", "lanes": "2", "layer": "-1", "maxheight": "4.5", "maxspeed": "70", "maxweight": "7.5", "name": "Calle 30", "oneway": "yes", "ref": "M-30", "source:name": "local knowledge", "surface": "asphalt", "tunnel": "yes", "length": 116.81930524678174}}, {"type": "Feature", "geometry": {"type": "LineString", "coordinates": [[-3.705794, 40.3957706], [-3.706049, 40.3958479], [-3.706934, 40.3961197], [-3.7074474, 40.396277], [-3.7075057, 40.3962948], [-3.7077862, 40.3964008], [-3.708069, 40.3965077], [-3.7089998, 40.3968369], [-3.7095888, 40.3970889], [-3.7097791, 40.3971703], [-3.7108806, 40.3978144], [-3.7112902, 40.3980283], [-3.711662, 40.3982824], [-3.7118758, 40.3984285], [-3.7123316, 40.3987473], [-3.7125353, 40.3988897], [-3.7128439, 40.3991156], [-3.713144, 40.3993354], [-3.7136377, 40.3996461], [-3.7142298, 40.3999056], [-3.7158091, 40.4002259], [-3.7164458, 40.4002597], [-3.7171378, 40.4002384]]}, "properties": {"bicycle": "no", "foot": "no", "highway": "motorway", "lanes": "3", "layer": "-1", "lit": "24/7", "maxheight": "4.5", "maxspeed": "70", "maxweight": "7.5", "name": "Calle 30", "oneway": "yes", "ref": "M-30", "source:name": "local knowledge", "surface": "asphalt", "tunnel": "yes", "length": 1110.637279564795}}, {"type": "Feature", "geometry": {"type": "LineString", "coordinates": [[-3.6684424, 40.4590948], [-3.6685263, 40.45907], [-3.6685796, 40.4590563], [-3.6687288, 40.4590158], [-3.6690523, 40.4589284], [-3.6691466, 40.4589029], [-3.6696276, 40.4587829]]}, "properties": {"foot": "no", "hazmat": "no", "highway": "secondary", "lanes": "3", "layer": "-1", "maxheight": "4 m", "maxspeed": "50", "name": "Calle de Costa Rica", "oneway": "yes", "surface": "asphalt", "tunnel": "yes", "length": 106.33989516382523}}, {"type": "Feature", "geometry": {"type": "LineString", "coordinates": [[-3.6830832, 40.4367605], [-3.6829222, 40.4388848], [-3.6828352, 40.4391161], [-3.6827104, 40.4392682]]}, "properties": {"goods": "no", "hgv": "no", "highway": "motorway_link", "lanes": "1", "layer": "-1", "maxheight": "3.5", "maxspeed": "50", "oneway": "yes", "tunnel": "yes", "length": 282.94222157139757}}, {"type": "Feature", "geometry": {"type": "LineString", "coordinates": [[-3.6502554, 40.4486127], [-3.6507057, 40.448421]]}, "properties": {"change:lanes": "yes|yes|not_right|no", "highway": "motorway", "lanes": "4", "lanes:psv": "1", "maxheight:lanes": "5.34|6.84|6.89|6.89", "maxspeed": "70", "name": "Avenida de Am\u00e9rica", "name:etymology:wikidata": "Q5686040", "oneway": "yes", "psv:lanes": "yes|yes|yes|designated", "ref": "A-2", "tunnel": "yes", "length": 43.730799842096346}}, {"type": "Feature", "geometry": {"type": "LineString", "coordinates": [[-3.6667633, 40.4030963], [-3.6670614, 40.4023629], [-3.6672628, 40.4017778], [-3.6675346, 40.4010755], [-3.668847, 40.3996677], [-3.6695414, 40.3987176], [-3.6710056, 40.397176], [-3.6723287, 40.3957588], [-3.6731646, 40.3951023], [-3.6764688, 40.3928028], [-3.6782905, 40.3916982], [-3.6802529, 40.3904423], [-3.6816383, 40.3899202], [-3.6833964, 40.3894499], [-3.6860864, 40.3892428], [-3.6901073, 40.3894829], [-3.6919295, 40.3897972], [-3.693574, 40.3904608], [-3.6951707, 40.3912674], [-3.6957558, 40.3915027], [-3.7003865, 40.3932968], [-3.7022097, 40.3942853], [-3.7025187, 40.394445], [-3.7027879, 40.3945666], [-3.7031658, 40.3947371], [-3.703955, 40.3950353], [-3.7047618, 40.3953556], [-3.70762, 40.3962045], [-3.7089849, 40.3967158]]}, "properties": {"bicycle": "no", "foot": "no", "highway": "motorway", "lanes": "3", "layer": "-2", "lit": "24/7", "maxheight": "4.5", "maxspeed": "70", "maxweight": "7.5", "name": "Bypass Sur", "oneway": "yes", "ref": "M-30", "ref:colour": "blue", "surface": "asphalt", "tunnel": "yes", "length": 4510.900667963983}}, {"type": "Feature", "geometry": {"type": "LineString", "coordinates": [[-3.7203741, 40.4646124], [-3.7208265, 40.4643348], [-3.7211601, 40.4639584]]}, "properties": {"bicycle": "no", "foot": "no", "highway": "primary", "lanes": "2", "layer": "-1", "maxheight": "4.25", "maxspeed": "40", "name": "Calle de Sinesio Delgado", "name:etymology:wikidata": "Q6129194", "oneway": "yes", "surface": "asphalt", "tunnel": "yes", "length": 99.69079591507712}}, {"type": "Feature", "geometry": {"type": "LineString", "coordinates": [[-3.7211601, 40.4639584], [-3.7214884, 40.4631795], [-3.7217257, 40.4623914], [-3.7220784, 40.4615749], [-3.7223593, 40.4612744], [-3.722808, 40.4610655], [-3.7238028, 40.4608755]]}, "properties": {"bicycle": "no", "foot": "no", "highway": "primary", "lanes": "2", "layer": "-1", "maxheight": "4.25", "maxspeed": "50", "name": "Calle de Sinesio Delgado", "name:etymology:wikidata": "Q6129194", "oneway": "yes", "surface": "asphalt", "tunnel": "yes", "length": 448.6801542738698}}, {"type": "Feature", "geometry": {"type": "LineString", "coordinates": [[-3.7222578, 40.40948], [-3.722185, 40.4089828], [-3.7222177, 40.4085282], [-3.722293, 40.4080718]]}, "properties": {"highway": "motorway", "lanes": "5", "layer": "-1", "lit": "24/7", "maxheight": "4.5", "maxspeed": "70", "maxweight": "7.5", "name": "Calle 30", "oneway": "yes", "ref": "M-30", "ref:colour": "blue", "source:name": "local knowledge", "surface": "asphalt", "tunnel": "yes", "length": 157.1925041452062}}, {"type": "Feature", "geometry": {"type": "LineString", "coordinates": [[-3.7190541, 40.3994948], [-3.7184598, 40.3994882], [-3.7179957, 40.3995134], [-3.7174145, 40.3995594]]}, "properties": {"highway": "motorway", "lanes": "5", "layer": "-1", "lit": "24/7", "maxheight": "4.5", "maxspeed": "70", "maxweight": "7.5", "name": "Calle 30", "oneway": "yes", "ref": "M-30", "ref:colour": "blue", "source:name": "local knowledge", "surface": "asphalt", "tunnel": "yes", "length": 139.56065850202765}}, {"type": "Feature", "geometry": {"type": "LineString", "coordinates": [[-3.7237976, 40.4213522], [-3.7233467, 40.4210416]]}, "properties": {"destination:lanes": "A-42 Toledo;A-4;A-3;A-2|A-42 Toledo;A-4;A-3;A-2|A-42 Toledo;A-4;A-3;A-2|c/Segovia;Casa de Campo|P\u00ba Extremadura;A-5 Badajoz", "highway": "motorway", "lanes": "5", "layer": "-1", "lit": "24/7", "maxheight": "4.5", "maxspeed": "70", "maxweight": "7.5", "name": "Calle 30", "oneway": "yes", "ref": "M-30", "ref:colour": "blue", "source:name": "local knowledge", "surface": "asphalt", "tunnel": "yes", "turn:lanes": "through|through|through|right|right", "length": 51.515767792520876}}, {"type": "Feature", "geometry": {"type": "LineString", "coordinates": [[-3.723587, 40.4127001], [-3.7233192, 40.412289], [-3.7230889, 40.4118589], [-3.7227747, 40.4109766], [-3.7224147, 40.4099451], [-3.7222578, 40.40948]]}, "properties": {"highway": "motorway", "lanes": "4", "layer": "-1", "lit": "24/7", "maxheight": "4.5", "maxspeed": "70", "maxweight": "7.5", "name": "Calle 30", "oneway": "yes", "ref": "M-30", "ref:colour": "blue", "source:name": "local knowledge", "surface": "asphalt", "tunnel": "yes", "length": 376.0199075921694}}, {"type": "Feature", "geometry": {"type": "LineString", "coordinates": [[-3.7233467, 40.4210416], [-3.7227893, 40.4204805], [-3.7225747, 40.4201472], [-3.7224586, 40.4198511], [-3.7223516, 40.4194154], [-3.7223258, 40.4185528], [-3.722387, 40.4180431], [-3.7225404, 40.4174447], [-3.7229433, 40.4163012], [-3.7230976, 40.4158308], [-3.7232117, 40.4155026], [-3.7233142, 40.4153422], [-3.7234422, 40.4151945]]}, "properties": {"destination": "P\u00aa E. del Santo;Gta. M. de Vadillo;A-42 Toledo;A-4 C\u00f3rdoba", "highway": "motorway", "lanes": "3", "layer": "-1", "lit": "24/7", "maxheight": "4.5", "maxspeed": "70", "maxweight": "7.5", "name": "Calle 30", "oneway": "yes", "ref": "M-30", "ref:colour": "blue", "surface": "asphalt", "tunnel": "yes", "length": 685.9430633668807}}, {"type": "Feature", "geometry": {"type": "LineString", "coordinates": [[-3.719836, 40.3996318], [-3.7194479, 40.3995414], [-3.7190541, 40.3994948]]}, "properties": {"highway": "motorway", "lanes": "6", "layer": "-1", "lit": "24/7", "maxheight": "4.5", "maxspeed": "70", "maxweight": "7.5", "name": "Calle 30", "oneway": "yes", "ref": "M-30", "ref:colour": "blue", "source:name": "local knowledge", "surface": "asphalt", "tunnel": "yes", "length": 68.27203114826138}}, {"type": "Feature", "geometry": {"type": "LineString", "coordinates": [[-3.722293, 40.4080718], [-3.7228938, 40.4064249], [-3.7230569, 40.4056798], [-3.7231111, 40.4049293], [-3.7231139, 40.4048117]]}, "properties": {"highway": "motorway", "lanes": "5", "layer": "-1", "lit": "24/7", "maxheight": "4.5", "maxspeed": "70", "maxweight": "7.5", "name": "Calle 30", "oneway": "yes", "ref": "M-30", "ref:colour": "blue", "source:name": "local knowledge", "surface": "asphalt", "tunnel": "yes", "length": 370.2667900712321}}, {"type": "Feature", "geometry": {"type": "LineString", "coordinates": [[-3.7071167, 40.3954438], [-3.7050472, 40.3948344], [-3.7045678, 40.3946686], [-3.7041039, 40.3944482], [-3.7034198, 40.394013], [-3.703192, 40.3938681], [-3.7025117, 40.3933359], [-3.7015781, 40.3922975]]}, "properties": {"highway": "motorway", "lanes": "3", "layer": "-1", "lit": "24/7", "maxheight": "4.5", "maxspeed": "70", "maxweight": "7.5", "name": "Calle 30", "oneway": "yes", "ref": "M-30", "ref:colour": "blue", "surface": "asphalt", "tunnel": "yes", "length": 602.5936466750056}}, {"type": "Feature", "geometry": {"type": "LineString", "coordinates": [[-3.7234422, 40.4151945], [-3.7235851, 40.4150647], [-3.7237238, 40.4149004], [-3.7237968, 40.4147435], [-3.7238498, 40.4145603], [-3.7238746, 40.4142025], [-3.7239036, 40.4133807], [-3.7238296, 40.4131404], [-3.723587, 40.4127001]]}, "properties": {"highway": "motorway", "lanes": "5", "layer": "-1", "lit": "24/7", "maxheight": "4.5", "maxspeed": "70", "maxweight": "7.5", "name": "Calle 30", "oneway": "yes", "ref": "M-30", "ref:colour": "blue", "surface": "asphalt", "tunnel": "yes", "length": 291.4146356723505}}, {"type": "Feature", "geometry": {"type": "LineString", "coordinates": [[-3.7174145, 40.3995594], [-3.7170751, 40.3995721]]}, "properties": {"highway": "motorway", "lanes": "6", "layer": "-1", "lit": "24/7", "maxheight": "4.5", "maxspeed": "70", "maxweight": "7.5", "name": "Calle 30", "oneway": "yes", "ref": "M-30", "ref:colour": "blue", "source:name": "local knowledge", "surface": "asphalt", "tunnel": "yes", "length": 28.847530855770408}}, {"type": "Feature", "geometry": {"type": "LineString", "coordinates": [[-3.710906, 40.3967616], [-3.710003, 40.3963498], [-3.7089837, 40.3959749], [-3.7071167, 40.3954438]]}, "properties": {"highway": "motorway", "lanes": "4", "layer": "-1", "lit": "24/7", "maxheight": "4.5", "maxspeed": "70", "maxweight": "7.5", "name": "Calle 30", "oneway": "yes", "ref": "M-30", "surface": "asphalt", "tunnel": "yes", "length": 354.41591572338103}}, {"type": "Feature", "geometry": {"type": "LineString", "coordinates": [[-3.7231139, 40.4048117], [-3.7229983, 40.4033849], [-3.7228545, 40.4028168]]}, "properties": {"highway": "motorway", "lanes": "4", "layer": "-1", "lit": "24/7", "maxheight": "4.5", "maxspeed": "70", "maxweight": "7.5", "name": "Calle 30", "oneway": "yes", "ref": "M-30", "ref:colour": "blue", "source:name": "local knowledge", "surface": "asphalt", "tunnel": "yes", "length": 222.99233389139073}}, {"type": "Feature", "geometry": {"type": "LineString", "coordinates": [[-3.7228545, 40.4028168], [-3.7227784, 40.4024411], [-3.722616, 40.4017725], [-3.722435, 40.4013108], [-3.7222142, 40.4009204], [-3.7216084, 40.4004071], [-3.721211, 40.4001434], [-3.7206907, 40.3998909], [-3.719836, 40.3996318]]}, "properties": {"highway": "motorway", "lanes": "5", "layer": "-1", "lit": "24/7", "maxheight": "4.5", "maxspeed": "70", "maxweight": "7.5", "name": "Calle 30", "oneway": "yes", "ref": "M-30", "ref:colour": "blue", "source:name": "local knowledge", "surface": "asphalt", "tunnel": "yes", "length": 470.29313674701825}}, {"type": "Feature", "geometry": {"type": "LineString", "coordinates": [[-3.6396829, 40.3780218], [-3.6399661, 40.3787112]]}, "properties": {"highway": "tertiary", "lanes": "2", "layer": "-1", "maxheight": "5", "maxspeed": "50", "name": "Calle del Cocher\u00f3n de la Villa", "oneway": "yes", "sidewalk": "separate", "tunnel": "yes", "length": 80.24109828340471}}, {"type": "Feature", "geometry": {"type": "LineString", "coordinates": [[-3.7212364, 40.4086482], [-3.7212476, 40.4090336], [-3.7212942, 40.4096666], [-3.7213438, 40.4099816]]}, "properties": {"highway": "motorway_link", "lanes": "2", "layer": "-1", "lit": "24/7", "maxspeed": "50", "oneway": "yes", "source:name": "local knowledge", "tunnel": "yes", "length": 148.438306084126}}, {"type": "Feature", "geometry": {"type": "LineString", "coordinates": [[-3.7219649, 40.4166106], [-3.7214644, 40.4182555]]}, "properties": {"highway": "motorway_link", "lanes": "1", "layer": "-1", "lit": "24/7", "oneway": "yes", "surface": "asphalt", "tunnel": "yes", "length": 187.52843352886964}}, {"type": "Feature", "geometry": {"type": "LineString", "coordinates": [[-3.7215935, 40.4200827], [-3.7217967, 40.4203854], [-3.7221096, 40.4207079]]}, "properties": {"highway": "motorway_link", "lanes": "1", "layer": "-1", "lit": "24/7", "oneway": "yes", "surface": "asphalt", "tunnel": "yes", "length": 82.36111933777117}}, {"type": "Feature", "geometry": {"type": "LineString", "coordinates": [[-3.7232696, 40.4747006], [-3.7243176, 40.4741974]]}, "properties": {"highway": "motorway", "lanes": "5", "maxspeed": "90", "name": "Calle 30", "oneway": "yes", "ref": "M-30", "ref:colour": "blue", "surface": "asphalt", "tunnel": "yes", "length": 104.9771224271913}}, {"type": "Feature", "geometry": {"type": "LineString", "coordinates": [[-3.6889768, 40.474662], [-3.6874969, 40.4744002], [-3.6860174, 40.4742132], [-3.6856687, 40.4741848], [-3.6853599, 40.4741685], [-3.6851483, 40.4741795], [-3.6848913, 40.4742117], [-3.6846708, 40.4742609], [-3.6844262, 40.4743393], [-3.6840477, 40.4744464]]}, "properties": {"bicycle": "no", "foot": "no", "highway": "primary", "lanes": "3", "layer": "-2", "maxspeed": "50", "name": "T\u00fanel de P\u00edo XII", "oneway": "yes", "shoulder": "no", "surface": "asphalt", "tunnel": "yes", "length": 428.2481747882641}}, {"type": "Feature", "geometry": {"type": "LineString", "coordinates": [[-3.5654148, 40.3602417], [-3.5659268, 40.3598654]]}, "properties": {"highway": "motorway_link", "lanes": "2", "layer": "-1", "maxheight": "5.5", "maxspeed": "80", "oneway": "yes", "tunnel": "yes", "length": 60.311371288389786}}, {"type": "Feature", "geometry": {"type": "LineString", "coordinates": [[-3.6689966, 40.4588567], [-3.6685275, 40.4589951]]}, "properties": {"foot": "no", "hazmat": "no", "highway": "secondary", "lanes": "3", "layer": "-1", "maxspeed": "50", "name": "Calle de Costa Rica", "oneway": "yes", "surface": "asphalt", "tunnel": "yes", "length": 42.65368430988675}}, {"type": "Feature", "geometry": {"type": "LineString", "coordinates": [[-3.6685275, 40.4589951], [-3.6681276, 40.4591138], [-3.6676521, 40.459222]]}, "properties": {"foot": "no", "hazmat": "no", "highway": "secondary", "lanes": "2", "layer": "-1", "maxheight": "4 m", "maxspeed": "50", "name": "Calle de Costa Rica", "oneway": "yes", "surface": "asphalt", "tunnel": "yes", "length": 78.47334045766559}}, {"type": "Feature", "geometry": {"type": "LineString", "coordinates": [[-3.6840477, 40.4744464], [-3.68368, 40.4745439], [-3.6833917, 40.4745972], [-3.6831165, 40.4746157], [-3.6828625, 40.4745986], [-3.6826047, 40.4745686], [-3.6793037, 40.473919], [-3.6787944, 40.4737933], [-3.6783955, 40.4736747], [-3.6779178, 40.4735064]]}, "properties": {"bicycle": "no", "foot": "no", "highway": "primary", "lanes": "3", "layer": "-2", "lit": "yes", "maxspeed": "50", "name": "T\u00fanel de P\u00edo XII", "oneway": "yes", "shoulder": "no", "surface": "asphalt", "tunnel": "yes", "length": 540.6961371664943}}, {"type": "Feature", "geometry": {"type": "LineString", "coordinates": [[-3.7228827, 40.4170956], [-3.7241182, 40.4166804], [-3.7252626, 40.4162718], [-3.7261745, 40.415877]]}, "properties": {"highway": "motorway_link", "lanes": "2", "layer": "-3", "lit": "24/7", "maxspeed": "50", "oneway": "yes", "surface": "asphalt", "tunnel": "yes", "length": 310.7009320236779}}, {"type": "Feature", "geometry": {"type": "LineString", "coordinates": [[-3.7227231, 40.4172825], [-3.7227776, 40.4170905]]}, "properties": {"highway": "motorway_link", "lanes": "2", "layer": "-1", "lit": "24/7", "oneway": "yes", "surface": "asphalt", "tunnel": "yes", "length": 21.816185774921}}, {"type": "Feature", "geometry": {"type": "LineString", "coordinates": [[-3.7112462, 40.3986628], [-3.7111599, 40.3991143]]}, "properties": {"highway": "primary", "lanes": "1", "layer": "-3", "lit": "24/7", "maxheight": "4.5", "maxweight": "7.5", "name": "Calle 30", "oneway": "yes", "surface": "asphalt", "tunnel": "yes", "length": 50.66808813142847}}, {"type": "Feature", "geometry": {"type": "LineString", "coordinates": [[-3.7111599, 40.3991143], [-3.7111946, 40.3993499], [-3.7113638, 40.399671]]}, "properties": {"highway": "primary", "lanes": "2", "layer": "-1", "lit": "24/7", "maxheight": "4.5", "maxspeed": "50", "maxweight": "7.5", "name": "Calle 30", "oneway": "yes", "surface": "asphalt", "tunnel": "yes", "length": 64.76717942683524}}, {"type": "Feature", "geometry": {"type": "LineString", "coordinates": [[-3.712553, 40.3975229], [-3.712478, 40.3975257], [-3.7123081, 40.3975376], [-3.7121735, 40.3975746], [-3.7119456, 40.3977251], [-3.7115678, 40.3980881]]}, "properties": {"cycleway:right": "no", "highway": "primary", "lanes": "3", "layer": "-3", "lit": "24/7", "maxheight": "4.5", "maxweight": "7.5", "name": "Calle 30", "oneway": "yes", "surface": "asphalt", "tunnel": "yes", "length": 110.0805859307111}}, {"type": "Feature", "geometry": {"type": "LineString", "coordinates": [[-3.7115678, 40.3980881], [-3.7114491, 40.3982433], [-3.7113449, 40.398431], [-3.7112805, 40.398529], [-3.7112462, 40.3986628]]}, "properties": {"cycleway:right": "no", "highway": "primary", "lanes": "2", "layer": "-3", "lit": "24/7", "maxheight": "4.5", "maxweight": "7.5", "name": "Calle 30", "oneway": "yes", "surface": "asphalt", "tunnel": "yes", "length": 69.92442002781934}}, {"type": "Feature", "geometry": {"type": "LineString", "coordinates": [[-3.7140486, 40.3986697], [-3.7138169, 40.3983429], [-3.7136538, 40.398101], [-3.7134221, 40.3979114], [-3.7133248, 40.3978675], [-3.7132349, 40.3978271], [-3.7130951, 40.3977641], [-3.7130015, 40.3977219], [-3.7128765, 40.3976624], [-3.7128056, 40.3976286], [-3.712553, 40.3975229]]}, "properties": {"highway": "motorway_link", "layer": "-1", "lit": "24/7", "maxspeed": "30", "oneway": "yes", "surface": "asphalt", "tunnel": "yes", "length": 185.79702697126962}}, {"type": "Feature", "geometry": {"type": "LineString", "coordinates": [[-3.7113638, 40.399671], [-3.7116397, 40.3998633], [-3.7118661, 40.4000033], [-3.7121261, 40.4001608]]}, "properties": {"highway": "primary", "lanes": "3", "layer": "-1", "lit": "24/7", "maxheight": "4.5", "maxweight": "7.5", "name": "Calle 30", "oneway": "yes", "surface": "asphalt", "tunnel": "yes", "length": 84.57624009336655}}, {"type": "Feature", "geometry": {"type": "LineString", "coordinates": [[-3.7996165, 40.462669], [-3.7993042, 40.4625629], [-3.7989277, 40.4624957]]}, "properties": {"highway": "motorway_link", "lanes": "2", "maxspeed": "60", "oneway": "yes", "surface": "asphalt", "tunnel": "yes", "length": 61.782849391344584}}, {"type": "Feature", "geometry": {"type": "LineString", "coordinates": [[-3.7201468, 40.4200962], [-3.7198734, 40.4201598]]}, "properties": {"highway": "motorway_link", "lanes": "2", "layer": "-1", "lit": "24/7", "maxheight": "4", "oneway": "yes", "surface": "asphalt", "tunnel": "yes", "length": 24.253950804036325}}, {"type": "Feature", "geometry": {"type": "LineString", "coordinates": [[-3.6849579, 40.4380238], [-3.6846758, 40.4381548], [-3.6845402, 40.4382272], [-3.6843814, 40.4383131]]}, "properties": {"goods": "no", "hgv": "no", "highway": "primary_link", "layer": "-1", "maxheight": "3.5", "oneway": "yes", "surface": "asphalt", "tunnel": "yes", "length": 58.552505870416354}}, {"type": "Feature", "geometry": {"type": "LineString", "coordinates": [[-3.743435, 40.3638559], [-3.7432819, 40.3641167]]}, "properties": {"bicycle": "yes", "highway": "primary", "lanes": "2", "layer": "-1", "lit": "24/7", "maxheight": "4.5 m", "maxspeed": "40", "motor_vehicle": "designated", "name": "V\u00eda Lusitana", "oneway": "yes", "ref": "M-425", "source": "YWMS", "surface": "asphalt", "tunnel": "yes", "length": 31.745376288185295}}, {"type": "Feature", "geometry": {"type": "LineString", "coordinates": [[-3.7436774, 40.3635919], [-3.7438356, 40.363324]]}, "properties": {"bicycle": "yes", "highway": "primary", "lanes": "2", "layer": "-1", "lit": "24/7", "maxspeed": "40", "motor_vehicle": "designated", "name": "V\u00eda Lusitana", "oneway": "yes", "ref": "M-425", "source": "YWMS", "surface": "asphalt", "tunnel": "yes", "length": 32.64215939576549}}, {"type": "Feature", "geometry": {"type": "LineString", "coordinates": [[-3.7211817, 40.4184552], [-3.7212832, 40.4191833], [-3.7214457, 40.4196979], [-3.7215935, 40.4200827]]}, "properties": {"highway": "motorway_link", "lanes": "1", "layer": "-2", "lit": "24/7", "oneway": "yes", "surface": "asphalt", "tunnel": "yes", "length": 184.62339312917953}}, {"type": "Feature", "geometry": {"type": "LineString", "coordinates": [[-3.7210205, 40.4183876], [-3.7210942, 40.4181063], [-3.7213813, 40.4177833], [-3.7217965, 40.4174907], [-3.7228827, 40.4170956]]}, "properties": {"highway": "motorway_link", "lanes": "3", "layer": "-3", "lit": "24/7", "maxspeed": "70", "oneway": "yes", "surface": "asphalt", "tunnel": "yes", "length": 225.24372822547832}}, {"type": "Feature", "geometry": {"type": "LineString", "coordinates": [[-3.7353013, 40.4124538], [-3.7373548, 40.4117071], [-3.7378206, 40.4115034], [-3.7386459, 40.4111009], [-3.7393612, 40.4107214]]}, "properties": {"highway": "motorway", "lanes": "3", "layer": "-1", "lit": "24/7", "maxheight": "4.5", "maxspeed": "70", "name": "Autov\u00eda del Suroeste", "oneway": "yes", "ref": "A-5", "tunnel": "yes", "length": 395.56503967932906}}, {"type": "Feature", "geometry": {"type": "LineString", "coordinates": [[-3.8019511, 40.4487644], [-3.8016775, 40.4488991]]}, "properties": {"highway": "secondary", "name": "Avenida de Juan XXIII", "tunnel": "yes", "length": 27.612227338480942}}, {"type": "Feature", "geometry": {"type": "LineString", "coordinates": [[-3.6606257, 40.4309747], [-3.6606337, 40.4313757], [-3.6606096, 40.4317869]]}, "properties": {"highway": "motorway", "lanes": "3", "layer": "-1", "maxspeed": "90", "name": "Avenida de la Paz", "oneway": "yes", "ref": "M-30", "ref:colour": "blue", "surface": "asphalt", "tunnel": "yes", "length": 90.24001538053602}}, {"type": "Feature", "geometry": {"type": "LineString", "coordinates": [[-3.660768, 40.431763], [-3.6608064, 40.4313557], [-3.660792, 40.4309609]]}, "properties": {"highway": "motorway", "lanes": "4", "layer": "-1", "maxspeed": "90", "name": "Avenida de la Paz", "oneway": "yes", "ref": "M-30", "ref:colour": "blue", "source:name": "local knowledge", "surface": "asphalt", "tunnel": "yes", "length": 89.20178364227715}}, {"type": "Feature", "geometry": {"type": "LineString", "coordinates": [[-3.6605135, 40.4309945], [-3.6605256, 40.4313745], [-3.6604895, 40.4317844]]}, "properties": {"highway": "motorway", "lanes": "3", "layer": "-1", "maxspeed": "90", "name": "Calzada lateral M-30", "oneway": "yes", "ref": "M-30", "ref:colour": "blue", "surface": "asphalt", "tunnel": "yes", "length": 87.82826288522861}}, {"type": "Feature", "geometry": {"type": "LineString", "coordinates": [[-3.6609082, 40.4317493], [-3.6609258, 40.4313335], [-3.6609209, 40.4309664]]}, "properties": {"highway": "motorway", "lanes": "2", "layer": "-1", "maxspeed": "90", "name": "Calzada lateral M-30", "oneway": "yes", "ref": "M-30", "ref:colour": "blue", "surface": "asphalt", "tunnel": "yes", "length": 86.96177916539253}}, {"type": "Feature", "geometry": {"type": "LineString", "coordinates": [[-3.660346, 40.4192378], [-3.6604887, 40.419084], [-3.6605727, 40.4189313]]}, "properties": {"highway": "motorway_link", "lanes": "1", "layer": "-1", "maxspeed": "50", "oneway": "yes", "surface": "asphalt", "tunnel": "yes", "length": 39.33059144628555}}, {"type": "Feature", "geometry": {"type": "LineString", "coordinates": [[-3.6605422, 40.4192818], [-3.6605861, 40.4191073], [-3.6606415, 40.4189487]]}, "properties": {"highway": "motorway_link", "lanes": "1", "layer": "-1", "maxspeed": "70", "oneway": "yes", "surface": "asphalt", "tunnel": "yes", "length": 37.96008725017258}}, {"type": "Feature", "geometry": {"type": "LineString", "coordinates": [[-3.6589454, 40.4213154], [-3.6589911, 40.4216175]]}, "properties": {"highway": "motorway", "lanes": "4", "maxspeed": "90", "name": "Avenida de la Paz", "oneway": "yes", "ref": "M-30", "ref:colour": "blue", "surface": "asphalt", "tunnel": "yes", "length": 33.7694677253351}}, {"type": "Feature", "geometry": {"type": "LineString", "coordinates": [[-3.6591914, 40.4216177], [-3.6591425, 40.4213039]]}, "properties": {"highway": "motorway", "lanes": "4", "maxspeed": "90", "name": "Avenida de la Paz", "oneway": "yes", "ref": "M-30", "ref:colour": "blue", "source:name": "local knowledge", "surface": "asphalt", "tunnel": "yes", "length": 35.091467991830285}}, {"type": "Feature", "geometry": {"type": "LineString", "coordinates": [[-3.6587194, 40.4213192], [-3.6587699, 40.4216226]]}, "properties": {"highway": "motorway", "lanes": "3", "maxspeed": "90", "name": "Calzada lateral M-30", "oneway": "yes", "ref": "M-30", "ref:colour": "blue", "surface": "asphalt", "tunnel": "yes", "length": 33.96187042470395}}, {"type": "Feature", "geometry": {"type": "LineString", "coordinates": [[-3.6594021, 40.4216216], [-3.6593476, 40.4213005]]}, "properties": {"highway": "motorway", "lanes": "3", "maxspeed": "90", "name": "Calzada lateral M-30", "oneway": "yes", "ref": "M-30", "ref:colour": "blue", "surface": "asphalt", "tunnel": "yes", "length": 35.95456231043205}}, {"type": "Feature", "geometry": {"type": "LineString", "coordinates": [[-3.6595103, 40.4216155], [-3.6594936, 40.4213007]]}, "properties": {"highway": "motorway_link", "lanes": "1", "maxheight": "6.04", "maxspeed": "40", "oneway": "yes", "surface": "asphalt", "tunnel": "yes", "length": 34.984974581935134}}, {"type": "Feature", "geometry": {"type": "LineString", "coordinates": [[-3.664965, 40.4203992], [-3.6651251, 40.4200399]]}, "properties": {"highway": "tertiary", "lanes": "2", "layer": "-1", "maxspeed": "50", "name": "Calle del Alcalde S\u00e1inz de Baranda", "oneway": "yes", "postal_code": "28007", "tunnel": "yes", "length": 42.14782736641789}}, {"type": "Feature", "geometry": {"type": "LineString", "coordinates": [[-3.6650044, 40.4204085], [-3.6651528, 40.4200537]]}, "properties": {"highway": "tertiary_link", "layer": "-1", "maxspeed": "50", "oneway": "yes", "tunnel": "yes", "length": 41.362041795624634}}, {"type": "Feature", "geometry": {"type": "LineString", "coordinates": [[-3.6491858, 40.4279828], [-3.6490563, 40.4281472]]}, "properties": {"highway": "tertiary", "lanes": "2", "layer": "-1", "maxspeed": "50", "name": "Avenida del Marqu\u00e9s de Corbera", "oneway": "yes", "postal_code": "28017", "sidewalk": "right", "surface": "asphalt", "tunnel": "yes", "length": 21.30780651123673}}, {"type": "Feature", "geometry": {"type": "LineString", "coordinates": [[-3.6491691, 40.4281939], [-3.6492963, 40.4280318]]}, "properties": {"highway": "tertiary", "lanes": "2", "layer": "-1", "maxspeed": "50", "name": "Avenida del Marqu\u00e9s de Corbera", "oneway": "yes", "postal_code": "28017", "sidewalk": "right", "surface": "asphalt", "tunnel": "yes", "length": 20.98836248111242}}, {"type": "Feature", "geometry": {"type": "LineString", "coordinates": [[-3.7790215, 40.3619953], [-3.778131, 40.361701]]}, "properties": {"highway": "motorway", "int_ref": "E 90", "lanes": "4", "layer": "-1", "lit": "yes", "maxspeed": "100", "name": "M-40", "oneway": "yes", "ref": "M-40", "surface": "asphalt", "tunnel": "yes", "length": 82.39788045488405}}, {"type": "Feature", "geometry": {"type": "LineString", "coordinates": [[-3.7212859, 40.4631515], [-3.7209614, 40.4638787], [-3.720809, 40.4640808], [-3.7206867, 40.4642429], [-3.7202913, 40.4645284], [-3.719611, 40.4649019], [-3.7196004, 40.4649083], [-3.7189553, 40.4652952], [-3.7187172, 40.4655088]]}, "properties": {"bicycle": "no", "foot": "no", "highway": "primary", "lanes": "2", "layer": "-1", "maxheight": "4.25", "maxspeed": "40", "name": "Calle de Sinesio Delgado", "name:etymology:wikidata": "Q6129194", "oneway": "yes", "sidewalk": "no", "surface": "asphalt", "tunnel": "yes", "length": 351.0520857081202}}, {"type": "Feature", "geometry": {"type": "LineString", "coordinates": [[-3.6684012, 40.4276739], [-3.6691488, 40.4285608], [-3.6704127, 40.4300603]]}, "properties": {"foot": "no", "highway": "primary", "lanes": "2", "layer": "-1", "lit": "24/7", "maxheight": "4.2", "maxspeed": "40", "maxspeed:advisory": "30", "name": "Calle de Francisco Silvela", "name:etymology:wikidata": "Q1236383", "oneway": "yes", "sidewalk": "no", "tunnel": "yes", "length": 315.20840589169285}}, {"type": "Feature", "geometry": {"type": "LineString", "coordinates": [[-3.6685287, 40.42764], [-3.6685339, 40.4272232]]}, "properties": {"foot": "no", "highway": "primary", "lanes": "2", "layer": "-1", "lit": "24/7", "maxheight": "4.2", "maxspeed": "50", "name": "Calle del Doctor Esquerdo", "name:etymology:wikidata": "Q9014392", "oneway": "yes", "sidewalk": "no", "surface": "asphalt", "tunnel": "yes", "length": 46.2847665816637}}, {"type": "Feature", "geometry": {"type": "LineString", "coordinates": [[-3.672643, 40.3921654], [-3.6734035, 40.3922512]]}, "properties": {"cycleway": "lane", "highway": "tertiary", "lanes": "2", "layer": "-1", "name": "Calle de M\u00e9ndez \u00c1lvaro", "name:etymology:wikidata": "Q5553104", "tunnel": "yes", "length": 65.26807153251555}}, {"type": "Feature", "geometry": {"type": "LineString", "coordinates": [[-3.7015656, 40.3933163], [-3.7016922, 40.3934509], [-3.7019153, 40.3936883], [-3.7025161, 40.3942848], [-3.7025849, 40.3943296]]}, "properties": {"bicycle": "no", "foot": "no", "highway": "motorway", "lanes": "3", "layer": "-1", "lit": "24/7", "maxheight": "4.5", "maxspeed": "70", "maxweight": "7.5", "name": "Calle 30", "oneway": "yes", "ref": "M-30", "source:name": "local knowledge", "surface": "asphalt", "tunnel": "yes", "length": 142.14443392144923}}, {"type": "Feature", "geometry": {"type": "LineString", "coordinates": [[-3.6778418, 40.4735628], [-3.678314, 40.4737416], [-3.6788105, 40.4738955], [-3.6792638, 40.474004], [-3.6825607, 40.4746616], [-3.6829899, 40.4747167], [-3.6833981, 40.474739]]}, "properties": {"foot": "no", "highway": "primary", "lanes": "3", "layer": "-2", "lit": "yes", "maxspeed": "50", "name": "T\u00fanel de P\u00edo XII", "oneway": "yes", "shoulder": "no", "surface": "asphalt", "tunnel": "yes", "length": 490.9853794492725}}, {"type": "Feature", "geometry": {"type": "LineString", "coordinates": [[-3.7036319, 40.395012], [-3.703816, 40.3950868], [-3.7045975, 40.3954043], [-3.7055549, 40.3956974], [-3.705794, 40.3957706]]}, "properties": {"bicycle": "no", "foot": "no", "highway": "motorway", "lanes": "2", "layer": "-1", "maxheight": "4.5", "maxspeed": "70", "maxweight": "7.5", "name": "Calle 30", "oneway": "yes", "ref": "M-30", "source:name": "local knowledge", "surface": "asphalt", "tunnel": "yes", "length": 202.25668913393952}}, {"type": "Feature", "geometry": {"type": "LineString", "coordinates": [[-3.7031957, 40.3947661], [-3.7035522, 40.3950167]]}, "properties": {"highway": "motorway_link", "lanes": "1", "layer": "-1", "oneway": "yes", "tunnel": "yes", "length": 41.114870500026825}}, {"type": "Feature", "geometry": {"type": "LineString", "coordinates": [[-3.7022626, 40.3943729], [-3.7022561, 40.3946085], [-3.7022523, 40.3948198], [-3.702309, 40.3951858], [-3.7023726, 40.3953596]]}, "properties": {"bicycle": "no", "foot": "no", "highway": "motorway_link", "lanes": "1", "layer": "-1", "lit": "24/7", "maxspeed": "50", "oneway": "yes", "tunnel": "yes", "length": 110.59863470304543}}, {"type": "Feature", "geometry": {"type": "LineString", "coordinates": [[-3.7063024, 40.3949648], [-3.7060406, 40.3945189], [-3.7056201, 40.3943489], [-3.7048998, 40.3940228], [-3.7041181, 40.3937084], [-3.7032769, 40.3937018], [-3.7028293, 40.3938819], [-3.7025387, 40.394094], [-3.702448, 40.3945373], [-3.7024442, 40.3951399], [-3.702482, 40.3953564]]}, "properties": {"highway": "motorway_link", "lanes": "1", "layer": "-3", "lit": "24/7", "maxspeed": "50", "oneway": "yes", "tunnel": "yes", "length": 530.1852766634117}}, {"type": "Feature", "geometry": {"type": "LineString", "coordinates": [[-3.710692, 40.3981992], [-3.7108249, 40.3983936], [-3.7109344, 40.3985417], [-3.711166, 40.398764], [-3.7116961, 40.3990627], [-3.7130147, 40.3996589], [-3.7140552, 40.4000494], [-3.7150154, 40.400367]]}, "properties": {"highway": "motorway_link", "layer": "-2", "lit": "24/7", "oneway": "yes", "tunnel": "yes", "length": 447.98242878294525}}, {"type": "Feature", "geometry": {"type": "LineString", "coordinates": [[-3.7173445, 40.3991795], [-3.7171388, 40.399103], [-3.7168997, 40.3989953], [-3.7167458, 40.3989605], [-3.7165724, 40.3989472], [-3.7164254, 40.3989618], [-3.7158047, 40.3991201], [-3.715577, 40.399131], [-3.7151988, 40.3990749], [-3.7147421, 40.3989706], [-3.7143233, 40.39882], [-3.7140486, 40.3986697]]}, "properties": {"highway": "motorway_link", "layer": "-1", "lit": "24/7", "maxspeed": "50", "oneway": "yes", "tunnel": "yes", "length": 300.0378375669344}}, {"type": "Feature", "geometry": {"type": "LineString", "coordinates": [[-3.7174523, 40.3990846], [-3.7171589, 40.3989586]]}, "properties": {"highway": "motorway_link", "lanes": "1", "layer": "-1", "lit": "24/7", "oneway": "yes", "tunnel": "yes", "length": 28.568715392809956}}, {"type": "Feature", "geometry": {"type": "LineString", "coordinates": [[-3.7183747, 40.399407], [-3.7177582, 40.3992206], [-3.7174523, 40.3990846]]}, "properties": {"destination": "Glorieta de Marqu\u00e9s de Vadillo", "highway": "motorway_link", "lanes": "1", "layer": "-1", "lit": "24/7", "oneway": "yes", "tunnel": "yes", "length": 86.32266583464215}}, {"type": "Feature", "geometry": {"type": "LineString", "coordinates": [[-3.7158425, 40.3995913], [-3.7147718, 40.3993569], [-3.7143529, 40.399197], [-3.7140305, 40.3990264], [-3.7129672, 40.3981598], [-3.711714, 40.3973035], [-3.7109323, 40.3968859], [-3.7107153, 40.3967625], [-3.709975, 40.396405], [-3.7089429, 40.396023], [-3.7069499, 40.395474], [-3.7047703, 40.3948653], [-3.7028318, 40.3942803], [-3.7024529, 40.3941659], [-3.7004179, 40.3931932], [-3.695834, 40.3913963], [-3.6953196, 40.3911339], [-3.6938216, 40.3901285], [-3.6919814, 40.3894575], [-3.689447, 40.3890284], [-3.687689, 40.3889814], [-3.6860539, 40.3889377], [-3.6832642, 40.3891131], [-3.6814876, 40.3895818], [-3.6799633, 40.3901995], [-3.6767495, 40.3917513], [-3.6737312, 40.3935012], [-3.6723974, 40.3945339], [-3.6713237, 40.3959306], [-3.67056, 40.3967612], [-3.670149, 40.3972493], [-3.6685917, 40.3991409], [-3.6679751, 40.400071], [-3.6674683, 40.4010522], [-3.6673047, 40.4014552], [-3.6669718, 40.4023433]]}, "properties": {"bicycle": "no", "foot": "no", "highway": "motorway", "lanes": "3", "layer": "-2", "lit": "24/7", "maxheight": "4.5", "maxspeed": "70", "maxweight": "7.5", "name": "Bypass Sur", "oneway": "yes", "ref": "M-30", "ref:colour": "blue", "surface": "asphalt", "tunnel": "yes", "length": 5187.688868843522}}, {"type": "Feature", "geometry": {"type": "LineString", "coordinates": [[-3.7158771, 40.3994435], [-3.7150869, 40.399233], [-3.7146826, 40.3990984], [-3.7139852, 40.3987961], [-3.7128158, 40.3979627], [-3.7118073, 40.3972845], [-3.710906, 40.3967616]]}, "properties": {"highway": "motorway", "lanes": "3", "layer": "-1", "lit": "24/7", "maxheight": "4.5", "maxspeed": "70", "maxweight": "7.5", "name": "Calle 30", "oneway": "yes", "ref": "M-30", "surface": "asphalt", "tunnel": "yes", "length": 522.3352914039731}}, {"type": "Feature", "geometry": {"type": "LineString", "coordinates": [[-3.7111289, 40.3985684], [-3.7111599, 40.3991143]]}, "properties": {"highway": "motorway_link", "lanes": "1", "layer": "-1", "lit": "24/7", "maxspeed": "70", "oneway": "yes", "tunnel": "yes", "length": 60.67509726719786}}, {"type": "Feature", "geometry": {"type": "LineString", "coordinates": [[-3.7096798, 40.3972413], [-3.7101043, 40.3975187], [-3.7103028, 40.3976648]]}, "properties": {"highway": "motorway_link", "lanes": "1", "layer": "-2", "lit": "24/7", "oneway": "yes", "tunnel": "yes", "length": 70.80101837902986}}, {"type": "Feature", "geometry": {"type": "LineString", "coordinates": [[-3.6661433, 40.4033517], [-3.6658482, 40.4036721]]}, "properties": {"highway": "motorway_link", "lanes": "1", "layer": "-1", "lit": "yes", "maxheight": "4.5", "oneway": "yes", "tunnel": "yes", "length": 43.51245864306828}}, {"type": "Feature", "geometry": {"type": "LineString", "coordinates": [[-3.7920463, 40.4669654], [-3.7912559, 40.4674718]]}, "properties": {"highway": "motorway", "lanes": "4", "maxheight": "4.8", "maxspeed": "100", "name": "M-40", "oneway": "yes", "ref": "M-40", "ref:colour": "blue", "surface": "asphalt", "tunnel": "yes", "length": 87.49583908573936}}, {"type": "Feature", "geometry": {"type": "LineString", "coordinates": [[-3.6849579, 40.4380238], [-3.6847217, 40.4381836], [-3.6845746, 40.4382806], [-3.6844517, 40.4383815], [-3.6842641, 40.4385012], [-3.6837217, 40.4388045], [-3.6835368, 40.4388987], [-3.6832502, 40.4390211], [-3.6829079, 40.4391751], [-3.6827937, 40.4392299], [-3.6827104, 40.4392682], [-3.6805679, 40.4403727], [-3.6798041, 40.4407122], [-3.6783293, 40.4413505], [-3.6778704, 40.4414852], [-3.6772859, 40.4415002], [-3.6766467, 40.4414531], [-3.6761954, 40.4413444], [-3.675578, 40.4412029], [-3.6745147, 40.4408819], [-3.6719596, 40.4401663], [-3.6712772, 40.4400914], [-3.6698034, 40.4403216], [-3.6690705, 40.4405632], [-3.6680915, 40.4410771]]}, "properties": {"goods": "no", "hgv": "no", "highway": "motorway_link", "lanes": "2", "layer": "-1", "lit": "24/7", "maxheight": "3.5", "maxspeed": "50", "oneway": "yes", "tunnel": "yes", "length": 1597.630966423874}}, {"type": "Feature", "geometry": {"type": "LineString", "coordinates": [[-3.688559, 40.4751915], [-3.6887619, 40.4752305], [-3.6890669, 40.4753249], [-3.689201, 40.4753812], [-3.6893252, 40.4754489], [-3.6894593, 40.4755427], [-3.689572, 40.4756528], [-3.6896524, 40.4757654], [-3.6899945, 40.476367]]}, "properties": {"bicycle": "no", "destination": "c/ Sinesio Delgado;Avenida de Monforte de Lemos", "foot": "no", "highway": "tertiary", "lanes": "2", "layer": "-2", "name": "T\u00fanel de P\u00edo XII", "oneway": "yes", "postal_code": "28029", "surface": "asphalt", "tunnel": "yes", "length": 189.57704165188017}}, {"type": "Feature", "geometry": {"type": "LineString", "coordinates": [[-3.689165, 40.4660052], [-3.6888774, 40.4664964], [-3.6885782, 40.4668376], [-3.6875633, 40.4678525]]}, "properties": {"highway": "tertiary", "lanes": "2", "layer": "-1", "lit": "yes", "maxheight": "5", "name": "Calle de Agust\u00edn de Fox\u00e1", "name:etymology:wikidata": "Q2827365", "oneway": "yes", "postal_code": "28036", "shoulder": "no", "surface": "paving_stones", "tunnel": "yes", "length": 247.15785538470953}}, {"type": "Feature", "geometry": {"type": "LineString", "coordinates": [[-3.6870308, 40.4378233], [-3.6856552, 40.4377611]]}, "properties": {"admin_level": "9", "boundary": "administrative", "cycleway:right": "no", "foot": "no", "goods": "no", "hgv": "no", "highway": "primary", "lanes": "2", "layer": "-1", "lit": "yes", "loc_name": "T\u00fanel de Mar\u00eda de Molina", "maxheight": "3.5", "maxspeed": "50", "name": "Calle de Mar\u00eda de Molina", "name:etymology:wikidata": "Q266025", "oneway": "yes", "postal_code": "28006", "shoulder": "no", "sidewalk": "no", "surface": "asphalt", "tunnel": "yes", "turn:lanes": "left|through", "length": 116.91836416568414}}, {"type": "Feature", "geometry": {"type": "LineString", "coordinates": [[-3.6669718, 40.4023433], [-3.6666623, 40.4031608], [-3.6663132, 40.4039805]]}, "properties": {"bicycle": "no", "foot": "no", "highway": "motorway", "lanes": "2", "layer": "-2", "lit": "yes", "maxheight": "4.5", "maxspeed": "70", "maxweight": "7.5", "name": "Bypass Sur", "oneway": "yes", "ref": "M-30", "ref:colour": "blue", "surface": "asphalt", "tunnel": "yes", "url": "http://www.mc30.es/", "wikipedia": "es:M-30", "length": 190.22704102300474}}, {"type": "Feature", "geometry": {"type": "LineString", "coordinates": [[-3.6102587, 40.4545021], [-3.6099605, 40.4543532]]}, "properties": {"highway": "motorway", "lanes": "2", "layer": "-1", "maxheight": "4.50", "maxspeed": "80", "oneway": "yes", "ref": "M-12", "toll": "yes", "tunnel": "yes", "turn:lanes": "left|right", "length": 30.219433637053278}}, {"type": "Feature", "geometry": {"type": "LineString", "coordinates": [[-3.6779178, 40.4735064], [-3.675933, 40.4725572], [-3.674679, 40.4720413], [-3.6741748, 40.4717782], [-3.6739076, 40.4716229]]}, "properties": {"bicycle": "no", "foot": "no", "highway": "primary", "lanes": "2", "layer": "-2", "lit": "yes", "maxspeed": "50", "name": "T\u00fanel de P\u00edo XII", "oneway": "yes", "shoulder": "no", "surface": "asphalt", "tunnel": "yes", "length": 399.6463810185979}}, {"type": "Feature", "geometry": {"type": "LineString", "coordinates": [[-3.6901898, 40.4745498], [-3.6899865, 40.4745848], [-3.6897322, 40.4746145], [-3.6894823, 40.47462], [-3.6893629, 40.4746427], [-3.6891576, 40.4746663], [-3.6889768, 40.474662]]}, "properties": {"bicycle": "no", "foot": "no", "highway": "primary", "lanes": "1", "layer": "-2", "maxspeed": "50", "name": "T\u00fanel de P\u00edo XII", "oneway": "yes", "postal_code": "28029", "surface": "asphalt", "tunnel": "yes", "length": 104.06685391699082}}, {"type": "Feature", "geometry": {"type": "LineString", "coordinates": [[-3.6005639, 40.3988284], [-3.6004995, 40.3989234], [-3.6004662, 40.3989716], [-3.6003797, 40.3990548]]}, "properties": {"foot": "no", "highway": "secondary", "lanes": "1", "layer": "-1", "maxspeed": "30", "name": "Avenida de la Gran V\u00eda del Este", "oneway": "yes", "postal_code": "28032", "tunnel": "yes", "length": 29.736234985717356}}, {"type": "Feature", "geometry": {"type": "LineString", "coordinates": [[-3.6015573, 40.3987806], [-3.6014059, 40.3987273], [-3.6013047, 40.3986796], [-3.6012623, 40.3986506]]}, "properties": {"foot": "no", "highway": "secondary", "lanes": "1", "layer": "-1", "maxspeed": "30", "name": "Calle Aurora Boreal", "oneway": "yes", "postal_code": "28032", "tunnel": "yes", "length": 29.07302327910153}}, {"type": "Feature", "geometry": {"type": "LineString", "coordinates": [[-3.5995446, 40.3984648], [-3.6000583, 40.3985644]]}, "properties": {"foot": "no", "highway": "secondary", "lanes": "2", "layer": "-1", "maxspeed": "50", "name": "Calle de la Pirotecnia", "oneway": "yes", "postal_code": "28032", "source": "PNOA", "source:date": "2009", "tunnel": "yes", "length": 44.991299615160344}}, {"type": "Feature", "geometry": {"type": "LineString", "coordinates": [[-3.6013336, 40.3982647], [-3.6012556, 40.3983245], [-3.6011876, 40.398361], [-3.6011023, 40.3983974], [-3.6010492, 40.3984219]]}, "properties": {"foot": "no", "highway": "tertiary", "lanes": "1", "layer": "-1", "maxspeed": "30", "name": "Avenida de la Gran V\u00eda del Este", "oneway": "yes", "postal_code": "28032", "tunnel": "yes", "length": 29.989913628816424}}, {"type": "Feature", "geometry": {"type": "LineString", "coordinates": [[-3.6897018, 40.3859786], [-3.689282, 40.3856122], [-3.6883769, 40.3848073], [-3.6881858, 40.3845332], [-3.6880533, 40.3842462], [-3.6878441, 40.3837102]]}, "properties": {"highway": "motorway_link", "lanes": "2", "layer": "-1", "maxheight": "4.5", "maxspeed": "50", "name": "T\u00fanel de Embajadores", "oneway": "yes", "tunnel": "yes", "length": 302.3704343731364}}, {"type": "Feature", "geometry": {"type": "LineString", "coordinates": [[-3.6817, 40.3743937], [-3.6818914, 40.3743794], [-3.6820408, 40.3742672]]}, "properties": {"highway": "secondary", "junction": "roundabout", "lanes": "3", "layer": "-1", "name": "Calle de Embajadores", "surface": "asphalt", "tunnel": "yes", "length": 34.114358262435175}}, {"type": "Feature", "geometry": {"type": "LineString", "coordinates": [[-3.689773, 40.3863371], [-3.6898675, 40.3864977], [-3.6899113, 40.3866193], [-3.6898978, 40.3867331], [-3.6897429, 40.3869458], [-3.6893866, 40.3872455]]}, "properties": {"highway": "motorway_link", "lanes": "1", "layer": "-3", "maxheight": "4.5", "maxspeed": "50", "name": "T\u00fanel de Embajadores", "oneway": "yes", "tunnel": "yes", "length": 118.25857380567811}}, {"type": "Feature", "geometry": {"type": "LineString", "coordinates": [[-3.7246225, 40.3377695], [-3.7242002, 40.3377494]]}, "properties": {"destination:lanes": "Madrid|Madrid|Madrid", "destination:ref:lanes": "A-42|A-42|A-42", "highway": "tertiary", "lanes": "3", "oneway": "yes", "sidewalk": "right", "tunnel": "yes", "turn:lanes": "through|through|through", "length": 35.95286522686809}}, {"type": "Feature", "geometry": {"type": "LineString", "coordinates": [[-3.7415376, 40.361257], [-3.7408971, 40.3612858], [-3.7401203, 40.3614035]]}, "properties": {"highway": "motorway_link", "lanes": "1", "layer": "-1", "oneway": "yes", "ref": "R-5", "tunnel": "yes", "length": 121.7642472820446}}, {"type": "Feature", "geometry": {"type": "LineString", "coordinates": [[-3.7075056, 40.4142678], [-3.7075498, 40.4146448], [-3.707565, 40.414703], [-3.7076317, 40.4149259], [-3.7077097, 40.4151298], [-3.707722, 40.4152007], [-3.7077135, 40.4152356]]}, "properties": {"foot": "no", "highway": "tertiary", "lanes": "1", "layer": "-2", "lit": "24/7", "location": "underground", "maxheight": "2.8 m", "maxspeed": "20", "name": "Calle de Toledo", "name:etymology:wikidata": "Q5740883", "oneway": "yes", "postal_code": "28005", "shoulder": "no", "surface": "asphalt", "tunnel": "yes", "length": 109.48495963314164}}, {"type": "Feature", "geometry": {"type": "LineString", "coordinates": [[-3.7227776, 40.4170905], [-3.7230432, 40.4163219], [-3.7234422, 40.4151945]]}, "properties": {"highway": "motorway_link", "lanes": "2", "layer": "-1", "lit": "24/7", "oneway": "yes", "surface": "asphalt", "tunnel": "yes", "length": 217.96304997268686}}, {"type": "Feature", "geometry": {"type": "LineString", "coordinates": [[-3.5697028, 40.4694938], [-3.5692826, 40.4691162]]}, "properties": {"highway": "tertiary", "hov": "yes", "lane_markings": "no", "lit": "yes", "maxheight": "3.8", "maxspeed": "20", "noname": "yes", "noref": "yes", "oneway": "yes", "psv": "yes", "sidewalk": "left", "sidewalk:left:surface": "paving_stones", "smoothness": "excellent", "surface": "asphalt", "taxi": "yes", "tourist_bus": "no", "tunnel": "yes", "vehicle": "permissive", "length": 55.027550913638194}}, {"type": "Feature", "geometry": {"type": "LineString", "coordinates": [[-3.5697424, 40.4694696], [-3.5693177, 40.4690943]]}, "properties": {"foot": "no", "highway": "tertiary", "hov": "yes", "lanes": "1", "lit": "yes", "maxheight": "3.8", "maxspeed": "20", "noname": "yes", "noref": "yes", "oneway": "yes", "psv": "yes", "shoulder": "right", "sidewalk": "no", "smoothness": "excellent", "surface": "asphalt", "taxi": "yes", "tourist_bus": "yes", "tunnel": "yes", "vehicle": "permissive", "length": 55.08197844342475}}, {"type": "Feature", "geometry": {"type": "LineString", "coordinates": [[-3.6871653, 40.4755505], [-3.6871921, 40.4754215], [-3.6872344, 40.4751957], [-3.6872758, 40.4748051], [-3.687485, 40.4740141]]}, "properties": {"bicycle": "no", "destination": "Pza. de Castilla", "foot": "no", "highway": "primary_link", "lanes": "1", "layer": "-1", "oneway": "yes", "source:name": "common knowledge", "surface": "asphalt", "tunnel": "yes", "length": 172.9575054112551}}, {"type": "Feature", "geometry": {"type": "LineString", "coordinates": [[-3.7219308, 40.4024818], [-3.7220941, 40.403266], [-3.7222259, 40.4040072]]}, "properties": {"highway": "motorway", "lanes": "5", "layer": "-1", "lit": "24/7", "maxspeed": "70", "name": "Calle 30", "oneway": "yes", "ref": "M-30", "ref:colour": "blue", "source:name": "local knowledge", "surface": "asphalt", "tunnel": "yes", "length": 171.23755817342024}}, {"type": "Feature", "geometry": {"type": "LineString", "coordinates": [[-3.7472764, 40.4804699], [-3.7463745, 40.4811504]]}, "properties": {"highway": "motorway", "lanes": "3", "layer": "-1", "maxspeed": "80", "name": "T\u00fanel del Pardo", "oneway": "yes", "ref": "M-40", "ref:colour": "blue", "surface": "asphalt", "tunnel": "yes", "length": 107.50986193820297}}, {"type": "Feature", "geometry": {"type": "LineString", "coordinates": [[-3.747241, 40.4804462], [-3.7463824, 40.4810839], [-3.7463745, 40.4811504]]}, "properties": {"highway": "motorway_link", "lanes": "1", "layer": "-1", "maxspeed": "80", "name": "T\u00fanel del Pardo", "oneway": "yes", "surface": "asphalt", "tunnel": "yes", "length": 108.97567436736327}}, {"type": "Feature", "geometry": {"type": "LineString", "coordinates": [[-3.6833981, 40.474739], [-3.6837846, 40.4747453], [-3.6842636, 40.4747356], [-3.6843712, 40.4747334], [-3.6844984, 40.4747308], [-3.6846608, 40.4747336], [-3.6847973, 40.474736], [-3.6849333, 40.474745], [-3.6850813, 40.4747561], [-3.6851796, 40.474768], [-3.6852317, 40.4747783]]}, "properties": {"foot": "no", "highway": "primary", "lanes": "3", "layer": "-2", "lit": "yes", "maxspeed": "50", "name": "T\u00fanel de P\u00edo XII", "oneway": "yes", "surface": "asphalt", "tunnel": "yes", "turn:lanes": "through|through|right", "length": 155.87724328442957}}, {"type": "Feature", "geometry": {"type": "LineString", "coordinates": [[-3.7146328, 40.4233894], [-3.7147931, 40.4235445], [-3.7148583, 40.4236119], [-3.7154293, 40.4242027]]}, "properties": {"cycleway:lanes": "none|shared_lane|none", "highway": "secondary", "lanes": "3", "layer": "-1", "lit": "24/7", "maxspeed": "40", "maxspeed:lanes": "50|30|50", "name": "Calle de Ferraz", "name:etymology:wikidata": "Q977583", "oneway": "yes", "postal_code": "28008", "surface": "asphalt", "tunnel": "yes", "length": 112.81447854940487}}, {"type": "Feature", "geometry": {"type": "LineString", "coordinates": [[-3.6739076, 40.4716229], [-3.6735952, 40.4714721], [-3.6734334, 40.4713981]]}, "properties": {"bicycle": "no", "highway": "primary", "lanes": "2", "layer": "-2", "lit": "yes", "maxspeed": "50", "name": "T\u00fanel de P\u00edo XII", "oneway": "yes", "shoulder": "no", "surface": "asphalt", "tunnel": "yes", "length": 47.334755256457555}}, {"type": "Feature", "geometry": {"type": "LineString", "coordinates": [[-3.5937126, 40.4908216], [-3.5937134, 40.4920311]]}, "properties": {"covered": "yes", "highway": "tertiary", "level": "0", "noname": "yes", "noref": "yes", "oneway": "yes", "tunnel": "yes", "length": 134.30784512099757}}, {"type": "Feature", "geometry": {"type": "LineString", "coordinates": [[-3.7127694, 40.4210705], [-3.712763, 40.4211725], [-3.7127631, 40.4213639], [-3.7127705, 40.4215249], [-3.7127811, 40.4216581], [-3.7127907, 40.4217343]]}, "properties": {"highway": "secondary", "lanes": "2", "layer": "-1", "lit": "24/7", "maxspeed": "40", "name": "Calle de Bail\u00e9n", "name:etymology:wikidata": "Q1364346", "oneway": "yes", "postal_code": "28013", "surface": "asphalt", "tunnel": "yes", "length": 73.80067949251456}}, {"type": "Feature", "geometry": {"type": "LineString", "coordinates": [[-3.7714562, 40.3937423], [-3.7717544, 40.3939846]]}, "properties": {"cutting": "yes", "foot": "no", "highway": "primary", "lanes": "3", "layer": "-1", "maxspeed": "50", "name": "Avenida de los Poblados", "name:etymology:wikidata": "Q26795575", "oneway": "yes", "postal_code": "28024", "tunnel": "yes", "turn:lanes": "left|through|through", "length": 36.94435404132018}}, {"type": "Feature", "geometry": {"type": "LineString", "coordinates": [[-3.79199, 40.4475229], [-3.791987, 40.4472918]]}, "properties": {"highway": "tertiary", "layer": "-1", "name": "Avenida Carlos III", "name:etymology:wikidata": "Q36234", "tunnel": "yes", "length": 25.663355329076836}}, {"type": "Feature", "geometry": {"type": "LineString", "coordinates": [[-3.5937138, 40.4921733], [-3.5937142, 40.4925735]]}, "properties": {"covered": "yes", "highway": "tertiary", "level": "0", "noname": "yes", "noref": "yes", "oneway": "yes", "tunnel": "yes", "length": 44.43986543883222}}, {"type": "Feature", "geometry": {"type": "LineString", "coordinates": [[-3.7213627, 40.4010889], [-3.7216757, 40.4015515], [-3.7218243, 40.4019469], [-3.7219308, 40.4024818]]}, "properties": {"highway": "motorway", "lanes": "5", "layer": "-1", "lit": "24/7", "maxspeed": "50", "name": "Calle 30", "oneway": "yes", "ref": "M-30", "ref:colour": "blue", "source:name": "local knowledge", "surface": "asphalt", "tunnel": "yes", "length": 163.5966477184769}}, {"type": "Feature", "geometry": {"type": "LineString", "coordinates": [[-3.7850396, 40.4486739], [-3.785034, 40.4484832]]}, "properties": {"highway": "tertiary", "lanes": "4", "layer": "-1", "name": "Calle de la Golondrina", "tunnel": "yes", "length": 21.181278766491392}}, {"type": "Feature", "geometry": {"type": "LineString", "coordinates": [[-3.712899, 40.4199308], [-3.7128532, 40.4204171], [-3.7127694, 40.4210705]]}, "properties": {"highway": "secondary", "lanes": "2", "layer": "-1", "lit": "24/7", "maxspeed": "40", "name": "Calle de Bail\u00e9n", "name:etymology:wikidata": "Q1364346", "oneway": "yes", "surface": "asphalt", "tunnel": "yes", "length": 127.04282650122614}}, {"type": "Feature", "geometry": {"type": "LineString", "coordinates": [[-3.7128912, 40.4220357], [-3.7128878, 40.4220614], [-3.7128945, 40.4221032], [-3.7128033, 40.4221849], [-3.7126912, 40.422304]]}, "properties": {"access": "no", "bus": "yes", "highway": "secondary_link", "lanes": "1", "layer": "-1", "oneway": "yes", "psv": "taxi", "tunnel": "yes", "length": 35.761191374173784}}, {"type": "Feature", "geometry": {"type": "LineString", "coordinates": [[-3.7200868, 40.4004326], [-3.7205796, 40.4006288], [-3.7209891, 40.4008694], [-3.7213627, 40.4010889]]}, "properties": {"highway": "motorway_link", "lanes": "2", "layer": "-1", "lit": "24/7", "maxspeed": "50", "oneway": "yes", "surface": "asphalt", "tunnel": "yes", "length": 131.01169693992915}}, {"type": "Feature", "geometry": {"type": "LineString", "coordinates": [[-3.7161257, 40.400343], [-3.7168643, 40.400305], [-3.7171378, 40.4002384]]}, "properties": {"highway": "motorway_link", "lanes": "1", "layer": "-3", "lit": "24/7", "maxheight": "4.5", "maxweight": "7.5", "oneway": "yes", "tunnel": "yes", "length": 87.21147831783708}}, {"type": "Feature", "geometry": {"type": "LineString", "coordinates": [[-3.6799743, 40.4834296], [-3.6798274, 40.483458], [-3.6794849, 40.4835561], [-3.6793104, 40.4835852], [-3.6791178, 40.4836164]]}, "properties": {"highway": "motorway_link", "layer": "-1", "oneway": "yes", "tunnel": "yes", "length": 75.70253990243522}}, {"type": "Feature", "geometry": {"type": "LineString", "coordinates": [[-3.7213755, 40.4187289], [-3.7212951, 40.4190103], [-3.7211998, 40.4192093], [-3.7211821, 40.4194346]]}, "properties": {"highway": "motorway_link", "lanes": "1", "layer": "-3", "lit": "24/7", "oneway": "yes", "surface": "asphalt", "tunnel": "yes", "length": 80.57792086895195}}, {"type": "Feature", "geometry": {"type": "LineString", "coordinates": [[-3.7229152, 40.419268], [-3.7228767, 40.4191531], [-3.7228203, 40.4190526], [-3.7228087, 40.4189365], [-3.7227582, 40.4186687]]}, "properties": {"highway": "motorway_link", "lanes": "1", "layer": "-3", "lit": "24/7", "oneway": "yes", "surface": "asphalt", "tunnel": "yes", "length": 68.28766666597056}}, {"type": "Feature", "geometry": {"type": "LineString", "coordinates": [[-3.68782, 40.4832854], [-3.6893954, 40.4840308], [-3.6903184, 40.4844019]]}, "properties": {"destination": "M-30", "highway": "motorway_link", "lanes": "1", "layer": "-1", "maxheight": "default", "maxspeed": "50", "oneway": "yes", "tunnel": "yes", "length": 245.58761098691252}}, {"type": "Feature", "geometry": {"type": "LineString", "coordinates": [[-3.7201812, 40.400663], [-3.7203427, 40.4006766], [-3.7205041, 40.4007077], [-3.7209891, 40.4008694]]}, "properties": {"highway": "motorway_link", "lanes": "1", "layer": "-1", "lit": "24/7", "name": "Calle San Epifanio", "oneway": "yes", "surface": "asphalt", "tunnel": "yes", "length": 72.84104080499428}}, {"type": "Feature", "geometry": {"type": "LineString", "coordinates": [[-3.6789366, 40.4838818], [-3.6803487, 40.4837203]]}, "properties": {"highway": "motorway_link", "lanes": "2", "layer": "-1", "maxspeed": "50", "oneway": "yes", "tunnel": "yes", "length": 121.06498329290007}}]}