{"type": "FeatureCollection", "features": [{"type": "Feature", "geometry": {"type": "LineString", "coordinates": [[37.6849344, 55.7590512], [37.6851601, 55.7587664], [37.6853612, 55.7585691], [37.6860561, 55.7580905], [37.6864961, 55.757825], [37.6869953, 55.7575839], [37.6910751, 55.755862], [37.6916898, 55.7555613], [37.6922569, 55.7552324], [37.6927725, 55.7548776], [37.6932325, 55.7544996], [37.6936341, 55.7541008], [37.6945089, 55.7530709], [37.6948938, 55.7526177], [37.6951969, 55.7522902], [37.6964085, 55.7510844]]}, "properties": {"bicycle": "no", "foot": "no", "highway": "primary", "lanes": "4", "layer": "-1", "lit": "24/7", "maxspeed": "RU:urban", "motorroad": "yes", "name": "\u0422\u0440\u0435\u0442\u044c\u0435 \u0442\u0440\u0430\u043d\u0441\u043f\u043e\u0440\u0442\u043d\u043e\u0435 \u043a\u043e\u043b\u044c\u0446\u043e", "name:de": "Dritter Verkehrsring", "name:en": "Third Ring Road", "name:uk": "\u0422\u0440\u0435\u0442\u0454 \u0422\u0440\u0430\u043d\u0441\u043f\u043e\u0440\u0442\u043d\u0435 \u043a\u0456\u043b\u044c\u0446\u0435", "oneway": "yes", "short_name": "\u0422\u0422\u041a", "surface": "asphalt", "tunnel": "yes", "tunnel:name": "\u041b\u0435\u0444\u043e\u0440\u0442\u043e\u0432\u0441\u043a\u0438\u0439 \u0442\u043e\u043d\u043d\u0435\u043b\u044c", "length": 1164.4793812422993}}, {"type": "Feature", "geometry": {"type": "LineString", "coordinates": [[37.6544924, 55.7426729], [37.6543323, 55.742385], [37.6541311, 55.7420966], [37.6537965, 55.7417226], [37.6534202, 55.7413489], [37.6530356, 55.7410296], [37.6523428, 55.7405064], [37.6519638, 55.7402334]]}, "properties": {"foot": "no", "highway": "primary", "lanes": "3", "layer": "-1", "lit": "24/7", "maxheight": "4.0", "maxspeed": "RU:urban", "oneway": "yes", "sidewalk": "no", "surface": "asphalt", "tunnel": "yes", "length": 316.89302994865005}}, {"type": "Feature", "geometry": {"type": "LineString", "coordinates": [[37.510396, 55.7356457], [37.5107569, 55.7354813], [37.5110425, 55.7353959], [37.5113585, 55.7353162], [37.51185, 55.7352267]]}, "properties": {"highway": "primary", "lanes": "3", "layer": "-1", "lit": "yes", "maxspeed": "RU:urban", "name": "\u0422\u0443\u043d\u043d\u0435\u043b\u044c \u041c\u0430\u0440\u0448\u0430\u043b\u0430 \u0413\u0440\u0435\u0447\u043a\u043e", "name:uk": "\u0422\u0443\u043d\u0435\u043b\u044c \u041c\u0430\u0440\u0448\u0430\u043b\u0430 \u0413\u0440\u0435\u0447\u043a\u0430", "oneway": "yes", "sidewalk": "none", "surface": "asphalt", "tunnel": "yes", "length": 103.62961760225866}}, {"type": "Feature", "geometry": {"type": "LineString", "coordinates": [[37.5902431, 55.7923553], [37.589899, 55.7923532], [37.5897423, 55.7923449], [37.589576, 55.7923221], [37.5894437, 55.7922935], [37.5893026, 55.7922487], [37.5891959, 55.7922076], [37.5890989, 55.7921523], [37.5890255, 55.7920861], [37.5889647, 55.7920094], [37.5888437, 55.7918341], [37.5887358, 55.7916424]]}, "properties": {"foot": "no", "highway": "tertiary_link", "lanes": "2", "layer": "-1", "maxspeed": "RU:urban", "oneway": "yes", "surface": "asphalt", "tunnel": "yes", "length": 139.3817896385861}}, {"type": "Feature", "geometry": {"type": "LineString", "coordinates": [[37.5889173, 55.7915404], [37.5890113, 55.7916161], [37.5891143, 55.7916941], [37.5892417, 55.7917759], [37.5893702, 55.791842], [37.5895272, 55.7919115], [37.5896872, 55.7919605], [37.589864, 55.7919973], [37.5900718, 55.7920116], [37.5902384, 55.7920135]]}, "properties": {"foot": "no", "highway": "tertiary_link", "lanes": "3", "layer": "-1", "location": "underground", "maxspeed": "RU:urban", "oneway": "yes", "surface": "asphalt", "tunnel": "yes", "length": 103.49656529780327}}, {"type": "Feature", "geometry": {"type": "LineString", "coordinates": [[37.6372763, 55.8052944], [37.6368601, 55.8051029], [37.6366879, 55.8050179], [37.6365436, 55.8049299], [37.6364196, 55.8048363], [37.6363016, 55.8047265], [37.636206, 55.8046087], [37.6361299, 55.8044751], [37.6360799, 55.8043452], [37.6360457, 55.8042053]]}, "properties": {"highway": "tertiary", "lanes": "2", "layer": "-1", "name": "\u041d\u043e\u0432\u043e\u0430\u043b\u0435\u043a\u0441\u0435\u0435\u0432\u0441\u043a\u0430\u044f \u0443\u043b\u0438\u0446\u0430", "name:uk": "\u041d\u043e\u0432\u043e\u043e\u043b\u0435\u043a\u0441\u0456\u0457\u0432\u0441\u044c\u043a\u0430 \u0432\u0443\u043b\u0438\u0446\u044f", "oneway": "yes", "surface": "asphalt", "tunnel": "yes", "length": 149.2521682818542}}, {"type": "Feature", "geometry": {"type": "LineString", "coordinates": [[37.5797746, 55.7119254], [37.5812984, 55.7107019], [37.5841605, 55.7087227], [37.5857835, 55.7078158], [37.5863037, 55.7075415], [37.5871346, 55.7071857], [37.5885664, 55.7066724]]}, "properties": {"bicycle": "no", "foot": "no", "highway": "primary", "lanes": "4", "layer": "-1", "lit": "24/7", "maxheight": "4.5", "maxspeed": "80", "motorroad": "yes", "name": "\u0422\u0440\u0435\u0442\u044c\u0435 \u0442\u0440\u0430\u043d\u0441\u043f\u043e\u0440\u0442\u043d\u043e\u0435 \u043a\u043e\u043b\u044c\u0446\u043e", "name:de": "Dritter Verkehrsring", "name:en": "Third Ring Road", "oneway": "yes", "short_name": "\u0422\u0422\u041a", "sidewalk": "no", "surface": "asphalt", "tunnel": "yes", "length": 811.4574657130578}}, {"type": "Feature", "geometry": {"type": "LineString", "coordinates": [[37.6260611, 55.7299495], [37.6256109, 55.7299016], [37.6253876, 55.7298806], [37.6251479, 55.7298681], [37.6249111, 55.7298592], [37.6246612, 55.7298537], [37.6231505, 55.7298239]]}, "properties": {"foot": "no", "highway": "primary", "lanes": "3", "layer": "-2", "lit": "24/7", "maxheight": "4.1", "maxspeed": "RU:urban", "oneway": "yes", "smoothness": "good", "surface": "asphalt", "tunnel": "yes", "length": 183.72397355015622}}, {"type": "Feature", "geometry": {"type": "LineString", "coordinates": [[37.6231585, 55.7297021], [37.6246745, 55.7297361], [37.6249304, 55.7297455], [37.6251613, 55.7297566], [37.6254148, 55.7297738], [37.6256445, 55.7297954], [37.6260967, 55.7298435]]}, "properties": {"foot": "no", "highway": "primary", "lanes": "3", "layer": "-2", "lit": "24/7", "maxheight": "4.1", "maxspeed": "RU:urban", "oneway": "yes", "smoothness": "good", "surface": "asphalt", "tunnel": "yes", "length": 185.57544673460677}}, {"type": "Feature", "geometry": {"type": "LineString", "coordinates": [[37.5833317, 55.75296], [37.5831742, 55.7520053]]}, "properties": {"foot": "no", "highway": "primary", "lanes": "3", "layer": "-1", "lit": "24/7", "maxheight": "4.2", "maxspeed": "RU:urban", "name": "\u0427\u0430\u0439\u043a\u043e\u0432\u0441\u043a\u0438\u0439 \u0442\u043e\u043d\u043d\u0435\u043b\u044c", "name:uk": "\u0427\u0430\u0439\u043a\u0456\u0432\u0441\u044c\u043a\u0438\u0439 \u0442\u0443\u043d\u0435\u043b\u044c", "oneway": "yes", "shoulder": "no", "smoothness": "good", "surface": "asphalt", "tunnel": "yes", "length": 106.75281300621525}}, {"type": "Feature", "geometry": {"type": "LineString", "coordinates": [[37.5513674, 55.7460449], [37.5518677, 55.7462141], [37.5523383, 55.7463645]]}, "properties": {"bicycle": "no", "foot": "no", "highway": "primary", "lanes": "3", "layer": "-1", "lit": "24/7", "maxspeed": "80", "name": "\u041a\u0443\u0442\u0443\u0437\u043e\u0432\u0441\u043a\u0438\u0439 \u043f\u0440\u043e\u0441\u043f\u0435\u043a\u0442", "name:uk": "\u041a\u0443\u0442\u0443\u0437\u043e\u0432\u0441\u044c\u043a\u0438\u0439 \u043f\u0440\u043e\u0441\u043f\u0435\u043a\u0442", "omkum:old_name": "\u041a\u0443\u0442\u0443\u0437\u043e\u0432\u0441\u043a\u0438\u0439 \u043f\u0440\u043e\u0441\u043f\u0435\u043a\u0442 (1957 \u0433. ) +\u043f\u0440\u043e\u0441\u043f\u0435\u043a\u0442 \u041c\u0430\u0440\u0448\u0430\u043b\u0430 \u0413\u0440\u0435\u0447\u043a\u043e (1976 \u0433.) \u0443\u043b\u0438\u0446\u0430 \u041a\u0443\u0442\u0443\u0437\u043e\u0432\u0441\u043a\u0430\u044f \u0421\u043b\u043e\u0431\u043e\u0434\u0430 (\u0434\u043e 1917 \u0433.) + \u041d\u043e\u0432\u043e\u0434\u043e\u0440\u043e\u0433\u043e\u043c\u0438\u043b\u043e\u0432\u0441\u043a\u0430\u044f \u0443\u043b\u0438\u0446\u0430 (1956 \u0433.) /+ \u041c\u043e\u0436\u0430\u0439\u0441\u043a\u043e\u0435 \u0448\u043e\u0441\u0441\u0435 (\u0434\u043e 1917 \u0433.)", "oneway": "yes", "surface": "asphalt", "tunnel": "yes", "length": 70.60240598650387}}, {"type": "Feature", "geometry": {"type": "LineString", "coordinates": [[37.5954785, 55.7690214], [37.5957215, 55.7691548], [37.5959732, 55.7692847], [37.5978011, 55.7701825]]}, "properties": {"foot": "no", "highway": "primary", "lanes": "3", "layer": "-1", "lit": "24/7", "maxheight": "4.0", "maxspeed": "RU:urban", "name": "\u0421\u0430\u0434\u043e\u0432\u0430\u044f-\u0422\u0440\u0438\u0443\u043c\u0444\u0430\u043b\u044c\u043d\u0430\u044f \u0443\u043b\u0438\u0446\u0430", "name:uk": "\u0421\u0430\u0434\u043e\u0432\u0430-\u0422\u0440\u0456\u0443\u043c\u0444\u0430\u043b\u044c\u043d\u0430 \u0432\u0443\u043b\u0438\u0446\u044f", "oneway": "yes", "surface": "asphalt", "tunnel": "yes", "length": 194.86996909060417}}, {"type": "Feature", "geometry": {"type": "LineString", "coordinates": [[37.5976618, 55.7702764], [37.5958329, 55.7693718], [37.595581, 55.7692387], [37.5953381, 55.7691024]]}, "properties": {"foot": "no", "highway": "primary", "lanes": "3", "layer": "-1", "lit": "24/7", "maxheight": "4.0", "maxspeed": "RU:urban", "name": "\u0421\u0430\u0434\u043e\u0432\u0430\u044f-\u0422\u0440\u0438\u0443\u043c\u0444\u0430\u043b\u044c\u043d\u0430\u044f \u0443\u043b\u0438\u0446\u0430", "name:en": "Sadovaya-Triumfalnaya Street", "name:uk": "\u0421\u0430\u0434\u043e\u0432\u0430-\u0422\u0440\u0456\u0443\u043c\u0444\u0430\u043b\u044c\u043d\u0430 \u0432\u0443\u043b\u0438\u0446\u044f", "oneway": "yes", "shoulder": "no", "surface": "asphalt", "tunnel": "yes", "length": 195.88870133412203}}, {"type": "Feature", "geometry": {"type": "LineString", "coordinates": [[37.5375534, 55.7379957], [37.5372881, 55.7382922], [37.537163, 55.7384562], [37.5369797, 55.7386644], [37.5349782, 55.741496]]}, "properties": {"bicycle": "no", "destination": "\u0418\u043d\u043d\u043e\u0432\u0430\u0446\u0438\u043e\u043d\u043d\u044b\u0439 \u0426\u0435\u043d\u0442\u0440 \u0421\u043a\u043e\u043b\u043a\u043e\u0432\u043e;\u041a\u0443\u0442\u0443\u0437\u043e\u0432\u0441\u043a\u0438\u0439 \u043f-\u0442;\u0420\u0443\u0431\u043b\u0435\u0432\u0441\u043a\u043e\u0435 \u0448.;\u041c\u041a\u0410\u0414", "highway": "primary_link", "lanes": "1", "layer": "-2", "lit": "24/7", "oneway": "yes", "surface": "asphalt", "tunnel": "yes", "length": 422.1433483838767}}, {"type": "Feature", "geometry": {"type": "LineString", "coordinates": [[37.5341489, 55.7422921], [37.5341759, 55.7420308]]}, "properties": {"bicycle": "no", "hgv": "destination", "highway": "primary_link", "lanes": "1", "layer": "-2", "lit": "24/7", "oneway": "yes", "surface": "asphalt", "tunnel": "yes", "length": 29.141775501066455}}, {"type": "Feature", "geometry": {"type": "LineString", "coordinates": [[37.6965021, 55.7513251], [37.6962821, 55.7515536]]}, "properties": {"bicycle": "no", "foot": "no", "highway": "primary", "lanes": "3", "layer": "-1", "lit": "24/7", "maxheight": "4.2", "maxspeed": "60", "motorroad": "yes", "name": "\u0422\u0440\u0435\u0442\u044c\u0435 \u0442\u0440\u0430\u043d\u0441\u043f\u043e\u0440\u0442\u043d\u043e\u0435 \u043a\u043e\u043b\u044c\u0446\u043e", "name:de": "Dritter Verkehrsring", "name:en": "Third Ring Road", "name:uk": "\u0422\u0440\u0435\u0442\u0454 \u0422\u0440\u0430\u043d\u0441\u043f\u043e\u0440\u0442\u043d\u0435 \u043a\u0456\u043b\u044c\u0446\u0435", "oneway": "yes", "short_name": "\u0422\u0422\u041a", "smoothness": "good", "surface": "asphalt", "tunnel": "yes", "tunnel:name": "\u041b\u0435\u0444\u043e\u0440\u0442\u043e\u0432\u0441\u043a\u0438\u0439 \u0442\u043e\u043d\u043d\u0435\u043b\u044c", "length": 28.949262334784027}}, {"type": "Feature", "geometry": {"type": "LineString", "coordinates": [[37.6169961, 55.7931757], [37.6166867, 55.7931812], [37.6163741, 55.7931852], [37.6160477, 55.7931886], [37.6157234, 55.79319], [37.6153846, 55.7931891], [37.6150427, 55.7931857], [37.6146961, 55.7931808], [37.6143248, 55.7931711], [37.6137212, 55.7931502], [37.6133178, 55.7931361], [37.6129701, 55.7931245]]}, "properties": {"bicycle": "no", "foot": "no", "highway": "primary", "lanes": "4", "layer": "-1", "lit": "24/7", "maxspeed": "RU:urban", "motorroad": "yes", "name": "\u0443\u043b\u0438\u0446\u0430 \u0421\u0443\u0449\u0451\u0432\u0441\u043a\u0438\u0439 \u0412\u0430\u043b", "omkum:old_name": "\u0443\u043b\u0438\u0446\u0430 \u0421\u0443\u0449\u0451\u0432\u0441\u043a\u0438\u0439 \u041a\u0430\u043c\u0435\u0440-\u041a\u043e\u043b\u043b\u0435\u0436\u0441\u043a\u0438\u0439 \u0412\u0430\u043b (\u0434\u043e 1917 \u0433.)", "oneway": "yes", "surface": "asphalt", "tunnel": "yes", "wikidata": "Q4474151", "wikipedia": "ru:\u0421\u0443\u0449\u0451\u0432\u0441\u043a\u0438\u0439 \u0412\u0430\u043b", "length": 252.74570600162838}}, {"type": "Feature", "geometry": {"type": "LineString", "coordinates": [[37.6129846, 55.792988], [37.6133328, 55.7929999], [37.6137362, 55.793014], [37.6143379, 55.7930349], [37.6147047, 55.7930444], [37.6150479, 55.7930493], [37.6153873, 55.7930526], [37.6157231, 55.7930536], [37.6160445, 55.7930522], [37.6163691, 55.7930488], [37.6166801, 55.7930448], [37.6169845, 55.7930394]]}, "properties": {"bicycle": "no", "foot": "no", "highway": "primary", "lanes": "4", "layer": "-1", "lit": "24/7", "maxspeed": "RU:urban", "motorroad": "yes", "name": "\u0443\u043b\u0438\u0446\u0430 \u0421\u0443\u0449\u0451\u0432\u0441\u043a\u0438\u0439 \u0412\u0430\u043b", "omkum:old_name": "\u0443\u043b\u0438\u0446\u0430 \u0421\u0443\u0449\u0451\u0432\u0441\u043a\u0438\u0439 \u041a\u0430\u043c\u0435\u0440-\u041a\u043e\u043b\u043b\u0435\u0436\u0441\u043a\u0438\u0439 \u0412\u0430\u043b (\u0434\u043e 1917 \u0433.)", "oneway": "yes", "surface": "asphalt", "tunnel": "yes", "wikidata": "Q4474151", "wikipedia": "ru:\u0421\u0443\u0449\u0451\u0432\u0441\u043a\u0438\u0439 \u0412\u0430\u043b", "length": 251.11069661356427}}, {"type": "Feature", "geometry": {"type": "LineString", "coordinates": [[37.6617482, 55.7869004], [37.6602844, 55.788059]]}, "properties": {"bicycle": "no", "foot": "no", "highway": "primary", "lanes": "4", "layer": "-1", "lit": "24/7", "maxspeed": "80", "motorroad": "yes", "name": "\u0422\u0440\u0435\u0442\u044c\u0435 \u0442\u0440\u0430\u043d\u0441\u043f\u043e\u0440\u0442\u043d\u043e\u0435 \u043a\u043e\u043b\u044c\u0446\u043e", "name:de": "Dritter Verkehrsring", "name:en": "Third Ring Road", "oneway": "yes", "sidewalk": "no", "surface": "asphalt", "tunnel": "yes", "wikidata": "Q21026872", "wikipedia": "ru:\u041c\u0438\u0442\u044c\u043a\u043e\u0432\u0441\u043a\u0438\u0439 \u0442\u043e\u043d\u043d\u0435\u043b\u044c", "length": 158.34442428662777}}, {"type": "Feature", "geometry": {"type": "LineString", "coordinates": [[37.6600357, 55.7879562], [37.6615006, 55.7867978]]}, "properties": {"bicycle": "no", "foot": "no", "highway": "primary", "lanes": "4", "layer": "-1", "lit": "24/7", "maxspeed": "80", "motorroad": "yes", "name": "\u0422\u0440\u0435\u0442\u044c\u0435 \u0442\u0440\u0430\u043d\u0441\u043f\u043e\u0440\u0442\u043d\u043e\u0435 \u043a\u043e\u043b\u044c\u0446\u043e", "name:de": "Dritter Verkehrsring", "name:en": "Third Ring Road", "oneway": "yes", "sidewalk": "no", "surface": "asphalt", "tunnel": "yes", "wikidata": "Q21026872", "wikipedia": "ru:\u041c\u0438\u0442\u044c\u043a\u043e\u0432\u0441\u043a\u0438\u0439 \u0442\u043e\u043d\u043d\u0435\u043b\u044c", "length": 158.36645845059937}}, {"type": "Feature", "geometry": {"type": "LineString", "coordinates": [[37.5349782, 55.741496], [37.534832, 55.7418514], [37.5345889, 55.7427461], [37.5344361, 55.7435016]]}, "properties": {"bicycle": "no", "foot": "no", "highway": "primary_link", "lanes": "1", "layer": "-2", "lit": "24/7", "oneway": "yes", "sidewalk": "none", "surface": "asphalt", "tunnel": "yes", "length": 226.05830646007354}}, {"type": "Feature", "geometry": {"type": "LineString", "coordinates": [[37.5372578, 55.7376112], [37.5373957, 55.7375791], [37.5375159, 55.737561], [37.5376988, 55.7375555], [37.5378814, 55.7375665], [37.538016, 55.7376029], [37.5381042, 55.7376425], [37.5381534, 55.7376952], [37.5381507, 55.7377764], [37.5380871, 55.7379179], [37.5379841, 55.7380704], [37.5350229, 55.741469], [37.5346023, 55.7419697]]}, "properties": {"bicycle": "no", "foot": "no", "highway": "primary_link", "lanes": "1", "layer": "-1", "lit": "24/7", "oneway": "yes", "surface": "asphalt", "tunnel": "yes", "length": 590.1000466559069}}, {"type": "Feature", "geometry": {"type": "LineString", "coordinates": [[37.6966739, 55.7513755], [37.6957841, 55.7523041], [37.6955724, 55.7525407], [37.6953717, 55.7527978], [37.694622, 55.7539042]]}, "properties": {"highway": "tertiary_link", "lanes": "2", "layer": "-1", "lit": "24/7", "maxheight": "4.2", "oneway": "yes", "surface": "asphalt", "tunnel": "yes", "length": 310.1731199617922}}, {"type": "Feature", "geometry": {"type": "LineString", "coordinates": [[37.6006749, 55.7532064], [37.6006738, 55.7526787]]}, "properties": {"foot": "no", "highway": "secondary", "lanes": "3", "layer": "-1", "lit": "yes", "maxheight": "3.8", "maxspeed": "50", "maxspeed:type": "RU:zone50", "name": "\u0413\u043e\u0433\u043e\u043b\u0435\u0432\u0441\u043a\u0438\u0439 \u0431\u0443\u043b\u044c\u0432\u0430\u0440", "name:ru": "\u0413\u043e\u0433\u043e\u043b\u0435\u0432\u0441\u043a\u0438\u0439 \u0431\u0443\u043b\u044c\u0432\u0430\u0440", "name:uk": "\u0413\u043e\u0433\u043e\u043b\u0456\u0432\u0441\u044c\u043a\u0438\u0439 \u0431\u0443\u043b\u044c\u0432\u0430\u0440", "omkum:old_name": "\u041f\u0440\u0435\u0447\u0438\u0441\u0442\u0435\u043d\u0441\u043a\u0438\u0439 \u0431\u0443\u043b\u044c\u0432\u0430\u0440 (\u0434\u043e 1917 \u0433.)", "oneway": "yes", "postal_code": "119019", "shoulder": "no", "sidewalk": "none", "surface": "asphalt", "trolley_wire": "no", "tunnel": "yes", "length": 58.7527497719187}}, {"type": "Feature", "geometry": {"type": "LineString", "coordinates": [[37.6008316, 55.7526788], [37.6008273, 55.7532073]]}, "properties": {"foot": "no", "highway": "secondary", "lanes": "3", "layer": "-1", "lit": "yes", "maxheight": "3.8", "maxspeed": "50", "maxspeed:type": "RU:zone50", "name": "\u0413\u043e\u0433\u043e\u043b\u0435\u0432\u0441\u043a\u0438\u0439 \u0431\u0443\u043b\u044c\u0432\u0430\u0440", "name:ru": "\u0413\u043e\u0433\u043e\u043b\u0435\u0432\u0441\u043a\u0438\u0439 \u0431\u0443\u043b\u044c\u0432\u0430\u0440", "name:uk": "\u0413\u043e\u0433\u043e\u043b\u0456\u0432\u0441\u044c\u043a\u0438\u0439 \u0431\u0443\u043b\u044c\u0432\u0430\u0440", "omkum:old_name": "\u041f\u0440\u0435\u0447\u0438\u0441\u0442\u0435\u043d\u0441\u043a\u0438\u0439 \u0431\u0443\u043b\u044c\u0432\u0430\u0440 (\u0434\u043e 1917 \u0433.)", "oneway": "yes", "postal_code": "119019", "shoulder": "no", "sidewalk": "none", "surface": "asphalt", "trolley_wire": "no", "tunnel": "yes", "length": 58.84239848490715}}, {"type": "Feature", "geometry": {"type": "LineString", "coordinates": [[37.6836558, 55.7590716], [37.6838342, 55.7590237], [37.6840112, 55.7589996], [37.6842526, 55.7589936], [37.6844511, 55.7589754], [37.6846281, 55.7589513], [37.6848266, 55.7589], [37.6849025, 55.7588694], [37.6849822, 55.7588215], [37.6851509, 55.7586881], [37.6853612, 55.7585691]]}, "properties": {"highway": "secondary_link", "layer": "-1", "maxspeed": "RU:urban", "oneway": "yes", "surface": "asphalt", "tunnel": "yes", "length": 126.88884640493146}}, {"type": "Feature", "geometry": {"type": "LineString", "coordinates": [[37.5662136, 55.7859934], [37.5650213, 55.7851408]]}, "properties": {"bicycle": "no", "foot": "no", "highway": "primary", "lanes": "5", "lanes:psv": "1", "layer": "-1", "lit": "24/7", "maxheight": "default", "maxspeed": "RU:urban", "motorroad": "yes", "name": "\u0422\u0440\u0435\u0442\u044c\u0435 \u0442\u0440\u0430\u043d\u0441\u043f\u043e\u0440\u0442\u043d\u043e\u0435 \u043a\u043e\u043b\u044c\u0446\u043e", "name:de": "Dritter Verkehrsring", "name:en": "Third Ring Road", "name:uk": "\u0422\u0440\u0435\u0442\u0454 \u0422\u0440\u0430\u043d\u0441\u043f\u043e\u0440\u0442\u043d\u0435 \u043a\u0456\u043b\u044c\u0446\u0435", "oneway": "yes", "psv:lanes": "||||designated", "short_name": "\u0422\u0422\u041a", "shoulder": "no", "smoothness": "good", "surface": "asphalt", "tunnel": "yes", "length": 120.85719101922663}}, {"type": "Feature", "geometry": {"type": "LineString", "coordinates": [[37.5652769, 55.7850263], [37.5664677, 55.7858792]]}, "properties": {"bicycle": "no", "foot": "no", "highway": "primary", "lanes": "5", "layer": "-1", "lit": "24/7", "maxheight": "default", "maxspeed": "RU:urban", "motorroad": "yes", "name": "\u0422\u0440\u0435\u0442\u044c\u0435 \u0442\u0440\u0430\u043d\u0441\u043f\u043e\u0440\u0442\u043d\u043e\u0435 \u043a\u043e\u043b\u044c\u0446\u043e", "name:de": "Dritter Verkehrsring", "name:en": "Third Ring Road", "name:uk": "\u0422\u0440\u0435\u0442\u0454 \u0422\u0440\u0430\u043d\u0441\u043f\u043e\u0440\u0442\u043d\u0435 \u043a\u0456\u043b\u044c\u0446\u0435", "oneway": "yes", "short_name": "\u0422\u0422\u041a", "shoulder": "no", "smoothness": "good", "surface": "asphalt", "tunnel": "yes", "length": 120.8253513445612}}, {"type": "Feature", "geometry": {"type": "LineString", "coordinates": [[37.6521073, 55.7401661], [37.6524907, 55.7404399], [37.6531912, 55.7409666], [37.653583, 55.7412919], [37.6539673, 55.7416734], [37.6543087, 55.742056], [37.6545064, 55.7423529], [37.6546638, 55.742644]]}, "properties": {"foot": "no", "highway": "primary", "lanes": "3", "layer": "-1", "lit": "24/7", "maxheight": "4.0", "maxspeed": "RU:urban", "oneway": "yes", "sidewalk": "no", "surface": "asphalt", "tunnel": "yes", "length": 321.6877278831765}}, {"type": "Feature", "geometry": {"type": "LineString", "coordinates": [[37.5888391, 55.706829], [37.5885194, 55.7069234]]}, "properties": {"bicycle": "no", "foot": "no", "highway": "primary", "lanes": "5", "layer": "-1", "lit": "24/7", "maxspeed": "80", "motorroad": "yes", "name": "\u0422\u0440\u0435\u0442\u044c\u0435 \u0442\u0440\u0430\u043d\u0441\u043f\u043e\u0440\u0442\u043d\u043e\u0435 \u043a\u043e\u043b\u044c\u0446\u043e", "name:de": "Dritter Verkehrsring", "name:en": "Third Ring Road", "oneway": "yes", "short_name": "\u0422\u0422\u041a", "sidewalk": "no", "surface": "asphalt", "tunnel": "yes", "turn:lanes": "through|through|through|through|through;right", "length": 22.679952694833354}}, {"type": "Feature", "geometry": {"type": "LineString", "coordinates": [[37.5851283, 55.7079729], [37.5853926, 55.7078487], [37.585744, 55.7077142], [37.5863037, 55.7075415]]}, "properties": {"foot": "no", "highway": "primary_link", "lanes": "1", "layer": "-1", "lit": "24/7", "maxspeed": "RU:urban", "oneway": "yes", "surface": "asphalt", "tunnel": "yes", "length": 88.39892060220112}}, {"type": "Feature", "geometry": {"type": "LineString", "coordinates": [[37.5844085, 55.7090504], [37.5827253, 55.7101316], [37.5823493, 55.7102901]]}, "properties": {"foot": "no", "highway": "primary_link", "lanes": "1", "layer": "-1", "lit": "24/7", "maxheight": "4.3", "maxspeed": "50", "oneway": "yes", "surface": "asphalt", "tunnel": "yes", "length": 189.76299510900066}}, {"type": "Feature", "geometry": {"type": "LineString", "coordinates": [[37.5797746, 55.7119254], [37.5800067, 55.7116108], [37.5811054, 55.7106076], [37.5814776, 55.7103257]]}, "properties": {"destination": "\u041b\u0435\u043d\u0438\u043d\u0441\u043a\u0438\u0439 \u043f\u0440-\u0442;\u041f\u0440\u043e\u0444\u0441\u043e\u044e\u0437\u043d\u0430\u044f \u0443\u043b.;\u0412\u043d\u0443\u043a\u043e\u0432\u043e", "destination:ref": "\u041c-3;\u0410-101", "destination:symbol": "airport", "foot": "no", "highway": "primary_link", "lanes": "2", "layer": "-1", "lit": "24/7", "maxheight": "4.5", "oneway": "yes", "smoothness": "intermediate", "surface": "asphalt", "tunnel": "yes", "length": 208.40895130373133}}, {"type": "Feature", "geometry": {"type": "LineString", "coordinates": [[37.5885194, 55.7069234], [37.5864046, 55.7081484]]}, "properties": {"destination": "\u041b\u0435\u043d\u0438\u043d\u0441\u043a\u0438\u0439 \u043f\u0440-\u0442;\u0426\u0435\u043d\u0442\u0440", "foot": "no", "highway": "primary_link", "lanes": "1", "layer": "-1", "lit": "24/7", "oneway": "yes", "surface": "asphalt", "tunnel": "yes", "length": 190.46074478049545}}, {"type": "Feature", "geometry": {"type": "LineString", "coordinates": [[37.5813151, 55.7114181], [37.5800347, 55.712056]]}, "properties": {"foot": "no", "highway": "primary_link", "lanes": "1", "layer": "-1", "lit": "24/7", "maxheight": "default", "oneway": "yes", "surface": "asphalt", "tunnel": "yes", "length": 107.33735956093952}}, {"type": "Feature", "geometry": {"type": "LineString", "coordinates": [[37.5821128, 55.7108729], [37.5813151, 55.7114181]]}, "properties": {"foot": "no", "highway": "primary_link", "lanes": "1", "layer": "-1", "lit": "24/7", "maxheight": "default", "oneway": "yes", "surface": "asphalt", "tunnel": "yes", "length": 78.73197285633347}}, {"type": "Feature", "geometry": {"type": "LineString", "coordinates": [[37.587857, 55.7071555], [37.5872611, 55.7073732], [37.5863471, 55.7077776], [37.5858625, 55.7080333], [37.5844151, 55.7088618], [37.5823493, 55.7102901], [37.5815577, 55.7108374], [37.5800347, 55.712056], [37.5791894, 55.7127322]]}, "properties": {"bicycle": "no", "foot": "no", "highway": "primary", "lanes": "4", "layer": "-1", "lit": "24/7", "maxspeed": "80", "motorroad": "yes", "name": "\u0422\u0440\u0435\u0442\u044c\u0435 \u0442\u0440\u0430\u043d\u0441\u043f\u043e\u0440\u0442\u043d\u043e\u0435 \u043a\u043e\u043b\u044c\u0446\u043e", "name:de": "Dritter Verkehrsring", "name:en": "Third Ring Road", "oneway": "yes", "short_name": "\u0422\u0422\u041a", "sidewalk": "no", "surface": "asphalt", "tunnel": "yes", "length": 831.044732041628}}, {"type": "Feature", "geometry": {"type": "LineString", "coordinates": [[37.5885194, 55.7069234], [37.587857, 55.7071555]]}, "properties": {"bicycle": "no", "foot": "no", "highway": "primary", "lanes": "5", "layer": "-1", "lit": "24/7", "maxspeed": "80", "motorroad": "yes", "name": "\u0422\u0440\u0435\u0442\u044c\u0435 \u0442\u0440\u0430\u043d\u0441\u043f\u043e\u0440\u0442\u043d\u043e\u0435 \u043a\u043e\u043b\u044c\u0446\u043e", "name:de": "Dritter Verkehrsring", "name:en": "Third Ring Road", "oneway": "yes", "short_name": "\u0422\u0422\u041a", "sidewalk": "no", "surface": "asphalt", "tunnel": "yes", "turn:lanes": "through|through|through|through|right", "length": 49.00760665449217}}, {"type": "Feature", "geometry": {"type": "LineString", "coordinates": [[37.6980035, 55.7368353], [37.6988446, 55.7358688]]}, "properties": {"destination": "3-\u0435 \u041a\u043e\u043b\u044c\u0446\u043e - \u043d\u0430\u043b\u0435\u0432\u043e;\u0412\u043e\u043b\u0433\u043e\u0433\u0440\u0430\u0434\u0441\u043a\u0438\u0439 \u043f\u0440\u043e\u0441\u043f\u0435\u043a\u0442", "destination:ref": "\u041c-5", "foot": "no", "highway": "primary_link", "lanes": "2", "layer": "-1", "lit": "yes", "maxspeed": "RU:urban", "oneway": "yes", "surface": "asphalt", "tunnel": "yes", "length": 119.87861212011782}}, {"type": "Feature", "geometry": {"type": "LineString", "coordinates": [[37.5515091, 55.7919093], [37.546295, 55.7941948]]}, "properties": {"bicycle": "no", "foot": "no", "highway": "primary", "horse": "no", "lanes": "3", "layer": "-2", "lit": "yes", "maxspeed": "80", "maxspeed:practical": "100", "name": "\u041b\u0435\u043d\u0438\u043d\u0433\u0440\u0430\u0434\u0441\u043a\u0438\u0439 \u043f\u0440\u043e\u0441\u043f\u0435\u043a\u0442", "omkum:old_name": "/\u041b\u0435\u043d\u0438\u043d\u0433\u0440\u0430\u0434\u0441\u043a\u043e\u0435 \u0448\u043e\u0441\u0441\u0435 (1924 \u0433.) \u041f\u0435\u0442\u0440\u043e\u0433\u0440\u0430\u0434\u0441\u043a\u043e\u0435 \u0448\u043e\u0441\u0441\u0435 (\u0434\u043e 1917 \u0433.)", "oneway": "yes", "surface": "asphalt", "tunnel": "yes", "length": 414.3895360259056}}, {"type": "Feature", "geometry": {"type": "LineString", "coordinates": [[37.7104891, 55.7226851], [37.7112863, 55.7229496]]}, "properties": {"bicycle": "no", "foot": "no", "highway": "primary", "lanes": "3", "layer": "-1", "lit": "yes", "maxspeed": "60", "motorroad": "yes", "name": "\u0422\u0440\u0435\u0442\u044c\u0435 \u0442\u0440\u0430\u043d\u0441\u043f\u043e\u0440\u0442\u043d\u043e\u0435 \u043a\u043e\u043b\u044c\u0446\u043e", "name:de": "Dritter Verkehrsring", "name:en": "Third Ring Road", "oneway": "yes", "short_name": "\u0422\u0422\u041a", "surface": "asphalt", "tunnel": "yes", "length": 58.109551292410096}}, {"type": "Feature", "geometry": {"type": "LineString", "coordinates": [[37.693297, 55.7541155], [37.6936725, 55.753723], [37.6945089, 55.7530709]]}, "properties": {"highway": "tertiary_link", "layer": "-1", "name": "\u0422\u0440\u0435\u0442\u044c\u0435 \u0422\u0440\u0430\u043d\u0441\u043f\u043e\u0440\u0442\u043d\u043e\u0435 \u043a\u043e\u043b\u044c\u0446\u043e", "name:uk": "\u0422\u0440\u0435\u0442\u0454 \u0422\u0440\u0430\u043d\u0441\u043f\u043e\u0440\u0442\u043d\u0435 \u043a\u0456\u043b\u044c\u0446\u0435", "oneway": "yes", "surface": "asphalt", "tunnel": "yes", "length": 139.26054707841945}}, {"type": "Feature", "geometry": {"type": "LineString", "coordinates": [[37.684091, 55.7744757], [37.6843395, 55.7742881], [37.6860165, 55.7729948], [37.6865708, 55.7726237], [37.6870974, 55.7722979], [37.6875328, 55.7720204], [37.6879143, 55.7717198], [37.6882395, 55.7713982], [37.6885035, 55.7710597], [37.6887058, 55.7707074], [37.6888412, 55.770346], [37.6889104, 55.7699777], [37.6889116, 55.7696081], [37.6888451, 55.7692402], [37.6887121, 55.768878], [37.6878516, 55.767142]]}, "properties": {"bicycle": "no", "foot": "no", "highway": "primary", "lanes": "4", "layer": "-1", "lit": "24/7", "maxspeed": "RU:urban", "motorroad": "yes", "name": "\u0422\u0440\u0435\u0442\u044c\u0435 \u0442\u0440\u0430\u043d\u0441\u043f\u043e\u0440\u0442\u043d\u043e\u0435 \u043a\u043e\u043b\u044c\u0446\u043e", "name:de": "Dritter Verkehrsring", "name:en": "Third Ring Road", "name:uk": "\u0422\u0440\u0435\u0442\u0454 \u0422\u0440\u0430\u043d\u0441\u043f\u043e\u0440\u0442\u043d\u0435 \u043a\u0456\u043b\u044c\u0446\u0435", "oneway": "yes", "short_name": "\u0422\u0422\u041a", "surface": "asphalt", "tunnel": "yes", "length": 920.0638741427794}}, {"type": "Feature", "geometry": {"type": "LineString", "coordinates": [[37.5341489, 55.7422921], [37.534698, 55.7412285], [37.5352335, 55.740253], [37.5356473, 55.7396268], [37.5360325, 55.7391465], [37.5369487, 55.7382658]]}, "properties": {"bicycle": "no", "foot": "no", "highway": "primary", "lanes": "3", "layer": "-2", "lit": "24/7", "maxspeed": "80", "motorroad": "yes", "name:de": "Dritter Verkehrsring", "oneway": "yes", "surface": "asphalt", "tunnel": "yes", "length": 483.83220906247016}}, {"type": "Feature", "geometry": {"type": "LineString", "coordinates": [[37.5346023, 55.7419697], [37.5343257, 55.7425094], [37.5340881, 55.7430252]]}, "properties": {"bicycle": "no", "foot": "no", "highway": "primary", "lanes": "4", "layer": "-2", "lit": "24/7", "maxspeed": "80", "motorroad": "yes", "name": "\u0422\u0440\u0435\u0442\u044c\u0435 \u0442\u0440\u0430\u043d\u0441\u043f\u043e\u0440\u0442\u043d\u043e\u0435 \u043a\u043e\u043b\u044c\u0446\u043e", "name:en": "Third Ring Road", "oneway": "yes", "short_name": "\u0422\u0422\u041a", "surface": "asphalt", "tunnel": "yes", "length": 121.88449731519563}}, {"type": "Feature", "geometry": {"type": "LineString", "coordinates": [[37.5375534, 55.7379957], [37.5371854, 55.7382885], [37.5369143, 55.7385751], [37.5357888, 55.7399555], [37.5354794, 55.7404481], [37.5349699, 55.7412637], [37.5346923, 55.7417756], [37.5346023, 55.7419697]]}, "properties": {"bicycle": "no", "foot": "no", "highway": "primary", "lanes": "3", "layer": "-2", "lit": "24/7", "maxspeed": "80", "motorroad": "yes", "name": "\u0422\u0440\u0435\u0442\u044c\u0435 \u0442\u0440\u0430\u043d\u0441\u043f\u043e\u0440\u0442\u043d\u043e\u0435 \u043a\u043e\u043b\u044c\u0446\u043e", "name:en": "Third Ring Road", "oneway": "yes", "short_name": "\u0422\u0422\u041a", "surface": "asphalt", "tunnel": "yes", "length": 481.7061889425616}}, {"type": "Feature", "geometry": {"type": "LineString", "coordinates": [[37.587857, 55.7071555], [37.5859362, 55.7082527], [37.5832041, 55.7099607]]}, "properties": {"destination": "\u041b\u0435\u043d\u0438\u043d\u0441\u043a\u0438\u0439 \u043f\u0440-\u0442;\u041c\u041a\u0410\u0414;\u0412\u043d\u0443\u043a\u043e\u0432\u043e", "destination:ref": "\u041c-3", "destination:symbol": "airport", "foot": "no", "highway": "primary_link", "lanes": "1", "layer": "-1", "lit": "24/7", "oneway": "yes", "surface": "asphalt", "tunnel": "yes", "length": 427.99918513575483}}, {"type": "Feature", "geometry": {"type": "LineString", "coordinates": [[37.5833619, 55.7519947], [37.5835043, 55.7529527]]}, "properties": {"foot": "no", "highway": "primary", "lanes": "3", "layer": "-1", "lit": "24/7", "maxheight": "4.2", "maxspeed": "RU:urban", "name": "\u0427\u0430\u0439\u043a\u043e\u0432\u0441\u043a\u0438\u0439 \u0442\u043e\u043d\u043d\u0435\u043b\u044c", "name:uk": "\u0427\u0430\u0439\u043a\u0456\u0432\u0441\u044c\u043a\u0438\u0439 \u0442\u0443\u043d\u0435\u043b\u044c", "oneway": "yes", "shoulder": "no", "surface": "asphalt", "tunnel": "yes", "length": 107.03527936861556}}, {"type": "Feature", "geometry": {"type": "LineString", "coordinates": [[37.6114519, 55.7299989], [37.6117975, 55.7299302], [37.6121614, 55.7298635], [37.6125297, 55.7298041], [37.612904, 55.7297509], [37.6132869, 55.7297098], [37.6136765, 55.7296745], [37.614098, 55.729643], [37.6145223, 55.7296174]]}, "properties": {"foot": "no", "highway": "primary", "lanes": "3", "layer": "-1", "lit": "24/7", "maxheight": "4.1", "maxspeed": "RU:urban", "name": "\u041e\u043a\u0442\u044f\u0431\u0440\u044c\u0441\u043a\u0438\u0439 \u0442\u043e\u043d\u043d\u0435\u043b\u044c", "oneway": "yes", "shoulder": "no", "sidewalk": "no", "surface": "asphalt", "tunnel": "yes", "length": 198.178024235441}}, {"type": "Feature", "geometry": {"type": "LineString", "coordinates": [[37.6145387, 55.729725], [37.6141182, 55.7297504], [37.6137049, 55.7297813], [37.6133193, 55.7298162], [37.6129427, 55.7298566], [37.6125787, 55.7299085], [37.6122188, 55.7299665], [37.611858, 55.7300326], [37.61152, 55.7301005]]}, "properties": {"foot": "no", "highway": "primary", "lanes": "3", "layer": "-1", "lit": "24/7", "maxheight": "4.1", "maxspeed": "RU:urban", "name": "\u041e\u043a\u0442\u044f\u0431\u0440\u044c\u0441\u043a\u0438\u0439 \u0442\u043e\u043d\u043d\u0435\u043b\u044c", "oneway": "yes", "shoulder": "no", "sidewalk": "no", "surface": "asphalt", "tunnel": "yes", "length": 194.86083737253097}}, {"type": "Feature", "geometry": {"type": "LineString", "coordinates": [[37.5516259, 55.7919933], [37.5464202, 55.7942825]]}, "properties": {"bicycle": "no", "foot": "no", "highway": "secondary", "horse": "no", "lanes": "3", "layer": "-2", "lit": "yes", "maxspeed": "RU:urban", "name": "\u041b\u0435\u043d\u0438\u043d\u0433\u0440\u0430\u0434\u0441\u043a\u0438\u0439 \u043f\u0440\u043e\u0441\u043f\u0435\u043a\u0442", "name:ru": "\u041b\u0435\u043d\u0438\u043d\u0433\u0440\u0430\u0434\u0441\u043a\u0438\u0439 \u043f\u0440\u043e\u0441\u043f\u0435\u043a\u0442", "name:uk": "\u041b\u0435\u043d\u0456\u043d\u0433\u0440\u0430\u0434\u0441\u044c\u043a\u0438\u0439 \u043f\u0440\u043e\u0441\u043f\u0435\u043a\u0442", "omkum:old_name": "/\u041b\u0435\u043d\u0438\u043d\u0433\u0440\u0430\u0434\u0441\u043a\u043e\u0435 \u0448\u043e\u0441\u0441\u0435 (1924 \u0433.) \u041f\u0435\u0442\u0440\u043e\u0433\u0440\u0430\u0434\u0441\u043a\u043e\u0435 \u0448\u043e\u0441\u0441\u0435 (\u0434\u043e 1917 \u0433.)", "oneway": "yes", "parking:lane:both": "no", "surface": "asphalt", "tunnel": "yes", "length": 414.22659075214085}}, {"type": "Feature", "geometry": {"type": "LineString", "coordinates": [[37.5733607, 55.791392], [37.5747097, 55.7914556]]}, "properties": {"foot": "no", "highway": "tertiary", "lanes": "3", "layer": "-1", "lit": "24/7", "maxspeed": "RU:urban", "name": "\u0443\u043b\u0438\u0446\u0430 \u041d\u0438\u0436\u043d\u044f\u044f \u041c\u0430\u0441\u043b\u043e\u0432\u043a\u0430", "name:uk": "\u0432\u0443\u043b\u0438\u0446\u044f \u041d\u0438\u0436\u043d\u044f \u041c\u0430\u0441\u043b\u0456\u0432\u043a\u0430", "oneway": "yes", "surface": "asphalt", "tunnel": "yes", "length": 84.91634279725078}}, {"type": "Feature", "geometry": {"type": "LineString", "coordinates": [[37.4933142, 55.7721662], [37.493506, 55.7721437], [37.4937126, 55.7721287], [37.4939285, 55.772126], [37.4941298, 55.7721304], [37.4943239, 55.7721454], [37.4945163, 55.7721647], [37.4947121, 55.7721993], [37.4948762, 55.7722383], [37.4950458, 55.772296], [37.4951929, 55.7723584], [37.4954484, 55.7724735]]}, "properties": {"foot": "no", "highway": "secondary", "lanes": "2", "layer": "-1", "lit": "yes", "maxspeed": "60", "name": "\u0443\u043b\u0438\u0446\u0430 \u041c\u043d\u0451\u0432\u043d\u0438\u043a\u0438", "name:uk": "\u0432\u0443\u043b\u0438\u0446\u044f \u041c\u043d\u0435\u0432\u043d\u0438\u043a\u0438", "oneway": "yes", "surface": "asphalt", "tunnel": "yes", "length": 144.69219843006118}}, {"type": "Feature", "geometry": {"type": "LineString", "coordinates": [[37.5191675, 55.8038761], [37.5186782, 55.8039825], [37.51808, 55.8041053], [37.517573, 55.8042046], [37.5170404, 55.804306], [37.5163521, 55.804454], [37.5156406, 55.8046243], [37.5144447, 55.8049362], [37.5131849, 55.8052633], [37.5123097, 55.805497], [37.5111846, 55.8057826], [37.51047, 55.8059812], [37.5088929, 55.8063813], [37.5083028, 55.8065345], [37.5074012, 55.8067158], [37.5067993, 55.806836], [37.5060973, 55.8069855], [37.5032594, 55.8075359], [37.501789, 55.8078112]]}, "properties": {"bicycle": "no", "foot": "no", "highway": "primary", "horse": "no", "lanes": "3", "layer": "-2", "lit": "24/7", "maxheight": "4.7", "maxspeed": "RU:urban", "maxspeed:practical": "80", "name": "\u0412\u043e\u043b\u043e\u043a\u043e\u043b\u0430\u043c\u0441\u043a\u0438\u0439 \u0442\u043e\u043d\u043d\u0435\u043b\u044c", "oneway": "yes", "parking:lane:both": "no", "surface": "asphalt", "tunnel": "yes", "length": 1175.827062126865}}, {"type": "Feature", "geometry": {"type": "LineString", "coordinates": [[37.5202503, 55.8161695], [37.5195493, 55.8155335], [37.5193243, 55.8153158], [37.5176156, 55.8135437], [37.5174322, 55.8133271], [37.5169714, 55.8127366], [37.5169359, 55.8126943], [37.5164578, 55.8121447], [37.5161186, 55.8117932], [37.5156936, 55.8113698], [37.515022, 55.8106951], [37.51475, 55.8104264], [37.5140831, 55.8097531]]}, "properties": {"bicycle": "no", "foot": "no", "highway": "secondary", "lanes": "3", "layer": "-4", "lit": "24/7", "maxspeed": "RU:urban", "name": "\u0410\u043b\u0430\u0431\u044f\u043d\u043e-\u0411\u0430\u043b\u0442\u0438\u0439\u0441\u043a\u0438\u0439 \u0442\u043e\u043d\u043d\u0435\u043b\u044c", "name:uk": "\u0410\u043b\u0430\u0431\u044f\u043d\u043e-\u0411\u0430\u043b\u0442\u0456\u0439\u0441\u044c\u043a\u0438\u0439 \u0442\u0443\u043d\u0435\u043b\u044c", "oneway": "yes", "surface": "asphalt", "tunnel": "yes", "length": 812.8463082981598}}, {"type": "Feature", "geometry": {"type": "LineString", "coordinates": [[37.546112, 55.7940665], [37.5461413, 55.7940561], [37.5513251, 55.7917718]]}, "properties": {"bicycle": "no", "foot": "no", "highway": "primary", "horse": "no", "lanes": "5", "layer": "-2", "lit": "yes", "maxheight": "default", "maxspeed": "80", "maxspeed:practical": "100", "name": "\u041b\u0435\u043d\u0438\u043d\u0433\u0440\u0430\u0434\u0441\u043a\u0438\u0439 \u043f\u0440\u043e\u0441\u043f\u0435\u043a\u0442", "omkum:old_name": "/\u041b\u0435\u043d\u0438\u043d\u0433\u0440\u0430\u0434\u0441\u043a\u043e\u0435 \u0448\u043e\u0441\u0441\u0435 (1924 \u0433.) \u041f\u0435\u0442\u0440\u043e\u0433\u0440\u0430\u0434\u0441\u043a\u043e\u0435 \u0448\u043e\u0441\u0441\u0435 (\u0434\u043e 1917 \u0433.)", "oneway": "yes", "smoothness": "good", "surface": "asphalt", "tunnel": "yes", "length": 414.9818875833845}}, {"type": "Feature", "geometry": {"type": "LineString", "coordinates": [[37.5341759, 55.7420308], [37.5342363, 55.7417413], [37.5343535, 55.7414512], [37.5346785, 55.7408527], [37.5350848, 55.7402081], [37.5353169, 55.7398916], [37.5356425, 55.7394715]]}, "properties": {"bicycle": "no", "foot": "no", "hgv": "destination", "highway": "primary_link", "lanes": "2", "layer": "-2", "lit": "24/7", "oneway": "yes", "surface": "asphalt", "tunnel": "yes", "length": 300.6268701152625}}, {"type": "Feature", "geometry": {"type": "LineString", "coordinates": [[37.7486182, 55.8021007], [37.7487128, 55.8016007], [37.7487485, 55.8012964]]}, "properties": {"bicycle": "no", "foot": "no", "highway": "primary", "lanes": "4", "layer": "-1", "lit": "24/7", "maxheight": "default", "maxspeed": "90", "motorroad": "yes", "name": "\u0421\u0435\u0432\u0435\u0440\u043e-\u0412\u043e\u0441\u0442\u043e\u0447\u043d\u0430\u044f \u0445\u043e\u0440\u0434\u0430", "name:uk": "\u041f\u0456\u0432\u043d\u0456\u0447\u043d\u043e-\u0421\u0445\u0456\u0434\u043d\u0430 \u0445\u043e\u0440\u0434\u0430", "oneway": "yes", "short_name": "\u0421\u0412\u0425", "surface": "asphalt", "tunnel": "yes", "length": 89.93843527882817}}, {"type": "Feature", "geometry": {"type": "LineString", "coordinates": [[37.7491819, 55.8013042], [37.7491569, 55.8017647], [37.7491061, 55.8021315]]}, "properties": {"highway": "tertiary", "lanes": "1", "layer": "-1", "lit": "24/7", "maxheight": "default", "oneway": "yes", "surface": "asphalt", "tunnel": "yes", "length": 92.25814165962528}}, {"type": "Feature", "geometry": {"type": "LineString", "coordinates": [[37.749062, 55.8013093], [37.7490459, 55.801569], [37.7489572, 55.8021199]]}, "properties": {"bicycle": "no", "foot": "no", "highway": "primary", "lanes": "4", "layer": "-1", "lit": "24/7", "maxheight": "default", "maxspeed": "90", "motorroad": "yes", "name": "\u0421\u0435\u0432\u0435\u0440\u043e-\u0412\u043e\u0441\u0442\u043e\u0447\u043d\u0430\u044f \u0445\u043e\u0440\u0434\u0430", "name:uk": "\u041f\u0456\u0432\u043d\u0456\u0447\u043d\u043e-\u0421\u0445\u0456\u0434\u043d\u0430 \u0445\u043e\u0440\u0434\u0430", "oneway": "yes", "short_name": "\u0421\u0412\u0425", "surface": "asphalt", "tunnel": "yes", "length": 90.52009693814874}}, {"type": "Feature", "geometry": {"type": "LineString", "coordinates": [[37.7483431, 55.8020846], [37.7483991, 55.8017618], [37.7484298, 55.8015446], [37.7484406, 55.8012888]]}, "properties": {"destination": "\u0429\u0451\u043b\u043a\u043e\u0432\u0441\u043a\u043e\u0435 \u0448\u043e\u0441\u0441\u0435;\u041c\u041a\u0410\u0414", "destination:ref": "\u0410-103", "highway": "primary_link", "lanes": "2", "layer": "-1", "lit": "24/7", "maxheight": "default", "maxspeed": "RU:urban", "oneway": "yes", "surface": "asphalt", "tunnel": "yes", "length": 88.85869446376877}}, {"type": "Feature", "geometry": {"type": "LineString", "coordinates": [[37.730674, 55.7090582], [37.7306378, 55.7094669]]}, "properties": {"highway": "primary", "lanes": "2", "layer": "-1", "lit": "yes", "maxheight": "default", "maxspeed": "RU:urban", "name": "\u041b\u044e\u0431\u043b\u0438\u043d\u0441\u043a\u0430\u044f \u0443\u043b\u0438\u0446\u0430", "name:uk": "\u041b\u044e\u0431\u043b\u0456\u043d\u0441\u044c\u043a\u0430 \u0432\u0443\u043b\u0438\u0446\u044f", "oneway": "yes", "surface": "asphalt", "tunnel": "yes", "length": 45.56010385097558}}, {"type": "Feature", "geometry": {"type": "LineString", "coordinates": [[37.7303918, 55.709487], [37.7304239, 55.7090625]]}, "properties": {"highway": "secondary", "lanes": "2", "layer": "-1", "lit": "yes", "maxheight": "default", "maxspeed": "RU:urban", "name": "\u041b\u044e\u0431\u043b\u0438\u043d\u0441\u043a\u0430\u044f \u0443\u043b\u0438\u0446\u0430", "name:uk": "\u041b\u044e\u0431\u043b\u0456\u043d\u0441\u044c\u043a\u0430 \u0432\u0443\u043b\u0438\u0446\u044f", "oneway": "yes", "surface": "asphalt", "tunnel": "yes", "length": 47.30541318577081}}, {"type": "Feature", "geometry": {"type": "LineString", "coordinates": [[37.4853556, 55.7886126], [37.4846825, 55.7882107], [37.4844916, 55.7880829], [37.4842854, 55.7879193], [37.4840663, 55.787743], [37.4838297, 55.7875345], [37.4836001, 55.7873193]]}, "properties": {"highway": "secondary", "lanes": "3", "layer": "-1", "level": "-1", "lit": "yes", "maxspeed": "RU:urban", "oneway": "yes", "surface": "asphalt", "tunnel": "yes", "length": 181.93625966229376}}, {"type": "Feature", "geometry": {"type": "LineString", "coordinates": [[37.4837986, 55.7872533], [37.4840207, 55.7874676], [37.4842445, 55.7876701], [37.484457, 55.7878484], [37.4846545, 55.7880151], [37.4848345, 55.7881428], [37.4854836, 55.7885489], [37.4868292, 55.7893883], [37.4881002, 55.790178]]}, "properties": {"foot": "no", "highway": "secondary", "lanes": "3", "layer": "-1", "level": "-2", "lit": "yes", "maxspeed": "RU:urban", "oneway": "yes", "surface": "asphalt", "tunnel": "yes", "length": 424.049363069496}}, {"type": "Feature", "geometry": {"type": "LineString", "coordinates": [[37.501721, 55.8076914], [37.5038747, 55.8072971], [37.5046428, 55.8071409], [37.5052923, 55.8070102], [37.5060011, 55.8068553], [37.5067335, 55.8066922], [37.5086863, 55.806192], [37.5092212, 55.806046], [37.511296, 55.8055408], [37.5142493, 55.8047811], [37.5147263, 55.8046583], [37.515149, 55.8045595], [37.5156879, 55.8044402], [37.5181237, 55.8039592], [37.5186005, 55.8038646], [37.5190862, 55.803759]]}, "properties": {"bicycle": "no", "foot": "no", "highway": "primary", "horse": "no", "lanes": "3", "layer": "-2", "lit": "24/7", "maxspeed": "RU:urban", "maxspeed:practical": "80", "name": "\u0412\u043e\u043b\u043e\u043a\u043e\u043b\u0430\u043c\u0441\u043a\u0438\u0439 \u0442\u043e\u043d\u043d\u0435\u043b\u044c", "oneway": "yes", "surface": "asphalt", "tunnel": "yes", "length": 1174.7368230496531}}, {"type": "Feature", "geometry": {"type": "LineString", "coordinates": [[37.5133237, 55.8054314], [37.5127011, 55.8055906], [37.5113209, 55.8059437], [37.5105947, 55.8061295], [37.5100594, 55.8062703], [37.5097367, 55.8063587], [37.5094613, 55.8064426], [37.5092401, 55.8065173], [37.5089619, 55.806623], [37.5087624, 55.8067103], [37.5085101, 55.8068292], [37.5083863, 55.8068837], [37.5083638, 55.8068933]]}, "properties": {"bicycle": "no", "foot": "no", "highway": "primary", "horse": "no", "lanes": "3", "layer": "-2", "lit": "24/7", "maxspeed": "RU:urban", "name": "\u041b\u0435\u043d\u0438\u043d\u0433\u0440\u0430\u0434\u0441\u043a\u0438\u0439 \u0442\u043e\u043d\u043d\u0435\u043b\u044c", "name:uk": "\u041b\u0435\u043d\u0456\u043d\u0433\u0440\u0430\u0434\u0441\u044c\u043a\u0438\u0439 \u0442\u0443\u043d\u0435\u043b\u044c", "oneway": "yes", "surface": "asphalt", "tunnel": "yes", "length": 352.43660670845213}}, {"type": "Feature", "geometry": {"type": "LineString", "coordinates": [[37.5079896, 55.8069574], [37.5081554, 55.8068636], [37.5083843, 55.8067478], [37.5086418, 55.8066264], [37.5088492, 55.8065357], [37.5091369, 55.8064264], [37.5093662, 55.8063489], [37.5096463, 55.8062637], [37.5099765, 55.806173], [37.5105127, 55.806032], [37.5112383, 55.8058464], [37.5126187, 55.8054933], [37.5132429, 55.8053336]]}, "properties": {"bicycle": "no", "foot": "no", "highway": "primary", "horse": "no", "lanes": "3", "layer": "-2", "lit": "24/7", "maxspeed": "RU:urban", "name": "\u041b\u0435\u043d\u0438\u043d\u0433\u0440\u0430\u0434\u0441\u043a\u0438\u0439 \u0442\u043e\u043d\u043d\u0435\u043b\u044c", "name:uk": "\u041b\u0435\u043d\u0456\u043d\u0433\u0440\u0430\u0434\u0441\u044c\u043a\u0438\u0439 \u0442\u0443\u043d\u0435\u043b\u044c", "oneway": "yes", "surface": "asphalt", "tunnel": "yes", "length": 378.215631858414}}, {"type": "Feature", "geometry": {"type": "LineString", "coordinates": [[37.5091342, 55.803811], [37.5101891, 55.8050021], [37.5117825, 55.806822], [37.5119707, 55.807037], [37.5120236, 55.8070966], [37.5122777, 55.8073828], [37.5126452, 55.8077763], [37.5142995, 55.8096885]]}, "properties": {"bicycle": "no", "foot": "no", "highway": "secondary", "lanes": "3", "layer": "-4", "lit": "24/7", "maxspeed": "RU:urban", "name": "\u0410\u043b\u0430\u0431\u044f\u043d\u043e-\u0411\u0430\u043b\u0442\u0438\u0439\u0441\u043a\u0438\u0439 \u0442\u043e\u043d\u043d\u0435\u043b\u044c", "name:uk": "\u0410\u043b\u0430\u0431\u044f\u043d\u043e-\u0411\u0430\u043b\u0442\u0456\u0439\u0441\u044c\u043a\u0438\u0439 \u0442\u0443\u043d\u0435\u043b\u044c", "oneway": "yes", "surface": "asphalt", "tunnel": "yes", "length": 730.1771973024804}}, {"type": "Feature", "geometry": {"type": "LineString", "coordinates": [[37.5142995, 55.8096885], [37.5149508, 55.8103664], [37.5151953, 55.8106468], [37.5163789, 55.8117581], [37.5166786, 55.8120803], [37.5170538, 55.8125153], [37.5173751, 55.8128877], [37.5173791, 55.8128923], [37.5177033, 55.8133257], [37.5178878, 55.8135427], [37.519598, 55.8153287], [37.519823, 55.8155437], [37.5204514, 55.816102]]}, "properties": {"bicycle": "no", "foot": "no", "highway": "secondary", "lanes": "3", "layer": "-4", "lit": "24/7", "maxspeed": "RU:urban", "name": "\u0410\u043b\u0430\u0431\u044f\u043d\u043e-\u0411\u0430\u043b\u0442\u0438\u0439\u0441\u043a\u0438\u0439 \u0442\u043e\u043d\u043d\u0435\u043b\u044c", "name:uk": "\u0410\u043b\u0430\u0431\u044f\u043d\u043e-\u0411\u0430\u043b\u0442\u0456\u0439\u0441\u044c\u043a\u0438\u0439 \u0442\u0443\u043d\u0435\u043b\u044c", "oneway": "yes", "surface": "asphalt", "tunnel": "yes", "length": 812.3135225880451}}, {"type": "Feature", "geometry": {"type": "LineString", "coordinates": [[37.5140831, 55.8097531], [37.5136367, 55.8092608], [37.5124607, 55.807869], [37.5120613, 55.8074429], [37.5118029, 55.8071579], [37.5117522, 55.8070969], [37.5115566, 55.80688], [37.5111395, 55.8064175], [37.5099606, 55.8050595], [37.5096083, 55.8046536], [37.5089272, 55.8038772]]}, "properties": {"bicycle": "no", "foot": "no", "highway": "secondary", "lanes": "3", "layer": "-4", "lit": "24/7", "maxspeed": "RU:urban", "name": "\u0410\u043b\u0430\u0431\u044f\u043d\u043e-\u0411\u0430\u043b\u0442\u0438\u0439\u0441\u043a\u0438\u0439 \u0442\u043e\u043d\u043d\u0435\u043b\u044c", "name:uk": "\u0410\u043b\u0430\u0431\u044f\u043d\u043e-\u0411\u0430\u043b\u0442\u0456\u0439\u0441\u044c\u043a\u0438\u0439 \u0442\u0443\u043d\u0435\u043b\u044c", "oneway": "yes", "surface": "asphalt", "tunnel": "yes", "length": 729.7902224364199}}, {"type": "Feature", "geometry": {"type": "LineString", "coordinates": [[37.6830546, 55.7752626], [37.6836314, 55.7748246]]}, "properties": {"bicycle": "no", "foot": "no", "highway": "primary", "lanes": "4", "layer": "-1", "lit": "24/7", "maxspeed": "RU:urban", "motorroad": "yes", "name": "\u0422\u0440\u0435\u0442\u044c\u0435 \u0442\u0440\u0430\u043d\u0441\u043f\u043e\u0440\u0442\u043d\u043e\u0435 \u043a\u043e\u043b\u044c\u0446\u043e", "name:de": "Dritter Verkehrsring", "name:en": "Third Ring Road", "name:uk": "\u0422\u0440\u0435\u0442\u0454 \u0422\u0440\u0430\u043d\u0441\u043f\u043e\u0440\u0442\u043d\u0435 \u043a\u0456\u043b\u044c\u0446\u0435", "oneway": "yes", "short_name": "\u0422\u0422\u041a", "surface": "asphalt", "tunnel": "yes", "length": 60.73163960139752}}, {"type": "Feature", "geometry": {"type": "LineString", "coordinates": [[37.5789091, 55.7126203], [37.5797746, 55.7119254]]}, "properties": {"bicycle": "no", "foot": "no", "highway": "primary", "lanes": "5", "layer": "-1", "lit": "24/7", "maxheight": "4.5", "maxspeed": "80", "motorroad": "yes", "name": "\u0422\u0440\u0435\u0442\u044c\u0435 \u0442\u0440\u0430\u043d\u0441\u043f\u043e\u0440\u0442\u043d\u043e\u0435 \u043a\u043e\u043b\u044c\u0446\u043e", "name:de": "Dritter Verkehrsring", "name:en": "Third Ring Road", "oneway": "yes", "short_name": "\u0422\u0422\u041a", "smoothness": "intermediate", "surface": "asphalt", "tunnel": "yes", "length": 94.57956192365182}}, {"type": "Feature", "geometry": {"type": "LineString", "coordinates": [[37.5797034, 55.7076253], [37.5802124, 55.7073172]]}, "properties": {"foot": "no", "highway": "primary", "lanes": "2", "layer": "-1", "lit": "yes", "maxheight": "4.0", "maxspeed": "RU:urban", "maxspeed:practical": "50", "oneway": "yes", "surface": "asphalt", "tunnel": "yes", "length": 46.909624746856764}}, {"type": "Feature", "geometry": {"type": "LineString", "coordinates": [[37.5798518, 55.7076935], [37.5803542, 55.7073894]]}, "properties": {"foot": "no", "highway": "secondary", "lanes": "2", "layer": "-1", "lit": "yes", "maxheight": "4.0", "maxspeed": "RU:urban", "maxspeed:practical": "60", "oneway": "yes", "surface": "asphalt", "tunnel": "yes", "length": 46.300921742171525}}, {"type": "Feature", "geometry": {"type": "LineString", "coordinates": [[37.6843395, 55.7742881], [37.6855268, 55.7731501], [37.6857033, 55.773003], [37.6859694, 55.772823]]}, "properties": {"destination": "\u041c\u0430\u043b\u0430\u044f \u041f\u043e\u0447\u0442\u043e\u0432\u0430\u044f \u0443\u043b.;\u0413\u043e\u0441\u043f\u0438\u0442\u0430\u043b\u044c\u043d\u0430\u044f \u0443\u043b.", "foot": "no", "highway": "tertiary_link", "lanes": "1", "layer": "-1", "lit": "24/7", "oneway": "yes", "surface": "asphalt", "tunnel": "yes", "length": 192.8463790646918}}, {"type": "Feature", "geometry": {"type": "LineString", "coordinates": [[37.6838161, 55.7749175], [37.6832534, 55.775351]]}, "properties": {"bicycle": "no", "foot": "no", "highway": "primary", "lanes": "3", "layer": "-1", "lit": "24/7", "maxspeed": "RU:urban", "motorroad": "yes", "name": "\u0422\u0440\u0435\u0442\u044c\u0435 \u0442\u0440\u0430\u043d\u0441\u043f\u043e\u0440\u0442\u043d\u043e\u0435 \u043a\u043e\u043b\u044c\u0446\u043e", "name:de": "Dritter Verkehrsring", "name:en": "Third Ring Road", "name:uk": "\u0422\u0440\u0435\u0442\u0454 \u0422\u0440\u0430\u043d\u0441\u043f\u043e\u0440\u0442\u043d\u0435 \u043a\u0456\u043b\u044c\u0446\u0435", "oneway": "yes", "short_name": "\u0422\u0422\u041a", "surface": "asphalt", "tunnel": "yes", "length": 59.80332650959736}}, {"type": "Feature", "geometry": {"type": "LineString", "coordinates": [[37.6836314, 55.7748246], [37.684091, 55.7744757]]}, "properties": {"bicycle": "no", "foot": "no", "highway": "primary", "lanes": "4", "layer": "-2", "lit": "24/7", "maxspeed": "RU:urban", "motorroad": "yes", "name": "\u0422\u0440\u0435\u0442\u044c\u0435 \u0442\u0440\u0430\u043d\u0441\u043f\u043e\u0440\u0442\u043d\u043e\u0435 \u043a\u043e\u043b\u044c\u0446\u043e", "name:en": "Third Ring Road", "name:uk": "\u0422\u0440\u0435\u0442\u0454 \u0422\u0440\u0430\u043d\u0441\u043f\u043e\u0440\u0442\u043d\u0435 \u043a\u0456\u043b\u044c\u0446\u0435", "oneway": "yes", "short_name": "\u0422\u0422\u041a", "surface": "asphalt", "tunnel": "yes", "length": 48.38256045742562}}, {"type": "Feature", "geometry": {"type": "LineString", "coordinates": [[37.6962821, 55.7515536], [37.6956072, 55.7522547], [37.6950641, 55.752843], [37.6947905, 55.7531687], [37.6945393, 55.7534965], [37.6935195, 55.7549131], [37.6931619, 55.7554684], [37.6928972, 55.7560554], [37.6927539, 55.7565708], [37.6926966, 55.7569869], [37.6923888, 55.7618042], [37.6923917, 55.7620881], [37.6926924, 55.7664536], [37.6926611, 55.7669801], [37.6925617, 55.7675032], [37.6923943, 55.7680217], [37.6921605, 55.7685311], [37.6918611, 55.7690298], [37.6914977, 55.769515], [37.6910724, 55.7699838], [37.6905869, 55.7704343], [37.6900447, 55.7708632], [37.689448, 55.771269], [37.6891313, 55.7714618], [37.6866636, 55.7728977], [37.6859178, 55.7733752], [37.6852208, 55.7738668], [37.6838161, 55.7749175]]}, "properties": {"bicycle": "no", "foot": "no", "highway": "primary", "lanes": "3", "layer": "-2", "lit": "24/7", "maxheight": "4.2", "maxspeed": "RU:urban", "motorroad": "yes", "name": "\u0422\u0440\u0435\u0442\u044c\u0435 \u0442\u0440\u0430\u043d\u0441\u043f\u043e\u0440\u0442\u043d\u043e\u0435 \u043a\u043e\u043b\u044c\u0446\u043e", "name:en": "Third Ring Road", "name:uk": "\u0422\u0440\u0435\u0442\u0454 \u0422\u0440\u0430\u043d\u0441\u043f\u043e\u0440\u0442\u043d\u0435 \u043a\u0456\u043b\u044c\u0446\u0435", "oneway": "yes", "short_name": "\u0422\u0422\u041a", "surface": "asphalt", "tunnel": "yes", "tunnel:name": "\u041b\u0435\u0444\u043e\u0440\u0442\u043e\u0432\u0441\u043a\u0438\u0439 \u0442\u043e\u043d\u043d\u0435\u043b\u044c", "length": 2830.8386742053563}}]}