{"type": "FeatureCollection", "features": [{"type": "Feature", "geometry": {"type": "LineString", "coordinates": [[14.4326177, 50.0934815], [14.4364168, 50.0937951], [14.4374075, 50.0938624]]}, "properties": {"bicycle": "no", "carriage": "no", "foot": "no", "hazmat": "no", "highway": "primary", "lanes": "2", "layer": "-1", "lit": "yes", "loc_name": "Hus\u00e1kovo ticho", "maxheight": "4.5", "maxspeed": "50", "name": "T\u011b\u0161novsk\u00fd tunel", "oneway": "yes", "smoothness": "excellent", "source:maxspeed": "CZ:urban", "start_date": "1980", "surface": "asphalt", "tunnel": "yes", "wikidata": "Q12060228", "wikipedia": "cs:T\u011b\u0161novsk\u00fd tunel", "length": 345.36350887394997}}, {"type": "Feature", "geometry": {"type": "LineString", "coordinates": [[14.3979831, 50.0708681], [14.3978459, 50.0704569], [14.3977981, 50.0702583], [14.3977795, 50.0698656], [14.3978559, 50.0692294], [14.397996, 50.0688008], [14.3981804, 50.0684203], [14.3985128, 50.0678734]]}, "properties": {"foot": "no", "hazmat": "no", "highway": "trunk", "lanes": "3", "layer": "-1", "lit": "24/7", "maxheight": "default", "maxspeed": "70", "maxspeed:variable": "peak_traffic", "motorroad": "yes", "name": "tunel Mr\u00e1zovka", "name:en": "Mrazovka Tunnel", "oneway": "yes", "ref": "MO", "sorting_name": "Mr\u00e1zovka", "source:maxspeed": "sign", "surface": "asphalt", "toll": "no", "tunnel": "yes", "length": 342.18360015518317}}, {"type": "Feature", "geometry": {"type": "LineString", "coordinates": [[14.3809262, 50.0866096], [14.3809506, 50.0862892], [14.381027, 50.085642]]}, "properties": {"covered": "yes", "foot": "no", "hazmat": "no", "highway": "trunk", "incline": "down", "lanes": "2", "layer": "-1", "lit": "24/7", "maxspeed": "70", "maxspeed:variable": "peak_traffic", "motorroad": "yes", "name": "Strahovsk\u00fd tunel", "name:en": "Strahov Tunnel", "oneway": "yes", "ref": "MO", "surface": "asphalt", "toll": "no", "tunnel": "yes", "length": 107.8769542950451}}, {"type": "Feature", "geometry": {"type": "LineString", "coordinates": [[14.400279, 50.0652313], [14.4003903, 50.065118], [14.4005192, 50.0650141], [14.4006582, 50.0649159], [14.400807, 50.0648236], [14.4009649, 50.0647378], [14.4011311, 50.0646587], [14.401305, 50.0645868], [14.4014858, 50.0645222], [14.4015918, 50.06449], [14.4016728, 50.0644654], [14.4018652, 50.0644165], [14.4021589, 50.0643553], [14.4023828, 50.0643226], [14.4024878, 50.0643105], [14.402594, 50.0643047], [14.4027007, 50.0643054], [14.4028062, 50.0643124], [14.4029102, 50.0643258]]}, "properties": {"destination": "Radlice", "hazmat": "no", "highway": "trunk_link", "incline": "up", "lanes": "1", "layer": "-1", "lit": "24/7", "maxspeed": "50", "maxspeed:variable": "peak_traffic", "motorroad": "yes", "oneway": "yes", "source:maxspeed": "sign", "surface": "asphalt", "tunnel": "yes", "length": 224.72554552461006}}, {"type": "Feature", "geometry": {"type": "LineString", "coordinates": [[14.4162217, 50.0633337], [14.4162146, 50.0634165], [14.4162031, 50.0634983], [14.416194, 50.0635335], [14.4161785, 50.0635671], [14.4161416, 50.0636212], [14.4161109, 50.0636586]]}, "properties": {"cycleway": "shared_lane", "embedded_rails": "tram", "highway": "secondary", "lanes": "2", "layer": "-1", "lit": "yes", "maxheight": "3.3", "maxspeed": "30", "name": "Vy\u0161ehradsk\u00fd tunel", "name:de": "Wyschehrader Tunnel", "overtaking": "no", "source:maxspeed": "sign", "surface": "asphalt", "tunnel": "yes", "wikidata": "Q11949409", "wikipedia": "cs:Vy\u0161ehradsk\u00fd tunel", "length": 37.504591234895464}}, {"type": "Feature", "geometry": {"type": "LineString", "coordinates": [[14.4311124, 50.061725], [14.4310324, 50.0616866], [14.4309433, 50.0616351], [14.4308629, 50.0615785], [14.4307834, 50.0615061], [14.4307527, 50.0614765], [14.4307072, 50.0614303]]}, "properties": {"highway": "tertiary", "lanes": "2", "layer": "-1", "name": "Kongresov\u00e1", "surface": "asphalt", "tunnel": "yes", "length": 44.15594265750319}}, {"type": "Feature", "geometry": {"type": "LineString", "coordinates": [[14.3981771, 50.0729357], [14.3979464, 50.0731733], [14.3976701, 50.0733857], [14.3974462, 50.0735178], [14.3971713, 50.073652]]}, "properties": {"foot": "no", "hazmat": "no", "highway": "trunk", "lanes": "3", "layer": "-1", "lit": "24/7", "maxheight": "default", "maxspeed": "70", "maxspeed:variable": "peak_traffic", "motorroad": "yes", "name": "Strahovsk\u00fd tunel", "name:en": "Strahov Tunnel", "oneway": "yes", "ref": "MO", "source": "survey;local_knowledge;photos; dtmp", "source:maxspeed": "sign", "surface": "asphalt", "toll": "no", "tunnel": "yes", "turn:lanes": "||merge_to_left", "length": 108.42020291705202}}, {"type": "Feature", "geometry": {"type": "LineString", "coordinates": [[14.4092483, 50.0751055], [14.4089992, 50.075583]]}, "properties": {"highway": "secondary", "lanes": "1", "layer": "-1", "lit": "yes", "maxheight": "3.8", "name": "N\u00e1b\u0159e\u017en\u00ed", "name:de": "Uferstra\u00dfe", "oneway": "yes", "surface": "asphalt", "tunnel": "yes", "length": 56.025950369701455}}, {"type": "Feature", "geometry": {"type": "LineString", "coordinates": [[14.5027369, 50.1011451], [14.5024196, 50.1007912], [14.5019873, 50.1004847]]}, "properties": {"cycleway:left": "share_busway", "highway": "secondary", "lanes": "4", "lanes:backward": "2", "lanes:forward": "2", "layer": "-1", "lit": "24/7", "maxheight": "default", "maxspeed:type": "CZ:urban", "name": "K\u00a0\u017di\u017ekovu", "shoulder": "no", "sidewalk:both": "separate", "smoothness": "excellent", "surface": "asphalt", "tunnel": "yes", "length": 91.4730896327154}}, {"type": "Feature", "geometry": {"type": "LineString", "coordinates": [[14.4841701, 50.1025], [14.485135, 50.1020243]]}, "properties": {"highway": "primary", "lanes": "2", "layer": "-1", "lit": "24/7", "maxheight": "default", "name": "Spojovac\u00ed", "oneway": "yes", "shoulder": "no", "smoothness": "good", "surface": "asphalt", "tunnel": "yes", "length": 86.97823487121974}}, {"type": "Feature", "geometry": {"type": "LineString", "coordinates": [[14.4372033, 50.0859443], [14.437149, 50.086015], [14.4371214, 50.0860389], [14.4370699, 50.0860663], [14.4370058, 50.0860846], [14.4369355, 50.0860923], [14.4368926, 50.0860863], [14.4368517, 50.0860715], [14.4367767, 50.0860291]]}, "properties": {"highway": "primary_link", "lanes": "1", "layer": "-1", "maxheight": "default", "maxspeed": "50", "oneway": "yes", "source:maxspeed": "CZ:urban", "surface": "asphalt", "tunnel": "yes", "turn:lanes": "merge_to_right", "length": 40.63411459086862}}, {"type": "Feature", "geometry": {"type": "LineString", "coordinates": [[14.4093779, 50.0487966], [14.4091983, 50.0489394], [14.4090177, 50.0490652], [14.4089744, 50.0490954], [14.4086122, 50.0493459], [14.4085087, 50.0494307], [14.408415, 50.0495202], [14.4083318, 50.0496138], [14.4082595, 50.049711], [14.4081934, 50.049821], [14.4081411, 50.049934], [14.4081031, 50.0500494], [14.4080796, 50.0501663]]}, "properties": {"foot": "no", "hazmat": "no", "highway": "trunk", "lanes": "2", "layer": "-1", "lit": "24/7", "maxheight": "4.6", "maxspeed": "70", "maxspeed:advisory": "60", "maxspeed:variable": "peak_traffic", "motorroad": "yes", "name": "Zl\u00edchovsk\u00fd tunel", "name:en": "Zlichov Tunnel", "oneway": "yes", "ref": "MO", "source": "dtmp", "source:maxspeed": "sign", "surface": "asphalt", "toll": "no", "tunnel": "yes", "length": 182.58971741016606}}, {"type": "Feature", "geometry": {"type": "LineString", "coordinates": [[14.4079369, 50.050159], [14.4079512, 50.0500621], [14.4079751, 50.0499659], [14.4080084, 50.049871], [14.4080511, 50.0497775], [14.4081029, 50.049686], [14.4081634, 50.0495973], [14.4082326, 50.0495111], [14.4083101, 50.0494279], [14.4083585, 50.0493827], [14.4083956, 50.0493481], [14.4084889, 50.0492718], [14.4088912, 50.0489773], [14.4092359, 50.0487345], [14.4094008, 50.0486004]]}, "properties": {"foot": "no", "hazmat": "no", "highway": "trunk", "lanes": "2", "layer": "-1", "lit": "24/7", "maxheight": "4.6", "maxspeed": "70", "maxspeed:advisory": "60", "maxspeed:variable": "peak_traffic", "motorroad": "yes", "name": "Zl\u00edchovsk\u00fd tunel", "name:en": "Zlichov Tunnel", "oneway": "yes", "ref": "MO", "source": "dtmp", "source:maxspeed": "sign", "surface": "asphalt", "toll": "no", "tunnel": "yes", "wikidata": "Q10861152", "wikipedia": "cs:Zl\u00edchovsk\u00fd tunel", "length": 207.34666701149416}}, {"type": "Feature", "geometry": {"type": "LineString", "coordinates": [[14.4853784, 50.1020249], [14.4844075, 50.1025034]]}, "properties": {"highway": "primary", "lanes": "2", "layer": "-1", "lit": "24/7", "maxheight": "default", "name": "Spojovac\u00ed", "oneway": "yes", "shoulder": "no", "smoothness": "good", "surface": "asphalt", "tunnel": "yes", "length": 87.5083939237827}}, {"type": "Feature", "geometry": {"type": "LineString", "coordinates": [[14.4225525, 50.0981315], [14.422687, 50.0978589], [14.4228171, 50.0976765], [14.4229287, 50.0975629], [14.4231161, 50.0974218], [14.4233465, 50.0973014], [14.423604, 50.0971778], [14.4239044, 50.0970817], [14.4259456, 50.0964793], [14.4260568, 50.0964317], [14.426155, 50.0963757], [14.4262558, 50.0963088], [14.4263514, 50.0962345], [14.4264165, 50.0961707], [14.4264605, 50.0961198], [14.4265105, 50.0960511], [14.4265615, 50.0959561], [14.4266497, 50.0956443]]}, "properties": {"bicycle": "no", "foot": "no", "highway": "secondary", "incline": "-8%", "lanes": "2", "layer": "-1", "lit": "yes", "maxheight": "4.0", "maxspeed": "50", "name": "Letensk\u00fd tunel", "name:en": "Letna Tunnel", "overtaking": "no", "source": "cuzk:km", "source:maxspeed": "CZ:urban", "start_date": "1953-09-26", "surface": "asphalt", "tunnel": "yes", "wikidata": "Q12033108", "wikipedia": "cs:Letensk\u00fd tunel", "length": 428.5190771131853}}, {"type": "Feature", "geometry": {"type": "LineString", "coordinates": [[14.5365895, 50.0548884], [14.5366035, 50.0552944]]}, "properties": {"highway": "secondary", "lanes": "2", "layer": "-1", "lit": "yes", "maxheight": "default", "maxspeed": "50", "name": "Pr\u016fmyslov\u00e1", "oneway": "yes", "source:maxspeed": "CZ:urban", "surface": "asphalt", "tunnel": "yes", "length": 45.17055900753054}}, {"type": "Feature", "geometry": {"type": "LineString", "coordinates": [[14.5364579, 50.0552983], [14.5364394, 50.0548924]]}, "properties": {"highway": "secondary", "lanes": "2", "layer": "-1", "lit": "yes", "maxheight": "default", "maxspeed": "50", "name": "Pr\u016fmyslov\u00e1", "oneway": "yes", "surface": "asphalt", "tunnel": "yes", "length": 45.167742446780466}}, {"type": "Feature", "geometry": {"type": "LineString", "coordinates": [[14.4439639, 50.0336891], [14.4440256, 50.0333171]]}, "properties": {"highway": "tertiary", "lanes": "2", "layer": "-1", "lit": "yes", "maxspeed": "50", "maxspeed:type": "sign", "name": "Sulick\u00e1", "surface": "asphalt", "tunnel": "yes", "length": 41.612916539923674}}, {"type": "Feature", "geometry": {"type": "LineString", "coordinates": [[14.4162587, 50.0319749], [14.4163101, 50.0316662]]}, "properties": {"cycleway:left": "shared_lane", "cycleway:right": "lane", "highway": "secondary", "layer": "-1", "name": "Vrbova", "tunnel": "yes", "length": 34.533529859165576}}, {"type": "Feature", "geometry": {"type": "LineString", "coordinates": [[14.3554563, 49.9989678], [14.3567942, 49.9992363], [14.3580289, 49.9995003], [14.3589306, 49.9996931], [14.3591391, 49.9997377], [14.3609549, 50.000103], [14.3626043, 50.0003658], [14.36363, 50.0004816], [14.3646418, 50.0005039], [14.3660071, 50.0004014], [14.3673516, 50.0001787], [14.3682443, 49.9999057], [14.3696539, 49.999196], [14.3706375, 49.9985399], [14.3714926, 49.9978341], [14.3722357, 49.9971686], [14.3733131, 49.9960297], [14.3739065, 49.995392]]}, "properties": {"alt_name": "tunel Lochkov", "highway": "motorway", "int_ref": "E 50", "lanes": "2", "layer": "-1", "lit": "yes", "maxheight": "4.5", "maxspeed": "80", "maxspeed:variable": "obstruction", "name": "Lochkovsk\u00fd tunel", "name:de": "Lochkower Tunnel", "name:en": "Lochkov Tunnel", "old_name": "Lahovick\u00fd tunel", "old_name:de": "Lahowitzer Tunnel", "old_name:en": "Lahovice Tunnel", "oneway": "yes", "ref": "D0", "smoothness": "excellent", "source:maxspeed": "sign", "start_date": "2010", "surface": "asphalt", "toll": "yes", "tunnel": "yes", "wikidata": "Q12033775", "wikipedia": "cs:Lochkovsk\u00fd tunel", "length": 1603.5660309702926}}, {"type": "Feature", "geometry": {"type": "LineString", "coordinates": [[14.4162799, 50.0937236], [14.4168188, 50.0938857]]}, "properties": {"covered": "yes", "cycleway:right": "no", "highway": "secondary", "lanes": "1", "layer": "-1", "lit": "yes", "maxspeed": "50", "name": "n\u00e1b\u0159e\u017e\u00ed Edvarda Bene\u0161e", "oneway": "yes", "shoulder": "no", "sorting_name": "Edvarda Bene\u0161e", "source:maxspeed": "CZ:urban", "surface": "asphalt", "tunnel": "yes", "length": 42.56874198554961}}, {"type": "Feature", "geometry": {"type": "LineString", "coordinates": [[14.3947597, 50.0939084], [14.3949041, 50.0939523], [14.3950374, 50.0939816], [14.3951437, 50.0939969], [14.3952805, 50.0940066]]}, "properties": {"destination": "Dejvice;Roztoky", "highway": "trunk_link", "incline": "up", "lanes": "1", "layer": "-1", "lit": "24/7", "maxheight": "4.8", "maxspeed": "50", "maxspeed:variable": "peak_traffic", "motorroad": "yes", "oneway": "yes", "source:maxspeed": "sign", "surface": "asphalt", "tunnel": "yes", "length": 39.15078556539598}}, {"type": "Feature", "geometry": {"type": "LineString", "coordinates": [[14.3825345, 50.0885092], [14.382577, 50.0886215], [14.3826969, 50.0888364], [14.382774, 50.0889332], [14.3828612, 50.0890167], [14.3832663, 50.0893283]]}, "properties": {"hazmat": "no", "highway": "trunk_link", "incline": "down", "lanes": "1", "layer": "-1", "lit": "24/7", "maxheight": "4.8", "maxspeed": "50", "maxspeed:variable": "peak_traffic", "motorroad": "yes", "oneway": "yes", "source": "survey;local_knowledge;photos", "source:maxspeed": "sign", "surface": "asphalt", "toll": "no", "tunnel": "yes", "length": 106.72638010708931}}, {"type": "Feature", "geometry": {"type": "LineString", "coordinates": [[14.4379943, 50.0980985], [14.4376003, 50.0979949], [14.4370887, 50.097847], [14.4361867, 50.097574]]}, "properties": {"bicycle:lanes": "no|no|designated|yes", "cycleway:right": "lane", "cycleway:right:lane": "exclusive", "highway": "primary", "lanes": "3", "layer": "-1", "lit": "yes", "maxheight": "default", "maxweight": "6", "name": "n\u00e1b\u0159e\u017e\u00ed Kapit\u00e1na Jaro\u0161e", "oneway": "yes", "placement": "middle_of:2", "ref": "8", "sorting_name": "Kapit\u00e1na Jaro\u0161e", "surface": "asphalt", "tunnel": "yes", "turn:lanes": "through|through|through|slight_right", "length": 141.91209432017354}}, {"type": "Feature", "geometry": {"type": "LineString", "coordinates": [[14.4264982, 50.0952649], [14.4269394, 50.0953404]]}, "properties": {"cycleway:right": "no", "highway": "secondary_link", "lanes": "1", "layer": "-1", "lit": "yes", "maxheight": "3.8", "maxspeed": "50", "name": "n\u00e1b\u0159e\u017e\u00ed Edvarda Bene\u0161e", "oneway": "yes", "source:maxspeed": "CZ:urban", "surface": "asphalt", "tunnel": "yes", "length": 32.66748269233725}}, {"type": "Feature", "geometry": {"type": "LineString", "coordinates": [[14.4138113, 50.0812723], [14.4137789, 50.0815247]]}, "properties": {"cycleway:right": "soft_lane", "highway": "secondary", "horse": "no", "layer": "-1", "lit": "yes", "maxspeed": "30", "name": "Divadeln\u00ed", "name:de": "Theatergasse", "name:ru": "\u0422\u0435\u0430\u0442\u0440\u0430\u043b\u044c\u043d\u0430\u044f \u0443\u043b\u0438\u0446\u0430", "oneway": "yes", "sidewalk": "separate", "surface": "asphalt", "tunnel": "yes", "length": 28.170226527098826}}, {"type": "Feature", "geometry": {"type": "LineString", "coordinates": [[14.3741901, 49.9954836], [14.3736233, 49.9961931], [14.3727312, 49.9972247], [14.3718633, 49.9980092], [14.3709648, 49.9987709], [14.3700433, 49.9994009], [14.3693265, 49.9998242], [14.3690214, 49.9999447], [14.3684154, 50.0001841], [14.3674908, 50.0004638], [14.3660878, 50.0006887], [14.3646066, 50.0007914], [14.3635375, 50.0007428], [14.3624445, 50.0006052], [14.3608851, 50.0002786], [14.3591033, 49.9999209], [14.357903, 49.9996592], [14.3577241, 49.9996202], [14.3566721, 49.9993909], [14.3554316, 49.9990974]]}, "properties": {"alt_name": "tunel Lochkov", "highway": "motorway", "int_ref": "E 50", "lanes": "3", "layer": "-1", "lit": "yes", "maxheight": "4.5", "maxspeed": "80", "maxspeed:variable": "obstruction", "name": "Lochkovsk\u00fd tunel", "name:de": "Lochkower Tunnel", "name:en": "Lochkov Tunnel", "old_name": "Lahovick\u00fd tunel", "old_name:de": "Lahowitzer Tunnel", "old_name:en": "Lahovice Tunnel", "oneway": "yes", "ref": "D0", "smoothness": "excellent", "source:maxspeed": "sign", "start_date": "2010", "surface": "asphalt", "toll": "yes", "tunnel": "yes", "wikidata": "Q12033775", "wikipedia": "cs:Lochkovsk\u00fd tunel", "length": 1646.835380641726}}, {"type": "Feature", "geometry": {"type": "LineString", "coordinates": [[14.4390398, 50.0859539], [14.4384422, 50.0861839]]}, "properties": {"cycleway:right": "no", "highway": "tertiary", "lanes": "2", "layer": "-1", "lit": "yes", "maxheight": "4.2", "maxspeed:type": "CZ:urban", "name": "Seifertova", "oneway": "yes", "sidewalk:both": "separate", "source": "Bing,cuzk", "surface": "asphalt", "tunnel": "yes", "turn:lanes": "through|slight_right;right", "length": 49.83640467309286}}, {"type": "Feature", "geometry": {"type": "LineString", "coordinates": [[14.4391191, 50.0939448], [14.439936, 50.0939803]]}, "properties": {"cycleway:right": "lane", "highway": "primary", "lanes": "2", "layer": "-1", "lit": "yes", "maxspeed": "50", "name": "Rohansk\u00e9 n\u00e1b\u0159e\u017e\u00ed", "oneway": "yes", "surface": "asphalt", "tunnel": "yes", "length": 58.58725205869172}}, {"type": "Feature", "geometry": {"type": "LineString", "coordinates": [[14.414201, 50.0981474], [14.4139311, 50.0981506], [14.4137108, 50.0981641], [14.4134812, 50.0982175], [14.4133167, 50.0982718], [14.4131541, 50.098356], [14.4130064, 50.098495], [14.4128333, 50.0986871]]}, "properties": {"destination": "Hole\u0161ovice;Bubene\u010d", "hazmat": "no", "hgv:maxweight": "6", "highway": "trunk_link", "incline": "up", "lanes": "1", "layer": "-1", "lit": "24/7", "maxheight": "4.8", "maxspeed": "50", "maxspeed:variable": "peak_traffic", "motorroad": "yes", "oneway": "yes", "source:maxspeed": "sign", "surface": "asphalt", "tunnel": "yes", "length": 124.2064095166178}}, {"type": "Feature", "geometry": {"type": "LineString", "coordinates": [[14.4122472, 50.0978585], [14.4127881, 50.0978111]]}, "properties": {"destination": "Hole\u0161ovice;Bubene\u010d", "hazmat": "no", "hgv": "no", "hgv:maxweight": "6", "highway": "trunk_link", "lanes": "1", "layer": "-1", "lit": "24/7", "maxspeed": "50", "maxspeed:variable": "peak_traffic", "motorroad": "yes", "oneway": "yes", "source:maxspeed": "sign", "surface": "asphalt", "tunnel": "yes", "length": 39.05895677107247}}, {"type": "Feature", "geometry": {"type": "LineString", "coordinates": [[14.3821424, 50.0888322], [14.3825484, 50.0890407], [14.3832663, 50.0893283]]}, "properties": {"hazmat": "no", "hgv": "no", "highway": "trunk", "lanes": "2", "layer": "-1", "lit": "24/7", "maxheight": "4.8", "maxspeed": "70", "maxspeed:variable": "peak_traffic", "motorroad": "yes", "name": "Brusnick\u00fd tunel", "name:en": "Brusnice Tunnel", "oneway": "yes", "ref": "MO", "source:maxspeed": "sign", "surface": "asphalt", "toll": "no", "tunnel": "yes", "length": 97.69639101506903}}, {"type": "Feature", "geometry": {"type": "LineString", "coordinates": [[14.4311888, 50.1136839], [14.4314712, 50.1136384]]}, "properties": {"bicycle": "no", "destination": "Hole\u0161ovice;Troja;zoo", "foot": "no", "hazmat": "no", "highway": "trunk_link", "lanes": "1", "layer": "-2", "lit": "yes", "maxheight": "4.8", "maxspeed": "50", "maxspeed:variable": "peak_traffic", "maxweight": "12", "oneway": "yes", "source:maxspeed": "sign", "surface": "asphalt", "tunnel": "yes", "length": 20.823492991727537}}, {"type": "Feature", "geometry": {"type": "LineString", "coordinates": [[14.434474, 50.1138589], [14.4332549, 50.1138014], [14.4327159, 50.1137908], [14.4317971, 50.1138036], [14.4310528, 50.1138398], [14.4302543, 50.1138862], [14.4290303, 50.1139424], [14.428929, 50.1139443], [14.428336, 50.1139551], [14.4278195, 50.1139394], [14.4272319, 50.1138941], [14.4260761, 50.1137398], [14.4251511, 50.113535], [14.4245135, 50.1133662], [14.4241928, 50.1132813], [14.4232236, 50.1129028], [14.4223151, 50.1125132], [14.421421, 50.11204], [14.4208105, 50.1116671], [14.4200843, 50.1111587], [14.4193687, 50.1105715], [14.4189813, 50.1102056], [14.4185274, 50.1097328], [14.4180156, 50.1090748], [14.4175932, 50.1084849], [14.4172662, 50.1078095], [14.4169478, 50.1069491], [14.4168729, 50.1067087], [14.4168107, 50.1064668], [14.4167614, 50.1062237], [14.4167286, 50.106009], [14.4167059, 50.1057937], [14.4166932, 50.1055781], [14.4166905, 50.1053623], [14.4167162, 50.1050192], [14.4167556, 50.1046673], [14.4169328, 50.1040712], [14.4171964, 50.1034569], [14.4177311, 50.1025689], [14.4181487, 50.1017176], [14.4182514, 50.1013121], [14.4182543, 50.1010457], [14.4182173, 50.1008266], [14.4181663, 50.1006087], [14.4181113, 50.100422], [14.418046, 50.1002366], [14.4179329, 50.10003]]}, "properties": {"bicycle": "no", "foot": "no", "hazmat": "no", "hgv": "no", "highway": "trunk", "incline": "down", "lanes": "2", "layer": "-2", "lit": "24/7", "maxheight": "4.8", "maxspeed": "70", "maxspeed:variable": "peak_traffic", "maxweight": "12", "motorroad": "yes", "name": "Bubene\u010dsk\u00fd tunel", "name:en": "Bubenec Tunnel", "oneway": "yes", "ref": "MO", "source:maxspeed": "sign", "surface": "asphalt", "toll": "no", "tunnel": "yes", "length": 2441.859539809333}}, {"type": "Feature", "geometry": {"type": "LineString", "coordinates": [[14.3829508, 50.0893581], [14.382562, 50.089251]]}, "properties": {"destination": "Karlovy Vary;B\u0159evnov", "destination:symbol": "airport", "hazmat": "no", "highway": "trunk_link", "incline": "up", "lanes": "1", "lanes:conditional": "2@(tunnel Mr\u00e1zovka is closed)", "layer": "-1", "lit": "24/7", "maxheight": "4.8", "maxspeed": "50", "maxspeed:variable": "peak_traffic", "oneway": "yes", "source:maxspeed": "sign", "surface": "asphalt", "tunnel": "yes", "length": 30.2666501311879}}, {"type": "Feature", "geometry": {"type": "LineString", "coordinates": [[14.4314712, 50.1136384], [14.4317369, 50.1135997], [14.4320551, 50.1135682], [14.4322304, 50.113561], [14.4324523, 50.1135608]]}, "properties": {"bicycle": "no", "foot": "no", "hazmat": "no", "highway": "trunk_link", "incline": "up", "lanes": "2", "layer": "-2", "lit": "24/7", "maxheight": "4.8", "maxspeed": "50", "maxweight": "12", "motorroad": "yes", "oneway": "yes", "smoothness": "excellent", "source:maxspeed": "sign", "surface": "asphalt", "tunnel": "yes", "turn:lanes": "left|right", "length": 70.9499407351531}}, {"type": "Feature", "geometry": {"type": "LineString", "coordinates": [[14.4037864, 50.0973843], [14.4034007, 50.0973333], [14.4030632, 50.0972661], [14.4026523, 50.0971511], [14.4020053, 50.0969284]]}, "properties": {"destination": "Roztoky;Dejvice", "hazmat": "no", "highway": "trunk_link", "incline": "up", "lanes": "1", "layer": "-2", "lit": "24/7", "maxheight": "4.8", "maxspeed": "50", "maxspeed:variable": "peak_traffic", "oneway": "yes", "source:maxspeed": "sign", "surface": "asphalt", "tunnel": "yes", "length": 138.0199468342468}}, {"type": "Feature", "geometry": {"type": "LineString", "coordinates": [[14.4009347, 50.0960849], [14.4012298, 50.0961856], [14.4016106, 50.0963645], [14.401906, 50.0965357], [14.4020827, 50.0966656], [14.4022498, 50.0967897]]}, "properties": {"hazmat": "no", "highway": "trunk_link", "incline": "down", "lanes": "1", "layer": "-1", "lit": "24/7", "maxheight": "4.8", "maxspeed": "50", "maxspeed:variable": "peak_traffic", "oneway": "yes", "source:maxspeed": "sign", "surface": "asphalt", "tunnel": "yes", "length": 123.55316350311548}}, {"type": "Feature", "geometry": {"type": "LineString", "coordinates": [[14.4399136, 50.0940857], [14.4390989, 50.0940425]]}, "properties": {"cycleway": "lane", "highway": "primary", "lanes": "3", "layer": "-1", "lit": "yes", "maxspeed": "50", "name": "Rohansk\u00e9 n\u00e1b\u0159e\u017e\u00ed", "oneway": "yes", "surface": "asphalt", "tunnel": "yes", "length": 58.49418770052254}}, {"type": "Feature", "geometry": {"type": "LineString", "coordinates": [[14.3955737, 50.0952097], [14.3954367, 50.0949807], [14.3952961, 50.0947408], [14.3951811, 50.0945973], [14.3950736, 50.0944907], [14.3949196, 50.0943751], [14.3947646, 50.0942782], [14.3945398, 50.0941591]]}, "properties": {"hazmat": "no", "highway": "trunk_link", "incline": "down", "lanes": "1", "layer": "-2", "lit": "24/7", "maxheight": "4.8", "maxspeed": "50", "maxspeed:variable": "obstruction", "motorroad": "yes", "oneway": "yes", "source:maxspeed": "sign", "surface": "asphalt", "tunnel": "yes", "length": 141.14092715628698}}, {"type": "Feature", "geometry": {"type": "LineString", "coordinates": [[14.4949211, 50.136364], [14.4951437, 50.1361278], [14.495223, 50.1360497]]}, "properties": {"foot": "no", "highway": "primary", "int_ref": "E 55", "lanes": "3", "layer": "-1", "lit": "yes", "maxheight": "default", "maxspeed": "50", "motorroad": "yes", "name": "Kbelsk\u00e1", "oneway": "yes", "placement": "right_of:1", "ref": "601", "source": "cuzk:km", "surface": "asphalt", "toll": "no", "tunnel": "yes", "turn:lanes": "||merge_to_left", "length": 41.090474147226885}}, {"type": "Feature", "geometry": {"type": "LineString", "coordinates": [[14.4145207, 50.0979797], [14.4152124, 50.0980718], [14.415637, 50.0981626], [14.4159996, 50.0982577], [14.4161519, 50.0983127], [14.4164475, 50.0984195], [14.4168884, 50.098634], [14.4172463, 50.0988211], [14.417512, 50.0990077], [14.4177922, 50.0992253], [14.4180228, 50.0994293], [14.4183941, 50.0999453]]}, "properties": {"hazmat": "no", "hgv": "no", "highway": "trunk", "incline": "down", "lanes": "3", "layer": "-1", "lit": "24/7", "maxheight": "4.8", "maxspeed": "70", "maxspeed:variable": "peak_traffic", "motorroad": "yes", "name": "Bubene\u010dsk\u00fd tunel", "name:en": "Bubenec Tunnel", "note": "rychlost v tomto \u00faseku a sm\u011bru dlouhodob\u011b omezena kv\u016fli pr\u016fsak\u016fm", "oneway": "yes", "placement": "right_of:1", "ref": "MO", "source:maxspeed": "sign", "surface": "asphalt", "toll": "no", "tunnel": "yes", "turn:lanes": "none|none|merge_to_left", "length": 370.7521830218335}}, {"type": "Feature", "geometry": {"type": "LineString", "coordinates": [[14.4122472, 50.0978585], [14.4134894, 50.0979038], [14.4145207, 50.0979797]]}, "properties": {"destination": "\u00dast\u00ed nad Labem;Libe\u0148;Troja", "hazmat": "no", "hgv": "no", "highway": "trunk", "lanes": "2", "layer": "-1", "lit": "24/7", "maxheight": "4.8", "maxspeed": "70", "maxspeed:variable": "peak_traffic", "motorroad": "yes", "oneway": "yes", "ref": "MO", "source:maxspeed": "sign", "surface": "asphalt", "toll": "no", "tunnel": "yes", "length": 163.29313022647506}}, {"type": "Feature", "geometry": {"type": "LineString", "coordinates": [[14.414201, 50.0981474], [14.4133621, 50.0980498], [14.4124693, 50.097994], [14.4117396, 50.0979746]]}, "properties": {"destination": "Karlovy Vary;B\u0159evnov;Dejvice", "destination:symbol": "airport", "hazmat": "no", "hgv": "no", "highway": "trunk", "lanes": "2", "layer": "-1", "lit": "24/7", "maxheight": "4.8", "maxspeed": "70", "maxspeed:variable": "peak_traffic", "motorroad": "yes", "oneway": "yes", "ref": "MO", "source:maxspeed": "sign", "surface": "asphalt", "toll": "no", "tunnel": "yes", "length": 177.43205750473246}}, {"type": "Feature", "geometry": {"type": "LineString", "coordinates": [[14.4117396, 50.0979746], [14.4097247, 50.0979432], [14.4080975, 50.097927], [14.4077107, 50.0979232], [14.4069895, 50.097877], [14.4063212, 50.0978152], [14.4058979, 50.0977652], [14.4046552, 50.0975546], [14.4037864, 50.0973843]]}, "properties": {"destination:lanes": "Karlovy Vary;B\u0159evnov;Sm\u00edchov|Karlovy Vary;B\u0159evnov;Sm\u00edchov|Roztoky;Dejvice", "destination:symbol:lanes": "airport|airport|none", "hgv": "no", "highway": "trunk", "lanes": "3", "layer": "-2", "lit": "24/7", "maxheight": "4.8", "maxspeed": "70", "maxspeed:variable": "peak_traffic", "motorroad": "yes", "name": "Dejvick\u00fd tunel", "name:en": "Dejvice Tunnel", "oneway": "yes", "placement": "right_of:1", "ref": "MO", "source:maxspeed": "sign", "surface": "asphalt", "toll": "no", "tunnel": "yes", "turn:lanes": "||slight_right", "length": 576.2215142910453}}, {"type": "Feature", "geometry": {"type": "LineString", "coordinates": [[14.3947597, 50.0939084], [14.3955284, 50.0943222], [14.3962006, 50.0946795], [14.3967703, 50.0949227], [14.3974818, 50.0951609], [14.3998743, 50.0959488], [14.401619, 50.0965606], [14.4022498, 50.0967897]]}, "properties": {"destination": "\u00dast\u00ed nad Labem;Libe\u0148;Hole\u0161ovice", "foot": "no", "hazmat": "no", "hgv": "no", "highway": "trunk", "lanes": "2", "layer": "-1", "lit": "24/7", "maxheight": "4.8", "maxspeed": "70", "maxspeed:variable": "peak_traffic", "motorroad": "yes", "name": "Dejvick\u00fd tunel", "name:en": "Dejvice Tunnel", "oneway": "yes", "ref": "MO", "source:maxspeed": "sign", "surface": "asphalt", "toll": "no", "tunnel": "yes", "length": 626.7660139529453}}, {"type": "Feature", "geometry": {"type": "LineString", "coordinates": [[14.3945398, 50.0941591], [14.3939167, 50.0938989], [14.393533, 50.0937444], [14.3932843, 50.0936585], [14.3928754, 50.0935453], [14.3924338, 50.0934519], [14.3908559, 50.0932053], [14.3896837, 50.0929575], [14.3887557, 50.0926857], [14.3879805, 50.0924207], [14.3875145, 50.0922407], [14.3867817, 50.0919108], [14.3863051, 50.0916573], [14.3857871, 50.0913524], [14.3852046, 50.0909563], [14.3836488, 50.0897589], [14.3834379, 50.0896215], [14.3829508, 50.0893581]]}, "properties": {"destination:lanes": "Brno;Plze\u0148;Bran\u00edk;Sm\u00edchov|Brno;Plze\u0148;Bran\u00edk;Sm\u00edchov|Karlovy Vary;PO;B\u0159evnov;", "destination:symbol:lanes": "none|none|airport", "hazmat": "no", "hgv": "no", "highway": "trunk", "lanes": "3", "layer": "-1", "lit": "24/7", "maxheight": "4.8", "maxspeed": "70", "maxspeed:variable": "peak_traffic", "motorroad": "yes", "name": "Brusnick\u00fd tunel", "name:en": "Brusnice Tunnel", "oneway": "yes", "ref": "MO", "source:maxspeed": "sign", "surface": "asphalt", "toll": "no", "tunnel": "yes", "length": 1009.7797117507982}}, {"type": "Feature", "geometry": {"type": "LineString", "coordinates": [[14.4373823, 50.0939376], [14.4363975, 50.0938823], [14.4354157, 50.0938]]}, "properties": {"bicycle": "no", "carriage": "no", "foot": "no", "hazmat": "no", "highway": "primary", "lanes": "2", "layer": "-1", "lit": "yes", "loc_name": "Hus\u00e1kovo ticho", "maxheight": "4.5", "maxspeed": "50", "name": "T\u011b\u0161novsk\u00fd tunel", "oneway": "yes", "smoothness": "excellent", "source:maxspeed": "CZ:urban", "start_date": "1980", "surface": "asphalt", "tunnel": "yes", "wikidata": "Q12060228", "wikipedia": "cs:T\u011b\u0161novsk\u00fd tunel", "length": 141.5839865597893}}, {"type": "Feature", "geometry": {"type": "LineString", "coordinates": [[14.4009371, 50.0653823], [14.4007051, 50.0655907], [14.4005159, 50.0657838], [14.4002558, 50.0660986], [14.3993889, 50.067346], [14.3990921, 50.0677769], [14.3989449, 50.0679908], [14.3986291, 50.0685167], [14.3984299, 50.0689385], [14.3983362, 50.0692563], [14.3982616, 50.0696994], [14.3982456, 50.0698818], [14.398258, 50.0704173], [14.3983013, 50.0707624], [14.3983758, 50.0710917]]}, "properties": {"foot": "no", "hazmat": "no", "highway": "trunk", "lanes": "3", "layer": "-2", "lit": "24/7", "maxheight": "default", "maxspeed": "70", "maxspeed:variable": "peak_traffic", "motorroad": "yes", "name": "tunel Mr\u00e1zovka", "name:en": "Mrazovka Tunnel", "oneway": "yes", "ref": "MO", "sorting_name": "Mr\u00e1zovka", "source:maxspeed": "sign", "surface": "asphalt", "toll": "no", "tunnel": "yes", "length": 676.7401869616551}}, {"type": "Feature", "geometry": {"type": "LineString", "coordinates": [[14.3813575, 50.0857022], [14.3812215, 50.0860001], [14.3811491, 50.0862806], [14.3811082, 50.0866339]]}, "properties": {"covered": "yes", "foot": "no", "hazmat": "no", "highway": "trunk", "lanes": "3", "layer": "-1", "lit": "24/7", "maxspeed": "70", "maxspeed:variable": "peak_traffic", "motorroad": "yes", "name": "Strahovsk\u00fd tunel", "name:en": "Strahov Tunnel", "oneway": "yes", "placement": "right_of:1", "ref": "MO", "source": "survey;local_knowledge;photos", "source:maxspeed": "sign", "surface": "asphalt", "toll": "no", "tunnel": "yes", "turn:lanes": "through|through|slight_right", "length": 105.5697992050182}}, {"type": "Feature", "geometry": {"type": "LineString", "coordinates": [[14.3832663, 50.0893283], [14.383722, 50.0896027], [14.3845528, 50.0902314], [14.3852002, 50.0907212], [14.3858792, 50.091111], [14.3863489, 50.0913573], [14.3870205, 50.0916842], [14.3877536, 50.0919949], [14.3882514, 50.0921695], [14.3889031, 50.0923811], [14.3898876, 50.0926806], [14.3910304, 50.0929163], [14.3924813, 50.0931521], [14.3929911, 50.093257], [14.3935278, 50.0933921], [14.3942232, 50.0936521], [14.3947597, 50.0939084]]}, "properties": {"destination": "\u00dast\u00ed nad Labem;Libe\u0148;Hole\u0161ovice|\u00dast\u00ed nad Labem;Libe\u0148;Hole\u0161ovice|Dejvice;Roztoky", "hazmat": "no", "hgv": "no", "highway": "trunk", "lanes": "3", "layer": "-1", "lit": "24/7", "maxheight": "4.8", "maxspeed": "70", "maxspeed:variable": "peak_traffic", "motorroad": "yes", "name": "Brusnick\u00fd tunel", "name:en": "Brusnice Tunnel", "oneway": "yes", "ref": "MO", "source:maxspeed": "sign", "surface": "asphalt", "toll": "no", "tunnel": "yes", "length": 988.1493725935458}}, {"type": "Feature", "geometry": {"type": "LineString", "coordinates": [[14.4184633, 50.1020839], [14.4182476, 50.1024777], [14.4179954, 50.1028583], [14.4177379, 50.1032867], [14.4173696, 50.1040629], [14.4171767, 50.1047299], [14.417136, 50.1052969], [14.4172084, 50.106273], [14.4173973, 50.1070143], [14.4175816, 50.1075404], [14.4180612, 50.1084281], [14.4183916, 50.1089373], [14.4189471, 50.1096403], [14.4193391, 50.1100499], [14.4197709, 50.1104617], [14.4205928, 50.1111137], [14.4216156, 50.1117644], [14.4226426, 50.1123073], [14.4235609, 50.1127058], [14.4243867, 50.1130197], [14.4253732, 50.1132834], [14.42617, 50.1134629], [14.4272963, 50.1136333], [14.4283294, 50.1137382], [14.4289998, 50.1137469], [14.4295309, 50.1137484]]}, "properties": {"bicycle": "no", "foot": "no", "hazmat": "no", "hgv": "no", "highway": "trunk", "lanes": "2", "layer": "-2", "lit": "24/7", "maxheight": "4.8", "maxspeed": "70", "maxspeed:variable": "peak_traffic", "maxweight": "12", "motorroad": "yes", "name": "Bubene\u010dsk\u00fd tunel", "name:en": "Bubenec Tunnel", "oneway": "yes", "ref": "MO", "source:maxspeed": "sign", "surface": "asphalt", "toll": "no", "tunnel": "yes", "length": 1806.5610615749717}}, {"type": "Feature", "geometry": {"type": "LineString", "coordinates": [[14.4295309, 50.1137484], [14.4300986, 50.113731], [14.4311888, 50.1136839]]}, "properties": {"bicycle": "no", "destination:lanes": "Hradec Kr\u00e1lov\u00e9;\u00dast\u00ed nad Labem;Libe\u0148;Prosek|Hradec Kr\u00e1lov\u00e9;\u00dast\u00ed nad Labem;Libe\u0148;Prosek|Hole\u0161ovice;Troja;zoo", "foot": "no", "hazmat": "no", "hgv": "no", "highway": "trunk", "lanes": "3", "layer": "-1", "lit": "24/7", "maxheight": "4.8", "maxspeed": "70", "maxspeed:variable": "peak_traffic", "maxweight": "12", "motorroad": "yes", "name": "Bubene\u010dsk\u00fd tunel", "name:en": "Bubenec Tunnel", "oneway": "yes", "placement": "right_of:1", "ref": "MO", "source:maxspeed": "sign", "surface": "asphalt", "toll": "no", "tunnel": "yes", "turn:lanes": "||slight_right", "length": 118.80567144792295}}, {"type": "Feature", "geometry": {"type": "LineString", "coordinates": [[14.4311888, 50.1136839], [14.4318084, 50.1136506], [14.4326085, 50.1136478], [14.433285, 50.1136691], [14.4344494, 50.1137369], [14.4347987, 50.1137628], [14.435635, 50.1138335]]}, "properties": {"bicycle": "no", "destination": "Hradec Kr\u00e1lov\u00e9;\u00dast\u00ed nad Labem;Libe\u0148;Prosek", "foot": "no", "hazmat": "no", "hgv": "no", "highway": "trunk", "incline": "up", "lanes": "2", "layer": "-2", "lit": "24/7", "maxheight": "4.8", "maxspeed": "70", "maxspeed:variable": "peak_traffic", "maxweight": "12", "motorroad": "yes", "name": "Bubene\u010dsk\u00fd tunel", "name:en": "Bubenec Tunnel", "oneway": "yes", "ref": "MO", "shoulder": "no", "source:maxspeed": "sign", "surface": "asphalt", "toll": "no", "tunnel": "yes", "length": 319.25555224721484}}, {"type": "Feature", "geometry": {"type": "LineString", "coordinates": [[14.4022498, 50.0967897], [14.4030533, 50.0970443], [14.4038987, 50.0972717], [14.404748, 50.0974129], [14.4059515, 50.0976344], [14.4063876, 50.0976876], [14.4070271, 50.0977445], [14.4077277, 50.0977944], [14.4097864, 50.0978152], [14.4122472, 50.0978585]]}, "properties": {"destination:lanes": "\u00dast\u00ed nad Labem;Libe\u0148;Troja|\u00dast\u00ed nad Labem;Libe\u0148;Troja|Hole\u0161ovice;Bubene\u010d", "hazmat": "no", "hgv": "no", "highway": "trunk", "lanes": "3", "layer": "-3", "lit": "24/7", "maxheight": "4.8", "maxspeed": "70", "maxspeed:variable": "peak_traffic", "motorroad": "yes", "name": "Dejvick\u00fd tunel", "name:en": "Dejvice Tunnel", "oneway": "yes", "placement": "right_of:1", "ref": "MO", "shoulder": "no", "source:maxspeed": "sign", "surface": "asphalt", "toll": "no", "tunnel": "yes", "turn:lanes": "||slight_right", "length": 733.8251384535699}}, {"type": "Feature", "geometry": {"type": "LineString", "coordinates": [[14.4138834, 50.0977504], [14.4141859, 50.0978959], [14.4145207, 50.0979797]]}, "properties": {"hazmat": "no", "highway": "trunk_link", "incline": "down", "lanes": "1", "layer": "-1", "lit": "24/7", "maxheight": "4.8", "maxspeed": "50", "maxspeed:variable": "peak_traffic", "motorroad": "yes", "oneway": "yes", "source:maxspeed": "sign", "surface": "asphalt", "tunnel": "yes", "length": 52.73016602322879}}, {"type": "Feature", "geometry": {"type": "LineString", "coordinates": [[14.3952805, 50.0940066], [14.3953871, 50.0940059], [14.3955074, 50.094004], [14.3955983, 50.0940083], [14.3956741, 50.0940173], [14.3957521, 50.094032], [14.3958095, 50.0940471], [14.3958646, 50.0940651], [14.3959182, 50.0940868], [14.3960035, 50.0941325], [14.3960633, 50.0941762], [14.3961169, 50.0942295], [14.3961594, 50.0942766], [14.3963009, 50.0944629]]}, "properties": {"highway": "trunk_link", "incline": "up", "lanes": "2", "layer": "-1", "lit": "24/7", "maxheight": "4.8", "maxspeed": "50", "maxspeed:variable": "peak_traffic", "motorroad": "yes", "oneway": "yes", "source:maxspeed": "sign", "surface": "asphalt", "tunnel": "yes", "length": 98.08503737436045}}, {"type": "Feature", "geometry": {"type": "LineString", "coordinates": [[14.3985128, 50.0678734], [14.3986616, 50.0676562], [14.3989522, 50.0672321], [14.399801, 50.0659693], [14.3999382, 50.0657652], [14.4001066, 50.0655198], [14.400279, 50.0652313]]}, "properties": {"foot": "no", "hazmat": "no", "highway": "trunk", "lanes": "3", "layer": "-2", "lit": "24/7", "maxheight": "default", "maxspeed": "70", "maxspeed:variable": "peak_traffic", "motorroad": "yes", "name": "tunel Mr\u00e1zovka", "name:en": "Mrazovka Tunnel", "oneway": "yes", "ref": "MO", "sorting_name": "Mr\u00e1zovka", "source:maxspeed": "sign", "toll": "no", "tunnel": "yes", "turn:lanes": "slight_left||", "length": 319.96417674207447}}, {"type": "Feature", "geometry": {"type": "LineString", "coordinates": [[14.3951167, 50.0743156], [14.396769, 50.0736167], [14.3971579, 50.0734394], [14.3973832, 50.0733241], [14.3975656, 50.0732139]]}, "properties": {"foot": "no", "hazmat": "no", "highway": "trunk", "lanes": "2", "layer": "-1", "lit": "24/7", "maxheight": "default", "maxspeed": "70", "maxspeed:advisory": "50", "maxspeed:variable": "peak_traffic", "motorroad": "yes", "name": "Strahovsk\u00fd tunel", "name:en": "Strahov Tunnel", "oneway": "yes", "ref": "MO", "source": "survey;local_knowledge;photos; dtmp", "source:maxspeed": "sign", "surface": "asphalt", "toll": "no", "tunnel": "yes", "length": 214.17317646598607}}, {"type": "Feature", "geometry": {"type": "LineString", "coordinates": [[14.3971713, 50.073652], [14.396553, 50.0739137], [14.3957028, 50.0742339], [14.3949719, 50.0745575], [14.394296, 50.0749129], [14.3941324, 50.0750386], [14.3937474, 50.075302], [14.3933567, 50.0755904], [14.3926947, 50.0760629], [14.3912168, 50.0771714], [14.3892293, 50.07865], [14.3839525, 50.0825765], [14.3835726, 50.0828592], [14.3831502, 50.0831735], [14.3823105, 50.084002], [14.3820329, 50.084323], [14.3817229, 50.0848169], [14.3814951, 50.085279], [14.3813575, 50.0857022]]}, "properties": {"foot": "no", "hazmat": "no", "highway": "trunk", "incline": "up", "lanes": "2", "layer": "-1", "lit": "24/7", "maxheight": "default", "maxspeed": "70", "maxspeed:variable": "peak_traffic", "motorroad": "yes", "name": "Strahovsk\u00fd tunel", "name:en": "Strahov Tunnel", "oneway": "yes", "ref": "MO", "source": "survey;local_knowledge;photos; dtmp", "source:maxspeed": "sign", "surface": "asphalt", "toll": "no", "tunnel": "yes", "length": 1778.5269925242028}}, {"type": "Feature", "geometry": {"type": "LineString", "coordinates": [[14.3975656, 50.0732139], [14.3977249, 50.073088], [14.3979003, 50.0729224]]}, "properties": {"foot": "no", "hazmat": "no", "highway": "trunk", "lanes": "3", "layer": "-1", "lit": "24/7", "maxheight": "default", "maxspeed": "70", "maxspeed:advisory": "50", "maxspeed:variable": "peak_traffic", "motorroad": "yes", "name": "Strahovsk\u00fd tunel", "name:en": "Strahov Tunnel", "oneway": "yes", "ref": "MO", "source": "survey;local_knowledge;photos; dtmp", "surface": "asphalt", "toll": "no", "tunnel": "yes", "turn:lanes": "through|through;right|right", "length": 40.352182254758624}}, {"type": "Feature", "geometry": {"type": "LineString", "coordinates": [[14.4179329, 50.10003], [14.4177796, 50.099811], [14.417551, 50.0995549], [14.4170669, 50.0991512], [14.4165938, 50.0988605], [14.4162441, 50.0986752], [14.4158288, 50.0985098], [14.4150467, 50.0983106], [14.414201, 50.0981474]]}, "properties": {"bicycle": "no", "destination:lanes": "Karlovy Vary;B\u0159evnov;Dejvice|Karlovy Vary;B\u0159evnov;Dejvice|Hole\u0161ovice;Bubene\u010d", "destination:symbol:lanes": "airport|airport|none", "foot": "no", "hgv": "no", "highway": "trunk", "lanes": "3", "layer": "-1", "lit": "24/7", "maxheight": "4.8", "maxspeed": "70", "maxspeed:variable": "peak_traffic", "maxweight": "12", "motorroad": "yes", "name": "Bubene\u010dsk\u00fd tunel", "name:en": "Bubenec Tunnel", "oneway": "yes", "placement": "right_of:1", "ref": "MO", "source:maxspeed": "sign", "surface": "asphalt", "toll": "no", "tunnel": "yes", "turn:lanes": "||slight_right", "length": 353.809539134258}}, {"type": "Feature", "geometry": {"type": "LineString", "coordinates": [[14.4037864, 50.0973843], [14.4029892, 50.0971432], [14.4015463, 50.0966576], [14.3989479, 50.0957836], [14.3972803, 50.0952311], [14.3966362, 50.0950276], [14.3959416, 50.0947822], [14.3952736, 50.0945114], [14.3945398, 50.0941591]]}, "properties": {"destination": "Karlovy Vary;B\u0159evnov;Sm\u00edchov", "destination:symbol": "airport", "foot": "no", "hazmat": "no", "hgv": "no", "highway": "trunk", "lanes": "2", "layer": "-2", "lit": "24/7", "maxheight": "4.8", "maxspeed": "70", "maxspeed:variable": "peak_traffic", "motorroad": "yes", "name": "Dejvick\u00fd tunel", "name:en": "Dejvice Tunnel", "oneway": "yes", "ref": "MO", "source:maxspeed": "sign", "surface": "asphalt", "toll": "no", "tunnel": "yes", "length": 753.6375211515552}}, {"type": "Feature", "geometry": {"type": "LineString", "coordinates": [[14.3829508, 50.0893581], [14.3826557, 50.0892343], [14.3822572, 50.0890408], [14.3819489, 50.08886]]}, "properties": {"destination": "Brno;Plze\u0148;Bran\u00edk;Sm\u00edchov", "hazmat": "no", "hgv": "no", "highway": "trunk", "lanes": "2", "layer": "-1", "lit": "24/7", "maxheight": "4.8", "maxspeed": "70", "maxspeed:variable": "peak_traffic", "motorroad": "yes", "name": "Brusnick\u00fd tunel", "name:en": "Brusnice Tunnel", "oneway": "yes", "ref": "MO", "source:maxspeed": "sign", "surface": "asphalt", "toll": "no", "tunnel": "yes", "length": 90.7926361628727}}, {"type": "Feature", "geometry": {"type": "LineString", "coordinates": [[14.382562, 50.089251], [14.3818758, 50.0891025], [14.3815672, 50.0890256], [14.3812964, 50.0889412], [14.3811172, 50.0888612], [14.3809309, 50.0887488], [14.3807383, 50.0885864]]}, "properties": {"highway": "trunk_link", "incline": "up", "lanes": "2", "layer": "-2", "lit": "24/7", "maxheight": "4.8", "maxspeed": "50", "oneway": "yes", "placement": "middle_of:2", "source:maxspeed": "CZ:urban", "surface": "asphalt", "tunnel": "yes", "length": 153.63477980941337}}, {"type": "Feature", "geometry": {"type": "LineString", "coordinates": [[14.3812886, 50.084761], [14.3816078, 50.0841758], [14.3819028, 50.0838213], [14.3827746, 50.0830055], [14.3835578, 50.0824168], [14.3839277, 50.0821405], [14.3901184, 50.0775165], [14.3918632, 50.0762109], [14.3929884, 50.0753975], [14.3934565, 50.0750851], [14.3940412, 50.0747735], [14.3948681, 50.0744214], [14.3951167, 50.0743156]]}, "properties": {"foot": "no", "hazmat": "no", "highway": "trunk", "incline": "down", "lanes": "2", "layer": "-1", "lit": "24/7", "maxheight": "default", "maxspeed": "70", "maxspeed:variable": "peak_traffic", "motorroad": "yes", "name": "Strahovsk\u00fd tunel", "name:en": "Strahov Tunnel", "oneway": "yes", "ref": "MO", "source:maxspeed": "sign", "surface": "asphalt", "toll": "no", "tunnel": "yes", "length": 1537.0860380260042}}, {"type": "Feature", "geometry": {"type": "LineString", "coordinates": [[14.381027, 50.085642], [14.3811142, 50.0852239], [14.3812886, 50.084761]]}, "properties": {"foot": "no", "hazmat": "no", "highway": "trunk", "incline": "down", "lanes": "2", "layer": "-1", "lit": "24/7", "maxheight": "default", "maxspeed": "70", "maxspeed:variable": "peak_traffic", "motorroad": "yes", "name": "Strahovsk\u00fd tunel", "name:en": "Strahov Tunnel", "oneway": "yes", "ref": "MO", "surface": "asphalt", "toll": "no", "tunnel": "yes", "length": 99.9024057693477}}, {"type": "Feature", "geometry": {"type": "LineString", "coordinates": [[14.4355887, 50.113931], [14.4348067, 50.1138745]]}, "properties": {"bicycle": "no", "foot": "no", "hazmat": "no", "hgv": "no", "highway": "trunk", "incline": "down", "lanes": "2", "layer": "-2", "lit": "24/7", "maxheight": "4.8", "maxspeed": "70", "maxspeed:variable": "peak_traffic", "maxweight": "12", "motorroad": "yes", "name": "Bubene\u010dsk\u00fd tunel", "name:en": "Bubenec Tunnel", "oneway": "yes", "ref": "MO", "source:maxspeed": "sign", "surface": "asphalt", "toll": "no", "tunnel": "yes", "length": 56.28545858126739}}, {"type": "Feature", "geometry": {"type": "LineString", "coordinates": [[14.3416268, 50.0060739], [14.3415978, 50.0063377]]}, "properties": {"highway": "motorway", "int_ref": "E 50", "lanes": "4", "layer": "-1", "maxheight": "default", "maxspeed": "130", "name": "ekodukt Lochkov", "name:de": "Gr\u00fcnbr\u00fccke Lochkow", "name:en": "Lochkov Green Bridge", "oneway": "yes", "placement": "middle_of:2", "ref": "D0", "sorting_name": "Lochkov", "source:maxspeed": "CZ:motorway", "surface": "asphalt", "toll": "yes", "tunnel": "yes", "turn:lanes": "|||merge_to_left", "length": 29.415812163087995}}, {"type": "Feature", "geometry": {"type": "LineString", "coordinates": [[14.4354157, 50.0938], [14.4324642, 50.0935599]]}, "properties": {"bicycle": "no", "carriage": "no", "foot": "no", "hazmat": "no", "highway": "primary", "lanes": "2", "layer": "-1", "lit": "yes", "loc_name": "Hus\u00e1kovo ticho", "maxheight": "4.5", "maxspeed": "50", "name": "T\u011b\u0161novsk\u00fd tunel", "oneway": "yes", "smoothness": "excellent", "source:maxspeed": "CZ:urban", "start_date": "1980", "surface": "asphalt", "tunnel": "yes", "turn:lanes": "left|through", "wikidata": "Q12060228", "wikipedia": "cs:T\u011b\u0161novsk\u00fd tunel", "length": 212.8803987852001}}, {"type": "Feature", "geometry": {"type": "LineString", "coordinates": [[14.4029102, 50.0643258], [14.403046, 50.0643479], [14.4031781, 50.0643777], [14.4032965, 50.0644121], [14.4034101, 50.0644526], [14.4036331, 50.0645559]]}, "properties": {"hazmat": "no", "highway": "trunk_link", "incline": "up", "lanes": "2", "layer": "-1", "lit": "24/7", "maxspeed": "50", "maxspeed:variable": "peak_traffic", "motorroad": "yes", "oneway": "yes", "source:maxspeed": "sign", "surface": "asphalt", "tunnel": "yes", "turn:lanes": "left|right", "length": 58.321706318720814}}, {"type": "Feature", "geometry": {"type": "LineString", "coordinates": [[14.4436736, 50.0351958], [14.4437225, 50.0348318]]}, "properties": {"highway": "secondary", "lanes": "2", "lit": "yes", "maxheight": "default", "maxspeed": "50", "name": "Na Str\u017ei", "oneway": "yes", "surface": "asphalt", "tunnel": "yes", "length": 40.63891497165665}}, {"type": "Feature", "geometry": {"type": "LineString", "coordinates": [[14.4438247, 50.0348837], [14.4437909, 50.0352545]]}, "properties": {"highway": "secondary", "lanes": "2", "lit": "yes", "maxheight": "default", "maxspeed": "50", "name": "Na Str\u017ei", "oneway": "yes", "surface": "asphalt", "tunnel": "yes", "length": 41.315014548973885}}, {"type": "Feature", "geometry": {"type": "LineString", "coordinates": [[14.5041815, 50.0618812], [14.5043049, 50.0622583]]}, "properties": {"highway": "secondary", "lanes": "1", "layer": "-1", "maxheight": "default", "maxspeed": "50", "name": "Pr\u016fb\u011b\u017en\u00e1", "name:cs": "Pr\u016fb\u011b\u017en\u00e1", "name:de": "L\u00e4ngenstra\u00dfe", "oneway": "yes", "parking:lane:both": "no", "surface": "asphalt", "tunnel": "yes", "length": 42.86548341198549}}, {"type": "Feature", "geometry": {"type": "LineString", "coordinates": [[14.5041006, 50.06231], [14.5039585, 50.0619031]]}, "properties": {"highway": "secondary", "lanes": "1", "layer": "-1", "maxheight": "default", "maxspeed": "50", "name": "Pr\u016fb\u011b\u017en\u00e1", "name:cs": "Pr\u016fb\u011b\u017en\u00e1", "name:de": "L\u00e4ngenstra\u00dfe", "oneway": "yes", "parking:lane:both": "no", "surface": "asphalt", "tunnel": "yes", "length": 46.38920195495357}}, {"type": "Feature", "geometry": {"type": "LineString", "coordinates": [[14.4348067, 50.1138745], [14.434474, 50.1138589]]}, "properties": {"bicycle": "no", "foot": "no", "hazmat": "no", "hgv": "no", "highway": "trunk", "incline": "down", "lanes": "3", "layer": "-1", "lit": "24/7", "maxheight": "4.8", "maxspeed": "70", "maxspeed:variable": "peak_traffic", "maxweight": "12", "motorroad": "yes", "name": "Bubene\u010dsk\u00fd tunel", "name:en": "Bubenec Tunnel", "oneway": "yes", "placement": "right_of:1", "ref": "MO", "source:maxspeed": "sign", "surface": "asphalt", "toll": "no", "tunnel": "yes", "turn:lanes": "||merge_to_left", "length": 23.859971844336986}}, {"type": "Feature", "geometry": {"type": "LineString", "coordinates": [[14.4355661, 50.1139786], [14.4348067, 50.1138745]]}, "properties": {"bicycle": "no", "foot": "no", "hazmat": "no", "highway": "trunk_link", "horse": "no", "incline": "down", "lanes": "1", "layer": "-2", "lit": "24/7", "maxheight": "4.8", "maxspeed": "70", "maxspeed:variable": "peak_traffic", "maxweight": "12", "motorroad": "yes", "oneway": "yes", "smoothness": "excellent", "source": "Bing", "source:maxspeed": "sign", "surface": "asphalt", "toll": "no", "tunnel": "yes", "length": 55.53748529347462}}, {"type": "Feature", "geometry": {"type": "LineString", "coordinates": [[14.3980881, 50.0711487], [14.3979831, 50.0708681]]}, "properties": {"foot": "no", "hazmat": "no", "highway": "trunk", "lanes": "2", "layer": "-1", "lit": "24/7", "maxheight": "default", "maxspeed": "70", "maxspeed:variable": "peak_traffic", "motorroad": "yes", "name": "tunel Mr\u00e1zovka", "name:en": "Mr\u00e1zovka Tunnel", "oneway": "yes", "ref": "MO", "sorting_name": "Mr\u00e1zovka", "source:maxspeed": "sign", "surface": "asphalt", "toll": "no", "tunnel": "yes", "length": 32.103697618413214}}, {"type": "Feature", "geometry": {"type": "LineString", "coordinates": [[14.3980043, 50.0711581], [14.3979831, 50.0708681]]}, "properties": {"foot": "no", "hazmat": "no", "highway": "trunk_link", "lanes": "1", "layer": "-1", "lit": "24/7", "maxspeed": "70", "maxspeed:variable": "peak_traffic", "motorroad": "yes", "oneway": "yes", "source:maxspeed": "sign", "surface": "asphalt", "toll": "no", "tunnel": "yes", "length": 32.29251039335156}}, {"type": "Feature", "geometry": {"type": "LineString", "coordinates": [[14.4035364, 50.0647364], [14.4034698, 50.0647392], [14.4033518, 50.0647599], [14.402566, 50.0649291], [14.4023922, 50.0649665], [14.4016975, 50.0651043], [14.4015682, 50.0651366], [14.4014416, 50.0651731], [14.401318, 50.0652136], [14.4011812, 50.0652647], [14.4010491, 50.0653207], [14.4009371, 50.0653823]]}, "properties": {"hazmat": "no", "highway": "trunk_link", "incline": "down", "lanes": "1", "layer": "-2", "lit": "24/7", "maxspeed": "50", "maxspeed:variable": "peak_traffic", "motorroad": "yes", "oneway": "yes", "source:maxspeed": "sign", "surface": "asphalt", "tunnel": "yes", "turn:lanes": "through", "length": 201.02104669325527}}, {"type": "Feature", "geometry": {"type": "LineString", "coordinates": [[14.4061125, 50.0618366], [14.4060913, 50.0619211], [14.4060526, 50.0620753], [14.4059466, 50.0623306], [14.4057531, 50.0626795], [14.4052772, 50.0634288], [14.4050516, 50.0637286], [14.4049522, 50.063837], [14.4048411, 50.0639406], [14.404719, 50.0640389], [14.4045863, 50.0641315], [14.4044499, 50.0642143], [14.4043051, 50.064291], [14.4041526, 50.0643612], [14.4039931, 50.0644246], [14.4038272, 50.064481], [14.4035979, 50.0645412], [14.4033645, 50.0645946], [14.4031771, 50.0646321], [14.4029877, 50.0646652], [14.4024847, 50.0647367], [14.4021113, 50.0648139], [14.401945, 50.064861], [14.4017835, 50.0649147], [14.4016275, 50.0649746], [14.4014776, 50.0650406], [14.401326, 50.0651168], [14.4011825, 50.0651993], [14.4010478, 50.0652877], [14.4009371, 50.0653823]]}, "properties": {"foot": "no", "hazmat": "no", "highway": "trunk", "lanes": "2", "layer": "-2", "lit": "24/7", "maxheight": "default", "maxspeed": "70", "maxspeed:variable": "peak_traffic", "motorroad": "yes", "name": "tunel Mr\u00e1zovka", "name:en": "Mrazovka Tunnel", "oneway": "yes", "ref": "MO", "sorting_name": "Mr\u00e1zovka", "source:maxspeed": "sign", "surface": "asphalt", "toll": "no", "tunnel": "yes", "length": 582.794663222712}}, {"type": "Feature", "geometry": {"type": "LineString", "coordinates": [[14.400279, 50.0652313], [14.400362, 50.0650957], [14.4004616, 50.0649675], [14.400571, 50.0648426], [14.4006756, 50.064735], [14.4007875, 50.0646305], [14.4008452, 50.0645791], [14.4009063, 50.0645292], [14.4010143, 50.0644504], [14.4011307, 50.0643767], [14.4012548, 50.0643083], [14.4013859, 50.0642456], [14.4015236, 50.064189], [14.401667, 50.0641386], [14.4018329, 50.0640886], [14.4020027, 50.0640442], [14.4021759, 50.0640057], [14.402352, 50.0639731], [14.402536, 50.0639457], [14.4027221, 50.0639249], [14.4032317, 50.0638749], [14.4034275, 50.0638524], [14.4036204, 50.0638213], [14.4038096, 50.0637818], [14.4039941, 50.0637342], [14.4041732, 50.0636786], [14.4043202, 50.0636254], [14.4044621, 50.0635669], [14.4045986, 50.0635031], [14.4047291, 50.0634344], [14.4048531, 50.063361], [14.4050261, 50.0632292], [14.4051395, 50.0631295], [14.4055593, 50.0626226], [14.4057639, 50.0622814], [14.4058988, 50.0620239], [14.4059489, 50.0618601], [14.4059843, 50.0617444]]}, "properties": {"destination": "Brno;Strakonice;Bran\u00edk", "foot": "no", "hazmat": "no", "highway": "trunk", "lanes": "2", "layer": "-1", "lit": "24/7", "maxheight": "default", "maxspeed": "70", "maxspeed:variable": "peak_traffic", "motorroad": "yes", "name": "tunel Mr\u00e1zovka", "name:en": "Mrazovka Tunnel", "oneway": "yes", "ref": "MO", "sorting_name": "Mr\u00e1zovka", "source": "dtmp", "source:maxspeed": "sign", "surface": "asphalt", "toll": "no", "tunnel": "yes", "length": 608.0269758401759}}, {"type": "Feature", "geometry": {"type": "LineString", "coordinates": [[14.4126265, 50.0986218], [14.4126507, 50.0985684], [14.4126631, 50.0985134], [14.4126635, 50.0984578], [14.412652, 50.0984028], [14.4126286, 50.0983492], [14.4125929, 50.098297], [14.412546, 50.0982485], [14.4124888, 50.0982048], [14.4124226, 50.0981667], [14.4123486, 50.0981351], [14.412236, 50.0980963], [14.4121206, 50.0980611], [14.411996, 50.098028], [14.4118689, 50.0979992], [14.4117396, 50.0979746]]}, "properties": {"hazmat": "no", "highway": "trunk_link", "incline": "down", "lanes": "1", "layer": "-1", "lit": "24/7", "maxheight": "4.6", "maxspeed": "50", "maxspeed:variable": "peak_traffic", "motorroad": "yes", "oneway": "yes", "source:maxspeed": "sign", "surface": "asphalt", "tunnel": "yes", "length": 109.89270578950327}}, {"type": "Feature", "geometry": {"type": "LineString", "coordinates": [[14.4120496, 50.0973556], [14.4121005, 50.0973141], [14.4121752, 50.0972626], [14.4122579, 50.0972165], [14.4123475, 50.097176], [14.4124483, 50.0971402], [14.4125546, 50.0971116], [14.4126651, 50.0970907], [14.4127454, 50.0970831], [14.4128265, 50.0970815], [14.4129073, 50.0970857], [14.4129869, 50.0970959], [14.4130801, 50.0971158], [14.4131682, 50.0971437], [14.4132494, 50.0971792], [14.4133222, 50.0972215], [14.4134, 50.0972868], [14.413569, 50.097483], [14.4136137, 50.0975382], [14.4136647, 50.097591], [14.4137219, 50.0976413], [14.4137987, 50.0976982], [14.4138834, 50.0977504]]}, "properties": {"hazmat": "no", "highway": "trunk_link", "incline": "down", "lanes": "2", "layer": "-1", "lit": "24/7", "maxheight": "4.8", "maxspeed": "50", "maxspeed:variable": "peak_traffic", "motorroad": "yes", "oneway": "yes", "source:maxspeed": "sign", "surface": "asphalt", "tunnel": "yes", "length": 177.06581787439495}}, {"type": "Feature", "geometry": {"type": "LineString", "coordinates": [[14.4127881, 50.0978111], [14.4129835, 50.0977802], [14.413102, 50.0977467], [14.4131658, 50.0977136], [14.4132199, 50.097674], [14.4132629, 50.0976291], [14.4132935, 50.0975802], [14.4133107, 50.0975287], [14.4133142, 50.0974761], [14.413304, 50.0974247], [14.4132806, 50.097375], [14.4132447, 50.0973285], [14.4131973, 50.0972865], [14.4131396, 50.0972502], [14.4130733, 50.0972204], [14.413, 50.0971987], [14.4129226, 50.0971838], [14.4128421, 50.0971786], [14.4127363, 50.0971871], [14.4126333, 50.0972044], [14.4125339, 50.097229], [14.4124398, 50.097261], [14.4123606, 50.0972957], [14.4122877, 50.0973357], [14.4122218, 50.0973803], [14.4121842, 50.0974156]]}, "properties": {"hazmat": "no", "highway": "trunk_link", "incline": "up", "lanes": "2", "layer": "-1", "lit": "24/7", "maxheight": "4.8", "maxspeed": "50", "maxspeed:variable": "peak_traffic", "maxweight": "6", "motorroad": "yes", "oneway": "yes", "source:maxspeed": "sign", "surface": "asphalt", "tunnel": "yes", "length": 166.62243036589297}}, {"type": "Feature", "geometry": {"type": "LineString", "coordinates": [[14.4069356, 50.0422612], [14.406856, 50.0423126], [14.4067545, 50.042343], [14.4066339, 50.0423535], [14.406496, 50.0423391], [14.4063796, 50.0423095]]}, "properties": {"bicycle": "no", "cycleway": "no", "destination:lanes": "Strakonice|Plze\u0148", "foot": "no", "highway": "primary_link", "horse": "no", "lanes": "2", "lit": "yes", "maxheight": "default", "maxspeed": "30", "oneway": "yes", "source:maxspeed": "sign", "surface": "asphalt", "tunnel": "yes", "turn:lanes": "left|through", "length": 43.7823705381}}, {"type": "Feature", "geometry": {"type": "LineString", "coordinates": [[14.4183941, 50.0999453], [14.4185897, 50.1002948], [14.4186984, 50.1005741], [14.4187349, 50.1008494], [14.4187349, 50.1011539], [14.418663, 50.1015781], [14.4185706, 50.1018365], [14.4184633, 50.1020839]]}, "properties": {"bicycle": "no", "foot": "no", "hazmat": "no", "hgv": "no", "highway": "trunk", "lanes": "2", "layer": "-2", "lit": "24/7", "maxheight": "4.8", "maxspeed": "70", "maxspeed:variable": "peak_traffic", "maxweight": "12", "motorroad": "yes", "name": "Bubene\u010dsk\u00fd tunel", "name:en": "Bubenec Tunnel", "note": "rychlost v tomto \u00faseku a sm\u011bru dlouhodob\u011b omezena kv\u016fli pr\u016fsak\u016fm", "oneway": "yes", "ref": "MO", "source:maxspeed": "sign", "surface": "asphalt", "toll": "no", "tunnel": "yes", "length": 243.47135173432622}}, {"type": "Feature", "geometry": {"type": "LineString", "coordinates": [[14.438292, 50.0860874], [14.4389583, 50.0858557]]}, "properties": {"cycleway:left": "no", "cycleway:right": "shared_lane", "highway": "tertiary", "lanes": "2", "layer": "-1", "lit": "yes", "maxheight": "4.2", "maxspeed:type": "CZ:urban", "name": "Seifertova", "oneway": "yes", "sidewalk:both": "separate", "surface": "asphalt", "tunnel": "yes", "length": 54.204467660463486}}]}