{"type": "FeatureCollection", "features": [{"type": "Feature", "geometry": {"type": "LineString", "coordinates": [[113.309516, 23.1429537], [113.3093978, 23.1440529]]}, "properties": {"highway": "trunk", "lanes": "3", "layer": "-1", "oneway": "yes", "ref": "G324", "tunnel": "yes", "length": 122.33243433434536}}, {"type": "Feature", "geometry": {"type": "LineString", "coordinates": [[113.3287953, 23.1294763], [113.3267191, 23.1296086], [113.3259418, 23.1296597], [113.3252652, 23.129699], [113.3240507, 23.1297761], [113.3219929, 23.1299199]]}, "properties": {"highway": "trunk", "layer": "-1", "name": "\u9ec4\u57d4\u5927\u9053\u96a7\u9053", "name:en": "Huangpu Avenue Tunnel", "name:zh": "\u9ec4\u57d4\u5927\u9053\u96a7\u9053", "oneway": "yes", "tunnel": "yes", "length": 698.4662778983948}}, {"type": "Feature", "geometry": {"type": "LineString", "coordinates": [[113.3219782, 23.1298038], [113.3229974, 23.1297469], [113.3241808, 23.1296642], [113.3253772, 23.1295918], [113.3267056, 23.1295098], [113.3277362, 23.1294363], [113.3287868, 23.1293643]]}, "properties": {"highway": "trunk", "layer": "-1", "name": "\u9ec4\u57d4\u5927\u9053\u96a7\u9053", "name:en": "Huangpu Avenue Tunnel", "name:zh": "\u9ec4\u57d4\u5927\u9053\u96a7\u9053", "oneway": "yes", "tunnel": "yes", "length": 699.07549368458}}, {"type": "Feature", "geometry": {"type": "LineString", "coordinates": [[113.3274929, 23.1435961], [113.3272699, 23.1448319]]}, "properties": {"bicycle": "no", "foot": "no", "highway": "trunk", "horse": "no", "layer": "-1", "name": "\u5929\u6cb3\u5317\u96a7\u9053", "name:en": "Tianhebei Tunnel", "name:zh": "\u5929\u6cb3\u5317\u96a7\u9053", "oneway": "yes", "tunnel": "yes", "length": 138.75239048995235}}, {"type": "Feature", "geometry": {"type": "LineString", "coordinates": [[113.322744, 23.1161778], [113.3193184, 23.1164095], [113.3184709, 23.1164645], [113.3152947, 23.1166753]]}, "properties": {"bicycle": "no", "foot": "no", "highway": "secondary", "horse": "no", "lanes": "2", "layer": "-2", "name": "\u65b0\u4e2d\u8f74\u96a7\u9053", "name:en": "Xinzhongzhou Tunnel", "name:zh": "\u65b0\u4e2d\u8f74\u96a7\u9053", "oneway": "yes", "tunnel": "yes", "length": 765.0513803079302}}, {"type": "Feature", "geometry": {"type": "LineString", "coordinates": [[113.3362414, 23.1097483], [113.3331037, 23.1104991]]}, "properties": {"highway": "secondary", "lanes": "3", "name": "\u9605\u6c5f\u897f\u8def", "name:en": "Yuejiang West Road", "name:zh": "\u9605\u6c5f\u897f\u8def", "name:zh_pinyin": "yu\u00e8 ji\u0101ng x\u012b l\u00f9", "oneway": "yes", "tunnel": "yes", "length": 332.0038548780532}}, {"type": "Feature", "geometry": {"type": "LineString", "coordinates": [[113.3330821, 23.1104116], [113.3362119, 23.1096726]]}, "properties": {"highway": "secondary", "lanes": "3", "name": "\u9605\u6c5f\u897f\u8def", "name:en": "Yuejiang West Road", "name:zh": "\u9605\u6c5f\u897f\u8def", "name:zh_pinyin": "yu\u00e8 ji\u0101ng x\u012b l\u00f9", "oneway": "yes", "tunnel": "yes", "length": 330.8949916284823}}, {"type": "Feature", "geometry": {"type": "LineString", "coordinates": [[113.285738, 23.0793567], [113.2853123, 23.0791977], [113.2842839, 23.0788135]]}, "properties": {"highway": "trunk", "layer": "-1", "name": "\u65b0\u6ed8\u897f\u8def", "name:en": "Xinjiao West Road", "name:zh": "\u65b0\u6ed8\u897f\u8def", "oneway": "yes", "tunnel": "yes", "length": 160.67719468367952}}, {"type": "Feature", "geometry": {"type": "LineString", "coordinates": [[113.2843286, 23.078702], [113.2857773, 23.0792361]]}, "properties": {"highway": "trunk", "layer": "-1", "name": "\u65b0\u6ed8\u897f\u8def", "name:en": "Xinjiao West Road", "name:zh": "\u65b0\u6ed8\u897f\u8def", "oneway": "yes", "tunnel": "yes", "length": 159.78860306426247}}, {"type": "Feature", "geometry": {"type": "LineString", "coordinates": [[113.3095308, 23.0805782], [113.3084461, 23.0805711]]}, "properties": {"highway": "trunk", "layer": "-1", "oneway": "yes", "tunnel": "yes", "length": 111.14286030337048}}, {"type": "Feature", "geometry": {"type": "LineString", "coordinates": [[113.3084461, 23.0804684], [113.3095258, 23.080472]]}, "properties": {"highway": "trunk", "layer": "-1", "oneway": "yes", "tunnel": "yes", "length": 110.62857485151322}}, {"type": "Feature", "geometry": {"type": "LineString", "coordinates": [[113.3180809, 22.9995951], [113.3176457, 23.0002611], [113.3173249, 23.0008835], [113.3170808, 23.0015437], [113.3167911, 23.0024814], [113.3166237, 23.0031624], [113.3165095, 23.0037865], [113.3163958, 23.0044546], [113.3163098, 23.0050462]]}, "properties": {"highway": "trunk", "layer": "-1", "name": "\u65b0\u5149\u96a7\u9053", "name:en": "Xinguang Tunnel", "name:zh": "\u65b0\u5149\u96a7\u9053", "oneway": "yes", "source": "GPS", "tunnel": "yes", "length": 636.3109403250755}}, {"type": "Feature", "geometry": {"type": "LineString", "coordinates": [[113.3684759, 23.0898334], [113.3681927, 23.0907465]]}, "properties": {"highway": "trunk", "layer": "-1", "oneway": "yes", "tunnel": "yes", "length": 105.20186201075812}}, {"type": "Feature", "geometry": {"type": "LineString", "coordinates": [[113.3680749, 23.0907207], [113.3683469, 23.0898025]]}, "properties": {"highway": "trunk", "layer": "-1", "oneway": "yes", "tunnel": "yes", "length": 105.43579097819827}}, {"type": "Feature", "geometry": {"type": "LineString", "coordinates": [[113.3646283, 23.0764257], [113.3648099, 23.07614], [113.3649911, 23.0758026], [113.365196, 23.0754144], [113.3654297, 23.0749249], [113.3656289, 23.0745517], [113.3658262, 23.0741921], [113.3660723, 23.0737468], [113.3676063, 23.0711414]]}, "properties": {"highway": "primary", "layer": "-1", "name": "\u4ed1\u5934\u96a7\u9053", "name:en": "Luntou Tunnel", "name:zh": "\u4ed1\u5934\u96a7\u9053", "oneway": "yes", "tunnel": "yes", "length": 660.2544616741577}}, {"type": "Feature", "geometry": {"type": "LineString", "coordinates": [[113.3685804, 23.0694542], [113.3687455, 23.0692008], [113.3689163, 23.0689275], [113.3691395, 23.0686117]]}, "properties": {"highway": "primary", "layer": "-1", "oneway": "yes", "tunnel": "yes", "length": 109.51839538754928}}, {"type": "Feature", "geometry": {"type": "LineString", "coordinates": [[113.3709998, 23.0668467], [113.3714893, 23.0664184], [113.3752239, 23.0633043], [113.3757379, 23.0628244], [113.3758998, 23.0626703], [113.3760528, 23.0625145], [113.3762153, 23.0623451], [113.3763882, 23.0621694], [113.3766994, 23.0618169]]}, "properties": {"highway": "primary", "layer": "-1", "name": "\u5b98\u6d32\u96a7\u9053", "name:en": "Guanzhou Tunnel", "name:zh": "\u5b98\u6d32\u96a7\u9053", "oneway": "yes", "tunnel": "yes", "length": 807.947217254672}}, {"type": "Feature", "geometry": {"type": "LineString", "coordinates": [[113.3699134, 23.1295733], [113.3700846, 23.1302162]]}, "properties": {"highway": "trunk", "layer": "-1", "maxheight": "4.8", "oneway": "yes", "tunnel": "yes", "length": 73.32600012146722}}, {"type": "Feature", "geometry": {"type": "LineString", "coordinates": [[113.3693973, 23.1220815], [113.3694536, 23.122572]]}, "properties": {"highway": "trunk", "layer": "-1", "oneway": "yes", "tunnel": "yes", "length": 54.62602694321695}}, {"type": "Feature", "geometry": {"type": "LineString", "coordinates": [[113.369312, 23.1226031], [113.3692584, 23.1220956]]}, "properties": {"highway": "trunk", "layer": "-1", "oneway": "yes", "tunnel": "yes", "length": 56.47097508806117}}, {"type": "Feature", "geometry": {"type": "LineString", "coordinates": [[113.3691242, 23.1226902], [113.3691153, 23.1225387], [113.369103, 23.122394], [113.3690873, 23.1222163], [113.3690707, 23.1221066], [113.3690515, 23.122007], [113.3690313, 23.1219258], [113.3690065, 23.1218441]]}, "properties": {"highway": "trunk_link", "layer": "-1", "oneway": "yes", "tunnel": "yes", "length": 94.71891926094122}}, {"type": "Feature", "geometry": {"type": "LineString", "coordinates": [[113.3698825, 23.1302388], [113.369722, 23.1296641]]}, "properties": {"highway": "trunk", "layer": "-1", "maxheight": "4.8", "oneway": "yes", "tunnel": "yes", "length": 65.73438286298423}}, {"type": "Feature", "geometry": {"type": "LineString", "coordinates": [[113.3545176, 23.1666256], [113.354513, 23.1665682], [113.354519, 23.166488], [113.3545296, 23.1664205], [113.354553, 23.1663443]]}, "properties": {"highway": "motorway_link", "layer": "-1", "oneway": "yes", "tunnel": "yes", "length": 31.60355442360799}}, {"type": "Feature", "geometry": {"type": "LineString", "coordinates": [[113.2634077, 23.1848157], [113.2667214, 23.1907376]]}, "properties": {"highway": "primary", "layer": "-1", "name": "\u4e91\u57ce\u897f\u8def\u96a7\u9053", "name:en": "Yuncheng West Road Tunnel", "name:zh": "\u4e91\u57ce\u897f\u8def\u96a7\u9053", "oneway": "yes", "tunnel": "yes", "length": 738.3827793807249}}, {"type": "Feature", "geometry": {"type": "LineString", "coordinates": [[113.2666112, 23.1907961], [113.2632854, 23.1848734]]}, "properties": {"highway": "primary", "layer": "-1", "name": "\u4e91\u57ce\u897f\u8def\u96a7\u9053", "name:en": "Yuncheng West Road Tunnel", "name:zh": "\u4e91\u57ce\u897f\u8def\u96a7\u9053", "oneway": "yes", "tunnel": "yes", "length": 739.0313463382539}}, {"type": "Feature", "geometry": {"type": "LineString", "coordinates": [[113.2343546, 23.1111287], [113.2343963, 23.1110474], [113.2344248, 23.1109846], [113.2344482, 23.1109164], [113.2344624, 23.1108449], [113.2344766, 23.1107334], [113.2344807, 23.1106008], [113.2344756, 23.1104276], [113.2344678, 23.1102517], [113.2344526, 23.1100609], [113.2344371, 23.1099174], [113.2344131, 23.1097814], [113.2343622, 23.1096016], [113.234302, 23.1094524], [113.2342363, 23.1093185], [113.2341652, 23.1091841], [113.2319826, 23.1053372]]}, "properties": {"bicycle": "no", "foot": "no", "highway": "trunk", "lanes": "2", "layer": "-1", "maxspeed": "50", "name": "\u73e0\u6c5f\u96a7\u9053", "name:en": "Zhujiang Tunnel", "name:zh": "\u73e0\u6c5f\u96a7\u9053", "oneway": "yes", "tunnel": "yes", "length": 703.9219517021012}}, {"type": "Feature", "geometry": {"type": "LineString", "coordinates": [[113.2444297, 23.1012421], [113.2439644, 23.1009883], [113.2437424, 23.1008455], [113.2435119, 23.1006901], [113.2433162, 23.10055], [113.2430132, 23.1003131]]}, "properties": {"highway": "primary", "lanes": "2", "layer": "0", "name": "\u6d32\u5934\u5480\u96a7\u9053", "name:en": "Zhoutouzui Tunnel", "name:zh": "\u6d32\u5934\u5480\u96a7\u9053", "name:zh-Hans": "\u6d32\u5934\u5480\u96a7\u9053", "name:zh-Hant": "\u6d32\u982d\u5480\u96a7\u9053", "oneway": "yes", "tunnel": "yes", "length": 178.25277255472574}}, {"type": "Feature", "geometry": {"type": "LineString", "coordinates": [[113.2056975, 23.1560469], [113.2056195, 23.1561324], [113.2054928, 23.1562577], [113.2054381, 23.1563046], [113.2053764, 23.1563515], [113.205325, 23.1563827], [113.2052736, 23.1564075], [113.2052082, 23.156429], [113.2051481, 23.1564442], [113.205088, 23.1564509], [113.2050221, 23.1564543], [113.2049412, 23.1564417], [113.2048509, 23.1564075], [113.2047765, 23.1563683], [113.2047086, 23.1563164], [113.2046478, 23.1562644], [113.2045581, 23.1561818], [113.2044514, 23.1560656]]}, "properties": {"highway": "primary_link", "layer": "-1", "oneway": "yes", "tunnel": "yes", "length": 160.3936586564295}}, {"type": "Feature", "geometry": {"type": "LineString", "coordinates": [[113.2704351, 23.137462], [113.2703862, 23.1375303], [113.270351, 23.1376003], [113.2703281, 23.1376698], [113.2703076, 23.1377413], [113.2702952, 23.1378143], [113.270292, 23.1378826], [113.2703014, 23.1379544], [113.2703168, 23.1380216], [113.2703422, 23.138094], [113.2703746, 23.1381728], [113.2704179, 23.1382613], [113.2705639, 23.1385937], [113.2707007, 23.1389243], [113.2710548, 23.1397986]]}, "properties": {"highway": "trunk", "int_name": "Donghaochong Skyway", "layer": "2", "name": "\u4e1c\u6fe0\u6d8c\u9ad8\u67b6", "name:en": "Donghaochong Viaduct", "name:zh": "\u4e1c\u6fe0\u6d8c\u9ad8\u67b6", "oneway": "yes", "tunnel": "yes", "length": 276.08346305867525}}, {"type": "Feature", "geometry": {"type": "LineString", "coordinates": [[113.2556232, 23.1712902], [113.2554175, 23.1710014], [113.2553212, 23.1708444], [113.2552266, 23.1706386], [113.2551837, 23.1704339], [113.2551721, 23.1703297], [113.2551715, 23.1702308], [113.2551755, 23.170142]]}, "properties": {"bicycle": "no", "cycleway:right": "no", "foot": "no", "highway": "primary", "horse": "no", "layer": "-1", "oneway": "yes", "tunnel": "yes", "length": 138.53686108537772}}, {"type": "Feature", "geometry": {"type": "LineString", "coordinates": [[113.3990693, 23.1404297], [113.4014796, 23.1404502], [113.4017546, 23.1404347], [113.4019707, 23.1403903]]}, "properties": {"highway": "secondary", "layer": "-1", "oneway": "yes", "tunnel": "yes", "length": 297.75260933275024}}, {"type": "Feature", "geometry": {"type": "LineString", "coordinates": [[113.3993837, 23.1420515], [113.3988739, 23.1419481], [113.3985325, 23.1418544], [113.3983608, 23.141779]]}, "properties": {"highway": "motorway_link", "layer": "-1", "oneway": "yes", "tunnel": "yes", "length": 109.39058971129339}}, {"type": "Feature", "geometry": {"type": "LineString", "coordinates": [[113.3397086, 23.0048463], [113.3388671, 23.0058528], [113.3383071, 23.00657], [113.3376116, 23.0074356]]}, "properties": {"highway": "trunk", "lanes": "2", "layer": "-1", "motorroad": "yes", "name": "\u6c49\u6eaa\u96a7\u9053", "name:en": "Hanxi Tunnel", "oneway": "yes", "ref": "S111", "tunnel": "yes", "length": 358.4201524417205}}, {"type": "Feature", "geometry": {"type": "LineString", "coordinates": [[113.3375036, 23.0073566], [113.3381934, 23.0064905], [113.3387432, 23.0057707], [113.3391762, 23.0052831], [113.3396092, 23.0047729]]}, "properties": {"highway": "trunk", "lanes": "2", "layer": "-1", "motorroad": "yes", "name": "\u6c49\u6eaa\u96a7\u9053", "name:en": "Hanxi Tunnel", "oneway": "yes", "ref": "S111", "tunnel": "yes", "length": 358.55050976007436}}, {"type": "Feature", "geometry": {"type": "LineString", "coordinates": [[113.3183656, 23.1555315], [113.317504, 23.1536142]]}, "properties": {"highway": "primary", "layer": "-1", "name": "\u6797\u548c\u897f\u8def\u96a7\u9053", "name:en": "Linhe West Road Tunnel", "name:zh": "\u6797\u548c\u897f\u8def\u96a7\u9053", "oneway": "yes", "tunnel": "yes", "length": 229.9359738285777}}, {"type": "Feature", "geometry": {"type": "LineString", "coordinates": [[113.3286671, 23.1365455], [113.3287088, 23.136328], [113.3287323, 23.1361931], [113.328748, 23.1360866], [113.3287596, 23.1359823], [113.3287677, 23.1358313], [113.3287685, 23.1356944], [113.3287606, 23.1355566], [113.3287497, 23.1354273], [113.3287344, 23.1352795], [113.3287031, 23.1350266]]}, "properties": {"highway": "trunk", "layer": "-1", "motorroad": "yes", "name": "\u5929\u6cb3\u4e1c\u96a7\u9053", "name:en": "Tianhedong Tunnel", "name:zh": "\u5929\u6cb3\u4e1c\u96a7\u9053", "oneway": "yes", "tunnel": "yes", "length": 169.29372956181686}}, {"type": "Feature", "geometry": {"type": "LineString", "coordinates": [[113.3288143, 23.1350158], [113.328843, 23.1352351], [113.328861, 23.1354083], [113.3288719, 23.1355466], [113.3288776, 23.1356963], [113.328876, 23.1358416], [113.328869, 23.1359685], [113.3288598, 23.1360657], [113.3288508, 23.1361446], [113.3288352, 23.1362542], [113.328813, 23.136381], [113.3287793, 23.1365539]]}, "properties": {"highway": "trunk", "layer": "-1", "name": "\u5929\u6cb3\u4e1c\u96a7\u9053", "name:en": "Tianhedong Tunnel", "name:zh": "\u5929\u6cb3\u4e1c\u96a7\u9053", "oneway": "yes", "source": "Yahoo", "tunnel": "yes", "length": 171.35976074570578}}, {"type": "Feature", "geometry": {"type": "LineString", "coordinates": [[113.3159123, 23.0050052], [113.3159666, 23.0044319], [113.316054, 23.0038512], [113.316157, 23.0033238], [113.3163362, 23.0026933], [113.3165079, 23.0021397], [113.3168185, 23.001439], [113.3170668, 23.0008672], [113.3174867, 23.0001573], [113.317913, 22.9995281]]}, "properties": {"highway": "trunk", "layer": "-1", "name": "\u65b0\u5149\u96a7\u9053", "name:en": "Xinguang Tunnel", "name:zh": "\u65b0\u5149\u96a7\u9053", "oneway": "yes", "tunnel": "yes", "length": 648.0131446528742}}, {"type": "Feature", "geometry": {"type": "LineString", "coordinates": [[113.3386297, 23.1287814], [113.3375594, 23.1288582]]}, "properties": {"highway": "trunk", "layer": "-1", "maxspeed": "50", "name": "\u9ec4\u57d4\u5927\u9053-\u9a6c\u573a\u8def\u96a7\u9053", "name:en": "Huangpu Avenue - Machang RoadTunnel", "name:zh": "\u9ec4\u57d4\u5927\u9053-\u9a6c\u573a\u8def\u96a7\u9053", "oneway": "yes", "tunnel": "yes", "length": 109.95491194936177}}, {"type": "Feature", "geometry": {"type": "LineString", "coordinates": [[113.3421594, 23.1513678], [113.3422684, 23.1515453], [113.3423749, 23.1516947], [113.3424511, 23.1517893], [113.3425364, 23.1518866], [113.3426587, 23.1520247], [113.3427656, 23.1521435], [113.3428636, 23.1522459], [113.3429758, 23.1523536], [113.3430818, 23.1524567], [113.3432165, 23.1525676]]}, "properties": {"bicycle": "no", "foot": "no", "highway": "secondary", "horse": "no", "name": "\u4e94\u5c71\u8def", "name:en": "Wushan Road", "name:zh": "\u4e94\u5c71\u8def", "oneway": "yes", "source": "GPS", "tunnel": "yes", "length": 172.1696807586467}}, {"type": "Feature", "geometry": {"type": "LineString", "coordinates": [[113.3441051, 23.1531482], [113.3442607, 23.1532612], [113.3443861, 23.1533574], [113.3445395, 23.1534882], [113.3447191, 23.1536516], [113.3449481, 23.1538727], [113.3450872, 23.1540083], [113.345209, 23.1541317], [113.3453232, 23.1542464]]}, "properties": {"bicycle": "no", "foot": "no", "highway": "secondary", "horse": "no", "layer": "-1", "name": "\u4e94\u5c71\u8def", "name:en": "Wushan Road", "name:zh": "\u4e94\u5c71\u8def", "oneway": "yes", "source": "GPS", "tunnel": "yes", "length": 174.4886399184952}}, {"type": "Feature", "geometry": {"type": "LineString", "coordinates": [[113.337563, 23.1287497], [113.3386288, 23.1286645]]}, "properties": {"highway": "trunk", "layer": "-1", "name": "\u9ec4\u57d4\u5927\u9053-\u9a6c\u573a\u8def\u96a7\u9053", "name:en": "Huangpu Avenue - Machang RoadTunnel", "name:zh": "\u9ec4\u57d4\u5927\u9053-\u9a6c\u573a\u8def\u96a7\u9053", "oneway": "yes", "tunnel": "yes", "length": 109.57166257977818}}, {"type": "Feature", "geometry": {"type": "LineString", "coordinates": [[113.3505832, 23.1547116], [113.3510422, 23.1547464], [113.3512877, 23.1547552], [113.3515838, 23.15475], [113.3517255, 23.154737], [113.351851, 23.1547203], [113.352428, 23.154599]]}, "properties": {"bicycle": "no", "foot": "no", "highway": "tertiary", "horse": "no", "layer": "-1", "name": "\u6c47\u666f\u5317\u8def", "name:en": "Huijing North Road", "name:zh": "\u6c47\u666f\u5317\u8def", "oneway": "yes", "source": "GPS", "tunnel": "yes", "length": 190.81085578099416}}, {"type": "Feature", "geometry": {"type": "LineString", "coordinates": [[113.4482822, 23.1165253], [113.4480923, 23.1152668]]}, "properties": {"highway": "primary", "lanes": "2", "layer": "-1", "name": "\u4e30\u4e50\u5317\u8def", "name:en": "Fengle North Road", "name:zh": "\u4e30\u4e50\u5317\u8def", "oneway": "yes", "source": "undefined", "tunnel": "yes", "length": 140.72431590558733}}, {"type": "Feature", "geometry": {"type": "LineString", "coordinates": [[113.4481795, 23.115253], [113.4483684, 23.1165166]]}, "properties": {"highway": "primary", "lanes": "2", "layer": "-1", "name": "\u4e30\u4e50\u5317\u8def", "name:en": "Fengle North Road", "name:zh": "\u4e30\u4e50\u5317\u8def", "oneway": "yes", "source": "undefined", "tunnel": "yes", "length": 141.2696510813799}}, {"type": "Feature", "geometry": {"type": "LineString", "coordinates": [[113.3558694, 23.1479519], [113.3555675, 23.147809]]}, "properties": {"bicycle": "no", "foot": "no", "highway": "tertiary", "horse": "no", "layer": "-1", "tunnel": "yes", "length": 34.73264096966448}}, {"type": "Feature", "geometry": {"type": "LineString", "coordinates": [[113.3183327, 23.126508], [113.3183631, 23.1264667], [113.3184011, 23.1264298], [113.318451, 23.1263947], [113.3185083, 23.1263607], [113.318577, 23.1263298], [113.3186571, 23.1263115], [113.3187267, 23.1263047], [113.3188267, 23.126297], [113.3196697, 23.1262316], [113.3197597, 23.1262291], [113.3198311, 23.1262448], [113.3198921, 23.1262744], [113.3199507, 23.1263063], [113.3200014, 23.1263469], [113.3200427, 23.1263902], [113.320077, 23.1264386]]}, "properties": {"highway": "secondary", "layer": "-1", "oneway": "yes", "tunnel": "yes", "length": 195.3751611078535}}, {"type": "Feature", "geometry": {"type": "LineString", "coordinates": [[113.3206694, 23.1259571], [113.3178718, 23.1261888]]}, "properties": {"highway": "secondary", "layer": "-1", "name": "\u91d1\u7a57\u8def\u96a7\u9053", "name:en": "Jinsuilu Tunnel", "name:zh": "\u91d1\u7a57\u8def\u96a7\u9053", "oneway": "yes", "tunnel": "yes", "length": 287.69657485573214}}, {"type": "Feature", "geometry": {"type": "LineString", "coordinates": [[113.3178554, 23.1261072], [113.3206627, 23.125871]]}, "properties": {"highway": "secondary", "layer": "-1", "name": "\u91d1\u7a57\u8def\u96a7\u9053", "name:en": "Jinsuilu Tunnel", "name:zh": "\u91d1\u7a57\u8def\u96a7\u9053", "oneway": "yes", "tunnel": "yes", "length": 288.73107227754656}}, {"type": "Feature", "geometry": {"type": "LineString", "coordinates": [[113.3098578, 23.1217678], [113.3098612, 23.1231366]]}, "properties": {"highway": "trunk", "layer": "-1", "name": "\u5e7f\u5dde\u5927\u9053\u73e0\u6c5f\u65b0\u57ce\u96a7\u9053", "name:en": "Zhujiang New Town Tunnel", "name:zh": "\u5e7f\u5dde\u5927\u9053\u73e0\u6c5f\u65b0\u57ce\u96a7\u9053", "oneway": "yes", "ref": "G105;G324", "tunnel": "yes", "length": 151.5891470249432}}, {"type": "Feature", "geometry": {"type": "LineString", "coordinates": [[113.3097294, 23.1231292], [113.3097317, 23.1217683]]}, "properties": {"highway": "trunk", "layer": "-1", "name": "\u5e7f\u5dde\u5927\u9053\u73e0\u6c5f\u65b0\u57ce\u96a7\u9053", "name:en": "Zhujiang New Town Tunnel", "name:zh": "\u5e7f\u5dde\u5927\u9053\u73e0\u6c5f\u65b0\u57ce\u96a7\u9053", "oneway": "yes", "ref": "G105;G324", "tunnel": "yes", "length": 150.71403982104235}}, {"type": "Feature", "geometry": {"type": "LineString", "coordinates": [[113.3281606, 23.1216348], [113.3281985, 23.1203526]]}, "properties": {"highway": "trunk", "layer": "-1", "name": "\u82b1\u57ce\u5927\u9053\u96a7\u9053", "name:en": "Huacheng Avenue Tunnel", "name:zh": "\u82b1\u57ce\u5927\u9053\u96a7\u9053", "oneway": "yes", "tunnel": "yes", "length": 142.0511985473432}}, {"type": "Feature", "geometry": {"type": "LineString", "coordinates": [[113.3283266, 23.120369], [113.3282836, 23.121634]]}, "properties": {"highway": "trunk", "layer": "-1", "name": "\u82b1\u57ce\u5927\u9053\u96a7\u9053", "name:en": "Huacheng Avenue Tunnel", "name:zh": "\u82b1\u57ce\u5927\u9053\u96a7\u9053", "oneway": "yes", "tunnel": "yes", "length": 140.1625371174866}}, {"type": "Feature", "geometry": {"type": "LineString", "coordinates": [[113.3201652, 23.1163329], [113.3193335, 23.1163852], [113.3192996, 23.1163875], [113.3192657, 23.1164003], [113.319199, 23.1164459]]}, "properties": {"bicycle": "no", "foot": "no", "highway": "secondary", "horse": "no", "lanes": "2", "layer": "-1", "oneway": "yes", "tunnel": "yes", "length": 101.12006992849258}}, {"type": "Feature", "geometry": {"type": "LineString", "coordinates": [[113.3179933, 23.1163835], [113.318863, 23.1163245], [113.3188926, 23.1163181], [113.3189353, 23.1162994], [113.3189929, 23.1162542]]}, "properties": {"access": "no", "highway": "secondary", "lanes": "2", "layer": "-1", "motor_vehicle": "yes", "oneway": "yes", "tunnel": "yes", "length": 105.01733834978302}}, {"type": "Feature", "geometry": {"type": "LineString", "coordinates": [[113.3152765, 23.1165845], [113.3227357, 23.1160837]]}, "properties": {"bicycle": "no", "foot": "no", "highway": "secondary", "horse": "no", "lanes": "2", "layer": "-2", "name": "\u65b0\u4e2d\u8f74\u96a7\u9053", "name:en": "Xinzhongzhou Tunnel", "name:zh": "\u65b0\u4e2d\u8f74\u96a7\u9053", "oneway": "yes", "tunnel": "yes", "length": 766.0893905643675}}, {"type": "Feature", "geometry": {"type": "LineString", "coordinates": [[113.320345, 23.1257935], [113.3202598, 23.1258099], [113.3182313, 23.1259842], [113.3181563, 23.1259761]]}, "properties": {"highway": "secondary_link", "layer": "-1", "oneway": "yes", "tunnel": "yes", "length": 225.31635972772196}}, {"type": "Feature", "geometry": {"type": "LineString", "coordinates": [[113.3175461, 23.1217984], [113.3208175, 23.1215281]]}, "properties": {"bicycle": "no", "foot": "no", "highway": "primary", "horse": "no", "lanes": "3", "layer": "-1", "name": "CBD\u96a7\u9053", "name:en": "CBD Tunnel", "name:zh": "CBD\u96a7\u9053", "oneway": "yes", "tunnel": "yes", "length": 336.4252943654471}}, {"type": "Feature", "geometry": {"type": "LineString", "coordinates": [[113.3208302, 23.1216448], [113.3175497, 23.1219167]]}, "properties": {"bicycle": "no", "foot": "no", "highway": "primary", "horse": "no", "lanes": "3", "layer": "-1", "name": "CBD\u96a7\u9053", "name:en": "CBD Tunnel", "name:zh": "CBD\u96a7\u9053", "oneway": "yes", "tunnel": "yes", "length": 337.3692019873292}}, {"type": "Feature", "geometry": {"type": "LineString", "coordinates": [[113.3207332, 23.152466], [113.3213795, 23.1538959], [113.3214226, 23.1540124], [113.3214463, 23.1541187], [113.3214483, 23.1542362], [113.3214249, 23.154358], [113.3213742, 23.154466], [113.3212985, 23.1545494], [113.3212123, 23.1546194], [113.3211, 23.1546958], [113.3206326, 23.1549588]]}, "properties": {"highway": "primary", "layer": "-1", "name": "\u6797\u548c\u4e2d\u8def\u96a7\u9053", "name:en": "Linhe Middle Road Tunnel", "name:zh": "\u6797\u548c\u4e2d\u8def\u96a7\u9053", "oneway": "yes", "tunnel": "yes", "length": 331.1532368491717}}, {"type": "Feature", "geometry": {"type": "LineString", "coordinates": [[113.4020872, 23.140753], [113.4020618, 23.1407155], [113.4020233, 23.1406787], [113.4019731, 23.1406408], [113.4018983, 23.1406094], [113.4018223, 23.1405823], [113.4017326, 23.1405626], [113.4016472, 23.1405499], [113.4014299, 23.1405482], [113.3990705, 23.1405227]]}, "properties": {"highway": "secondary", "layer": "-1", "oneway": "yes", "tunnel": "yes", "length": 316.17711208893104}}, {"type": "Feature", "geometry": {"type": "LineString", "coordinates": [[113.2938151, 23.1055381], [113.2943158, 23.1055243], [113.2947888, 23.1055036]]}, "properties": {"bicycle": "yes", "cycleway": "lane", "highway": "secondary", "lanes": "2", "layer": "-1", "name": "\u4e2d\u5927\u5317\u95e8\u96a7\u9053", "name:en": "Zhongda Beimen Tunnel", "name:zh": "\u4e2d\u5927\u5317\u95e8\u96a7\u9053", "oneway": "yes", "tunnel": "yes", "length": 99.82538704490639}}, {"type": "Feature", "geometry": {"type": "LineString", "coordinates": [[113.3287084, 23.1044745], [113.3285464, 23.1040151]]}, "properties": {"highway": "tertiary", "layer": "-1", "oneway": "yes", "tunnel": "yes", "length": 53.51483816045912}}, {"type": "Feature", "geometry": {"type": "LineString", "coordinates": [[113.2894235, 23.156688], [113.2895754, 23.1571219]]}, "properties": {"highway": "secondary", "name": "\u6a2a\u679d\u5c97\u8def", "name:en": "Hengzhigang Road", "name:zh": "\u6a2a\u679d\u5c97\u8def", "oneway": "yes", "tunnel": "yes", "length": 50.50773432961053}}, {"type": "Feature", "geometry": {"type": "LineString", "coordinates": [[113.2723379, 23.1800758], [113.272469, 23.1805303], [113.2724729, 23.180609], [113.2724617, 23.1806798], [113.2724328, 23.1807768], [113.2723978, 23.1808447], [113.2723095, 23.1809591], [113.2722298, 23.1810385]]}, "properties": {"highway": "secondary_link", "layer": "-1", "name": "\u91d1\u56ed\u8def", "name:en": "Jinyuan Road", "name:zh": "\u91d1\u56ed\u8def", "oneway": "yes", "tunnel": "yes", "length": 115.77533635739988}}, {"type": "Feature", "geometry": {"type": "LineString", "coordinates": [[113.4086607, 23.1690286], [113.4103577, 23.1688396]]}, "properties": {"highway": "primary", "layer": "-1", "oneway": "yes", "source": "GPS", "tunnel": "yes", "length": 175.01958975967344}}, {"type": "Feature", "geometry": {"type": "LineString", "coordinates": [[113.410372, 23.1689576], [113.4086583, 23.1691377]]}, "properties": {"highway": "primary", "layer": "-1", "name": "\u79d1\u5b66\u5927\u9053", "name:en": "Kexue Avenue", "name:zh": "\u79d1\u5b66\u5927\u9053", "oneway": "yes", "source": "GPS", "tunnel": "yes", "length": 176.60324560647908}}, {"type": "Feature", "geometry": {"type": "LineString", "coordinates": [[113.2536256, 23.1645788], [113.2537881, 23.1648602]]}, "properties": {"highway": "primary", "layer": "-1", "name": "\u5e7f\u56ed\u897f\u8def", "name:en": "Guangyuan West Road", "name:zh": "\u5e7f\u56ed\u897f\u8def", "oneway": "yes", "tunnel": "yes", "length": 35.32807647977246}}, {"type": "Feature", "geometry": {"type": "LineString", "coordinates": [[113.2536141, 23.1649395], [113.2534599, 23.1646615]]}, "properties": {"highway": "primary", "layer": "-1", "name": "\u5e7f\u56ed\u897f\u8def", "name:en": "Guangyuan West Road", "name:zh": "\u5e7f\u56ed\u897f\u8def", "oneway": "yes", "tunnel": "yes", "length": 34.600345473016915}}, {"type": "Feature", "geometry": {"type": "LineString", "coordinates": [[113.2612673, 23.1800955], [113.2602963, 23.1805467]]}, "properties": {"highway": "tertiary", "layer": "-1", "name": "\u4e91\u57ce\u897f\u8def\u96a7\u9053", "name:en": "Yuncheng West Road Tunnel", "name:zh": "\u4e91\u57ce\u897f\u8def\u96a7\u9053", "oneway": "yes", "tunnel": "yes", "length": 111.26794896834495}}, {"type": "Feature", "geometry": {"type": "LineString", "coordinates": [[113.2602346, 23.1804407], [113.261207, 23.1799892]]}, "properties": {"highway": "tertiary", "layer": "-1", "name": "\u4e91\u57ce\u897f\u8def\u96a7\u9053", "name:en": "Yuncheng West Road Tunnel", "name:zh": "\u4e91\u57ce\u897f\u8def\u96a7\u9053", "oneway": "yes", "tunnel": "yes", "length": 111.41101748626527}}, {"type": "Feature", "geometry": {"type": "LineString", "coordinates": [[113.4420058, 23.0047604], [113.44273, 23.0048987]]}, "properties": {"highway": "tertiary", "layer": "-1", "tunnel": "yes", "length": 75.80748675550481}}, {"type": "Feature", "geometry": {"type": "LineString", "coordinates": [[113.2430132, 23.1003131], [113.2407361, 23.0988666], [113.2403352, 23.0986174], [113.2399952, 23.0984107], [113.2399469, 23.0983852]]}, "properties": {"bicycle": "no", "foot": "no", "highway": "primary", "horse": "no", "layer": "-1", "name": "\u6d32\u5934\u5480\u96a7\u9053", "name:en": "Zhoutouzui Tunnel", "name:zh": "\u6d32\u5934\u5480\u96a7\u9053", "name:zh-Hans": "\u6d32\u5934\u5480\u96a7\u9053", "name:zh-Hant": "\u6d32\u982d\u5480\u96a7\u9053", "oneway": "yes", "tunnel": "yes", "length": 379.84906181522473}}, {"type": "Feature", "geometry": {"type": "LineString", "coordinates": [[113.2430778, 23.1002297], [113.243376, 23.1003676], [113.2436248, 23.1004931], [113.2438786, 23.1006248], [113.2444474, 23.100941]]}, "properties": {"highway": "primary", "lanes": "2", "layer": "0", "name": "\u6d32\u5934\u5480\u96a7\u9053", "name:en": "Zhoutouzui Tunnel", "name:zh": "\u6d32\u5934\u5480\u96a7\u9053", "name:zh-Hans": "\u6d32\u5934\u5480\u96a7\u9053", "name:zh-Hant": "\u6d32\u982d\u5480\u96a7\u9053", "oneway": "yes", "tunnel": "yes", "length": 160.98203392658428}}, {"type": "Feature", "geometry": {"type": "LineString", "coordinates": [[113.2359093, 23.0969759], [113.2367851, 23.0971798], [113.237242, 23.0972742], [113.2375914, 23.097359], [113.237912, 23.0974532], [113.2381968, 23.0975406], [113.2387551, 23.0977382], [113.2390082, 23.0978397], [113.2394176, 23.0980091], [113.2397916, 23.0981912], [113.2399926, 23.0983097]]}, "properties": {"highway": "primary", "layer": "-1", "name": "\u6d32\u5934\u5480\u96a7\u9053", "name:en": "Zhoutouzui Tunnel", "name:zh": "\u6d32\u5934\u5480\u96a7\u9053", "name:zh-Hans": "\u6d32\u5934\u5480\u96a7\u9053", "name:zh-Hant": "\u6d32\u982d\u5480\u96a7\u9053", "oneway": "yes", "tunnel": "yes", "length": 445.86067550360013}}, {"type": "Feature", "geometry": {"type": "LineString", "coordinates": [[113.2399469, 23.0983852], [113.239366, 23.0981662], [113.2389131, 23.0979965]]}, "properties": {"highway": "primary_link", "layer": "-1", "oneway": "yes", "tunnel": "yes", "length": 114.32485045062157}}, {"type": "Feature", "geometry": {"type": "LineString", "coordinates": [[113.2430655, 23.11681], [113.2427317, 23.1178525]]}, "properties": {"highway": "primary", "name": "\u5eb7\u738b\u8def\u96a7\u9053", "name:en": "Kangwang Road Tunnel", "name:zh": "\u5eb7\u738b\u8def\u96a7\u9053", "oneway": "yes", "tunnel": "yes", "length": 120.40914285406681}}, {"type": "Feature", "geometry": {"type": "LineString", "coordinates": [[113.242658, 23.1178333], [113.2429806, 23.1167861]]}, "properties": {"bicycle": "no", "foot": "no", "highway": "primary", "horse": "no", "name": "\u5eb7\u738b\u8def\u96a7\u9053", "name:en": "Kangwang Road Tunnel", "name:zh": "\u5eb7\u738b\u8def\u96a7\u9053", "oneway": "yes", "tunnel": "yes", "length": 120.58889298046424}}, {"type": "Feature", "geometry": {"type": "LineString", "coordinates": [[113.3081711, 23.0791842], [113.3082345, 23.0791389], [113.3083119, 23.0790935], [113.3084082, 23.0790589], [113.3084951, 23.0790416], [113.3085763, 23.0790337], [113.3086959, 23.0790322], [113.3087886, 23.0790438]]}, "properties": {"highway": "trunk_link", "layer": "-1", "oneway": "yes", "tunnel": "yes", "length": 67.49701026680364}}, {"type": "Feature", "geometry": {"type": "LineString", "coordinates": [[113.3084487, 23.0803943], [113.3095258, 23.0804007]]}, "properties": {"highway": "trunk_link", "layer": "-1", "oneway": "yes", "tunnel": "yes", "length": 110.36379139792481}}, {"type": "Feature", "geometry": {"type": "LineString", "coordinates": [[113.328997, 23.1032479], [113.3291356, 23.1032175], [113.3293223, 23.1032126], [113.3294589, 23.1032336], [113.3295546, 23.1032663], [113.3296854, 23.1033885]]}, "properties": {"highway": "tertiary_link", "lanes": "2", "layer": "-1", "oneway": "yes", "tunnel": "yes", "length": 77.40837151522992}}, {"type": "Feature", "geometry": {"type": "LineString", "coordinates": [[113.283373, 23.161812], [113.285702, 23.1619881]]}, "properties": {"highway": "motorway", "lanes": "3", "layer": "-1", "maxspeed": "80", "name": "\u767d\u4e91\u96a7\u9053", "name:en": "Baiyun Tunnel", "name:zh": "\u767d\u4e91\u96a7\u9053", "oneway": "yes", "ref": "S15;S81", "source": "Landsat", "toll": "yes", "tunnel": "yes", "length": 239.28534186768968}}, {"type": "Feature", "geometry": {"type": "LineString", "coordinates": [[113.2857187, 23.1621282], [113.283344, 23.1619478]]}, "properties": {"highway": "motorway", "lanes": "3", "layer": "-1", "maxspeed": "80", "name": "\u767d\u4e91\u96a7\u9053", "name:en": "Baiyun Tunnel", "name:zh": "\u767d\u4e91\u96a7\u9053", "oneway": "yes", "ref": "S15;S81", "toll": "yes", "tunnel": "yes", "length": 243.98802856765656}}, {"type": "Feature", "geometry": {"type": "LineString", "coordinates": [[113.2320602, 23.1053], [113.2336768, 23.1081495], [113.2337623, 23.1083], [113.2339008, 23.1085442], [113.2342433, 23.1091479], [113.2343155, 23.1092843], [113.234383, 23.1094218], [113.2344458, 23.1095774], [113.2344988, 23.1097648], [113.2345239, 23.109907], [113.2345398, 23.110054], [113.2345552, 23.1102471], [113.234563, 23.1104249], [113.2345682, 23.1106009], [113.234564, 23.1107383], [113.2345521, 23.1108395], [113.2345375, 23.1109108], [113.2345151, 23.1109748], [113.234475, 23.1110657], [113.2344263, 23.1111613]]}, "properties": {"bicycle": "no", "foot": "no", "highway": "trunk", "lanes": "2", "layer": "-1", "maxspeed": "50", "name": "\u73e0\u6c5f\u96a7\u9053", "name:en": "Zhujiang Tunnel", "name:zh": "\u73e0\u6c5f\u96a7\u9053", "oneway": "yes", "tunnel": "yes", "length": 712.1703449790407}}, {"type": "Feature", "geometry": {"type": "LineString", "coordinates": [[113.3274141, 23.1253257], [113.3288764, 23.1251711]]}, "properties": {"highway": "secondary", "layer": "-1", "name": "\u730e\u5fb7\u5927\u9053-\u91d1\u7a57\u8def\u96a7\u9053", "name:en": "Liede Avenue - Jinsui Road Tunnel", "name:zh": "\u730e\u5fb7\u5927\u9053-\u91d1\u7a57\u8def\u96a7\u9053", "oneway": "yes", "tunnel": "yes", "length": 150.7554154800547}}, {"type": "Feature", "geometry": {"type": "LineString", "coordinates": [[113.2564939, 23.1488657], [113.2564587, 23.1486617]]}, "properties": {"highway": "primary", "layer": "-1", "name": "\u89e3\u653e\u5317\u8def", "name:en": "Jiefang North Road", "name:zh": "\u89e3\u653e\u5317\u8def", "oneway": "yes", "tunnel": "yes", "length": 22.877989688328793}}, {"type": "Feature", "geometry": {"type": "LineString", "coordinates": [[113.2564624, 23.1481386], [113.2564826, 23.148346]]}, "properties": {"highway": "primary", "layer": "-1", "name": "\u89e3\u653e\u5317\u8def", "name:en": "Jiefang North Road", "name:zh": "\u89e3\u653e\u5317\u8def", "oneway": "yes", "tunnel": "yes", "length": 23.06170856228714}}, {"type": "Feature", "geometry": {"type": "LineString", "coordinates": [[113.3455217, 23.1196428], [113.3481689, 23.1196837]]}, "properties": {"highway": "tertiary", "layer": "-1", "name": "\u6f6d\u6751\u96a7\u9053", "name:en": "Tancun Tunnel", "name:zh": "\u6f6d\u6751\u96a7\u9053", "oneway": "yes", "tunnel": "yes", "length": 271.1956609149092}}, {"type": "Feature", "geometry": {"type": "LineString", "coordinates": [[113.3481704, 23.1197845], [113.3455262, 23.1197519]]}, "properties": {"highway": "tertiary", "layer": "-1", "name": "\u6f6d\u6751\u96a7\u9053", "name:en": "Tancun Tunnel", "name:zh": "\u6f6d\u6751\u96a7\u9053", "oneway": "yes", "tunnel": "yes", "length": 270.87438690111344}}, {"type": "Feature", "geometry": {"type": "LineString", "coordinates": [[113.271031, 23.139813], [113.2709924, 23.1397167], [113.2708472, 23.1393488], [113.2707207, 23.1390335], [113.2705745, 23.1386783], [113.2704481, 23.1383885], [113.2703641, 23.138205], [113.2703255, 23.1381132], [113.2702841, 23.137986], [113.2702702, 23.1379052], [113.2702742, 23.1378107], [113.270292, 23.1377144], [113.2703246, 23.1376026], [113.2703493, 23.1375481], [113.2703898, 23.1374845], [113.2704227, 23.137443]]}, "properties": {"bridge": "viaduct", "highway": "trunk", "layer": "2", "name": "\u4e1c\u6fe0\u6d8c\u9ad8\u67b6", "name:en": "Donghaochong Viaduct", "name:zh": "\u4e1c\u6fe0\u6d8c\u9ad8\u67b6", "oneway": "yes", "tunnel": "yes", "length": 279.9697225223575}}, {"type": "Feature", "geometry": {"type": "LineString", "coordinates": [[113.3271573, 23.1448185], [113.3273892, 23.1435785]]}, "properties": {"bicycle": "no", "foot": "no", "highway": "trunk", "horse": "no", "layer": "-1", "motorroad": "yes", "name": "\u5929\u6cb3\u5317\u96a7\u9053", "name:en": "Tianhebei Tunnel", "name:zh": "\u5929\u6cb3\u5317\u96a7\u9053", "oneway": "yes", "tunnel": "yes", "length": 139.3636333182568}}, {"type": "Feature", "geometry": {"type": "LineString", "coordinates": [[113.2948068, 23.1055754], [113.2943009, 23.1055897], [113.2938212, 23.1055971]]}, "properties": {"highway": "secondary", "name": "\u4e2d\u5927\u5317\u95e8\u96a7\u9053", "name:en": "Zhongda Beimen Tunnel", "name:zh": "\u4e2d\u5927\u5317\u95e8\u96a7\u9053", "oneway": "yes", "tunnel": "yes", "length": 100.99846963042468}}, {"type": "Feature", "geometry": {"type": "LineString", "coordinates": [[113.2390326, 23.0977465], [113.2393127, 23.0978647], [113.2396192, 23.0980387], [113.2399926, 23.0983097]]}, "properties": {"highway": "primary_link", "layer": "-1", "oneway": "yes", "tunnel": "yes", "length": 117.00417591291517}}, {"type": "Feature", "geometry": {"type": "LineString", "coordinates": [[113.3288909, 23.1252576], [113.3274264, 23.1254127]]}, "properties": {"highway": "secondary", "layer": "-1", "name": "\u730e\u5fb7\u5927\u9053-\u91d1\u7a57\u8def\u96a7\u9053", "name:en": "Liede Avenue - Jinsui Road Tunnel", "name:zh": "\u730e\u5fb7\u5927\u9053-\u91d1\u7a57\u8def\u96a7\u9053", "oneway": "yes", "tunnel": "yes", "length": 150.98549423526734}}, {"type": "Feature", "geometry": {"type": "LineString", "coordinates": [[113.3431642, 23.152615], [113.3430473, 23.1525157], [113.3429163, 23.1523947], [113.3427466, 23.1522271], [113.3426553, 23.1521302], [113.3425164, 23.1519711], [113.3424013, 23.1518365], [113.3423363, 23.1517593], [113.3422631, 23.1516639], [113.342202, 23.1515843], [113.3420808, 23.1514034]]}, "properties": {"bicycle": "no", "foot": "no", "highway": "secondary", "horse": "no", "name": "\u4e94\u5c71\u8def", "name:en": "Wushan Road", "name:zh": "\u4e94\u5c71\u8def", "oneway": "yes", "tunnel": "yes", "length": 174.69281730932207}}, {"type": "Feature", "geometry": {"type": "LineString", "coordinates": [[113.3452566, 23.1542938], [113.3451473, 23.1541819], [113.34492, 23.1539406], [113.3447999, 23.1538205], [113.3447011, 23.1537275], [113.3444841, 23.1535337], [113.3443383, 23.1534122], [113.344212, 23.1533164], [113.3440622, 23.1532135]]}, "properties": {"bicycle": "no", "foot": "no", "highway": "secondary", "horse": "no", "layer": "-1", "name": "\u4e94\u5c71\u8def", "name:en": "Wushan Road", "name:zh": "\u4e94\u5c71\u8def", "oneway": "yes", "tunnel": "yes", "length": 171.52375476763015}}, {"type": "Feature", "geometry": {"type": "LineString", "coordinates": [[113.3524432, 23.1546768], [113.3521013, 23.1547588], [113.3518672, 23.1548047], [113.3516549, 23.1548305], [113.3514253, 23.1548386], [113.3512288, 23.1548362], [113.3509826, 23.1548238], [113.3507309, 23.1548067], [113.350584, 23.1547942]]}, "properties": {"bicycle": "no", "foot": "no", "highway": "tertiary", "horse": "no", "name": "\u6c47\u666f\u5317\u8def", "name:en": "Huijing North Road", "name:zh": "\u6c47\u666f\u5317\u8def", "oneway": "yes", "tunnel": "yes", "length": 192.4596012735194}}, {"type": "Feature", "geometry": {"type": "LineString", "coordinates": [[113.2565205, 23.1486505], [113.2565621, 23.1488546]]}, "properties": {"highway": "primary", "layer": "-1", "name": "\u89e3\u653e\u5317\u8def", "name:en": "Jiefang North Road", "name:zh": "\u89e3\u653e\u5317\u8def", "oneway": "yes", "tunnel": "yes", "length": 23.001258389871246}}, {"type": "Feature", "geometry": {"type": "LineString", "coordinates": [[113.2564174, 23.1483559], [113.2564005, 23.1481511]]}, "properties": {"highway": "primary", "layer": "-1", "name": "\u89e3\u653e\u5317\u8def", "name:en": "Jiefang North Road", "name:zh": "\u89e3\u653e\u5317\u8def", "oneway": "yes", "tunnel": "yes", "length": 22.74673723737415}}, {"type": "Feature", "geometry": {"type": "LineString", "coordinates": [[113.2895102, 23.1571364], [113.2893624, 23.1567128]]}, "properties": {"highway": "secondary", "name": "\u6a2a\u679d\u5c97\u8def", "name:en": "Hengzhigang Road", "name:zh": "\u6a2a\u679d\u5c97\u8def", "oneway": "yes", "tunnel": "yes", "length": 49.293210168008194}}, {"type": "Feature", "geometry": {"type": "LineString", "coordinates": [[113.3186392, 23.1199584], [113.3187443, 23.1196234], [113.3187893, 23.1195256], [113.3188283, 23.119485], [113.3189539, 23.1194605], [113.3191273, 23.1194557], [113.319322, 23.1194573], [113.3194688, 23.1194703], [113.3195255, 23.1194915], [113.3195662, 23.1195208], [113.3196016, 23.1195712], [113.3196538, 23.119707]]}, "properties": {"bicycle": "no", "foot": "no", "highway": "secondary_link", "horse": "no", "layer": "-1", "oneway": "yes", "tunnel": "yes", "length": 156.548991347819}}, {"type": "Feature", "geometry": {"type": "LineString", "coordinates": [[113.319199, 23.1164459], [113.3191601, 23.1164699], [113.3191149, 23.1164814], [113.3190681, 23.1164793], [113.3190244, 23.1164636], [113.3189994, 23.1164445]]}, "properties": {"highway": "secondary", "layer": "-1", "oneway": "yes", "tunnel": "yes", "length": 22.51504837594374}}, {"type": "Feature", "geometry": {"type": "LineString", "coordinates": [[113.3192106, 23.1162602], [113.3192425, 23.1162756], [113.3192667, 23.1162863], [113.3192931, 23.1162938], [113.3193316, 23.1162919], [113.3201635, 23.1162391]]}, "properties": {"bicycle": "no", "foot": "no", "highway": "secondary", "horse": "no", "lanes": "2", "layer": "-1", "oneway": "yes", "tunnel": "yes", "length": 98.62748583814107}}, {"type": "Feature", "geometry": {"type": "LineString", "coordinates": [[113.3189994, 23.1164445], [113.3189577, 23.1164319], [113.3189308, 23.1164233], [113.3189028, 23.116419], [113.3188729, 23.1164199], [113.3180043, 23.116471]]}, "properties": {"access": "no", "highway": "secondary", "lanes": "2", "layer": "-1", "motor_vehicle": "yes", "oneway": "yes", "tunnel": "yes", "length": 102.53522705481846}}, {"type": "Feature", "geometry": {"type": "LineString", "coordinates": [[113.3189929, 23.1162542], [113.3190249, 23.116231], [113.3190626, 23.1162168], [113.3191032, 23.1162127], [113.3191434, 23.116219], [113.3191801, 23.1162352], [113.3192106, 23.1162602]]}, "properties": {"highway": "secondary", "layer": "-1", "oneway": "yes", "tunnel": "yes", "length": 25.034650127585586}}, {"type": "Feature", "geometry": {"type": "LineString", "coordinates": [[113.3189994, 23.1164445], [113.3189883, 23.116436], [113.3189635, 23.1163994], [113.3189526, 23.1163574], [113.3189553, 23.11632], [113.3189691, 23.1162847], [113.3189929, 23.1162542]]}, "properties": {"highway": "secondary", "layer": "-1", "oneway": "yes", "tunnel": "yes", "length": 23.51696986743344}}, {"type": "Feature", "geometry": {"type": "LineString", "coordinates": [[113.2399926, 23.0983097], [113.2401405, 23.0983969], [113.2410307, 23.0989454], [113.2430778, 23.1002297]]}, "properties": {"bicycle": "no", "foot": "no", "highway": "primary", "horse": "no", "layer": "-1", "name": "\u6d32\u5934\u5480\u96a7\u9053", "name:en": "Zhoutouzui Tunnel", "name:zh": "\u6d32\u5934\u5480\u96a7\u9053", "name:zh-Hans": "\u6d32\u5934\u5480\u96a7\u9053", "name:zh-Hant": "\u6d32\u982d\u5480\u96a7\u9053", "oneway": "yes", "tunnel": "yes", "length": 380.9451211104198}}, {"type": "Feature", "geometry": {"type": "LineString", "coordinates": [[113.2399469, 23.0983852], [113.2394941, 23.0981461], [113.2391096, 23.097982], [113.2387561, 23.0978386], [113.2383545, 23.0976985], [113.2380421, 23.0975896], [113.2376474, 23.0974677], [113.2372755, 23.0973743], [113.2368577, 23.0972822], [113.2358966, 23.0970565]]}, "properties": {"highway": "primary", "layer": "-1", "name": "\u6d32\u5934\u5480\u96a7\u9053", "name:en": "Zhoutouzui Tunnel", "name:zh": "\u6d32\u5934\u5480\u96a7\u9053", "name:zh-Hans": "\u6d32\u5934\u5480\u96a7\u9053", "name:zh-Hant": "\u6d32\u982d\u5480\u96a7\u9053", "oneway": "yes", "tunnel": "yes", "length": 442.2119409932783}}, {"type": "Feature", "geometry": {"type": "LineString", "coordinates": [[113.4325053, 23.1613721], [113.4325012, 23.1616397], [113.4324947, 23.1618189], [113.4324993, 23.1619413], [113.4325074, 23.1621061], [113.4325177, 23.1622328], [113.4325271, 23.1623085], [113.4325473, 23.1624178], [113.4325665, 23.1625099], [113.4325995, 23.1626294], [113.4326452, 23.1627804]]}, "properties": {"highway": "secondary", "name": "\u79d1\u73e0\u8def", "name:en": "Kezhu Road", "name:zh": "\u79d1\u73e0\u8def", "name:zh_pinyin": "k\u0113 zh\u016b l\u00f9", "oneway": "yes", "tunnel": "yes", "length": 157.5300554079875}}, {"type": "Feature", "geometry": {"type": "LineString", "coordinates": [[113.4320292, 23.1627557], [113.4320136, 23.161368]]}, "properties": {"highway": "secondary", "name": "\u79d1\u73e0\u8def", "name:en": "Kezhu Road", "name:zh": "\u79d1\u73e0\u8def", "name:zh_pinyin": "k\u0113 zh\u016b l\u00f9", "oneway": "yes", "tunnel": "yes", "length": 153.69091501190135}}, {"type": "Feature", "geometry": {"type": "LineString", "coordinates": [[113.3767976, 23.0618773], [113.3762729, 23.0624494], [113.3758287, 23.0628904], [113.3753821, 23.0633211], [113.3747097, 23.063886], [113.3712884, 23.0667161], [113.3710814, 23.0669122]]}, "properties": {"highway": "primary", "layer": "-1", "name": "\u5b98\u6d32\u96a7\u9053", "name:en": "Guanzhou Tunnel", "name:zh": "\u5b98\u6d32\u96a7\u9053", "oneway": "yes", "tunnel": "yes", "length": 809.648462842371}}, {"type": "Feature", "geometry": {"type": "LineString", "coordinates": [[113.3676955, 23.0711961], [113.3670124, 23.0724347], [113.3667482, 23.0728874], [113.3665015, 23.0732954], [113.3661128, 23.0739419], [113.3659385, 23.0742508], [113.3657809, 23.0745298], [113.3655727, 23.0749278], [113.365297, 23.0754808], [113.3651385, 23.0757744], [113.3649962, 23.0760275], [113.3648754, 23.0762309], [113.3647234, 23.0764743]]}, "properties": {"highway": "primary", "layer": "-1", "name": "\u4ed1\u5934\u96a7\u9053", "name:en": "Luntou Tunnel", "name:zh": "\u4ed1\u5934\u96a7\u9053", "oneway": "yes", "tunnel": "yes", "length": 659.3159887689054}}, {"type": "Feature", "geometry": {"type": "LineString", "coordinates": [[113.3691942, 23.0686607], [113.3689665, 23.0690091], [113.3687758, 23.0693234], [113.3686525, 23.0695053]]}, "properties": {"highway": "primary", "layer": "-1", "oneway": "yes", "tunnel": "yes", "length": 108.7860209864399}}, {"type": "Feature", "geometry": {"type": "LineString", "coordinates": [[113.192567, 23.1538855], [113.1929405, 23.1538752]]}, "properties": {"highway": "primary_link", "layer": "-1", "tunnel": "yes", "length": 38.26562898723152}}, {"type": "Feature", "geometry": {"type": "LineString", "coordinates": [[113.3995104, 23.1143858], [113.3996836, 23.114765], [113.399835, 23.115108], [113.399969, 23.1154209], [113.4000943, 23.1157357], [113.4002435, 23.1161411], [113.4003746, 23.1164756], [113.4004876, 23.1168063], [113.4006009, 23.1171909], [113.4007581, 23.1176874], [113.4008332, 23.1179115]]}, "properties": {"highway": "motorway", "lanes": "3", "layer": "-1", "name": "\u5e7f\u5dde\u73af\u57ce\u9ad8\u901f", "name:en": "Guangzhou Ring Expressway", "name:zh": "\u5e7f\u5dde\u73af\u57ce\u9ad8\u901f", "oneway": "yes", "ref": "S81", "tunnel": "yes", "length": 413.7029018961612}}, {"type": "Feature", "geometry": {"type": "LineString", "coordinates": [[113.4006959, 23.1179486], [113.4006216, 23.1177273], [113.4003177, 23.1167479], [113.4001837, 23.1163809], [113.3999162, 23.1156702], [113.3997652, 23.115296], [113.3995899, 23.1149099], [113.3994078, 23.1144901], [113.3993786, 23.1144295]]}, "properties": {"highway": "motorway", "lanes": "3", "layer": "-1", "name": "\u5e7f\u5dde\u73af\u57ce\u9ad8\u901f", "name:en": "Guangzhou Ring Expressway", "name:zh": "\u5e7f\u5dde\u73af\u57ce\u9ad8\u901f", "oneway": "yes", "ref": "S81", "tunnel": "yes", "length": 412.7959920112051}}, {"type": "Feature", "geometry": {"type": "LineString", "coordinates": [[113.3998711, 23.114228], [113.400036, 23.1145779], [113.4002066, 23.1149729], [113.4003529, 23.1153677], [113.4004934, 23.1157833], [113.4006749, 23.1163656], [113.4010084, 23.1174108], [113.4010728, 23.1176264], [113.4011371, 23.117842]]}, "properties": {"highway": "trunk_link", "layer": "-1", "oneway": "yes", "tunnel": "yes", "length": 421.16135862953496}}, {"type": "Feature", "geometry": {"type": "LineString", "coordinates": [[113.3996615, 23.1143165], [113.3999179, 23.1147865], [113.4000937, 23.1151113], [113.4002675, 23.1154078], [113.4004934, 23.1157833]]}, "properties": {"highway": "motorway_link", "layer": "-1", "oneway": "yes", "tunnel": "yes", "length": 183.46931722382755}}, {"type": "Feature", "geometry": {"type": "LineString", "coordinates": [[113.4006749, 23.1163656], [113.4007096, 23.1167441], [113.4007474, 23.1170048], [113.4008057, 23.1172504], [113.4009149, 23.1176491], [113.4009869, 23.1178864]]}, "properties": {"highway": "trunk_link", "layer": "-1", "oneway": "yes", "tunnel": "yes", "length": 171.88889407018235}}, {"type": "Feature", "geometry": {"type": "LineString", "coordinates": [[113.400474, 23.1179825], [113.40037, 23.1175626], [113.4003156, 23.1173969]]}, "properties": {"highway": "trunk_link", "layer": "-1", "oneway": "yes", "tunnel": "yes", "length": 66.88470955381895}}, {"type": "Feature", "geometry": {"type": "LineString", "coordinates": [[113.4003156, 23.1173969], [113.4002852, 23.117122], [113.4002229, 23.1168614], [113.4000952, 23.1165189], [113.3998661, 23.1159301], [113.3995933, 23.1152077], [113.3994808, 23.114872], [113.3994264, 23.1146652], [113.3993786, 23.1144295]]}, "properties": {"highway": "motorway_link", "layer": "-1", "oneway": "yes", "tunnel": "yes", "length": 343.37773139611056}}, {"type": "Feature", "geometry": {"type": "LineString", "coordinates": [[113.4422427, 23.1027027], [113.442379, 23.1027374], [113.4425066, 23.1027714], [113.4430624, 23.102933], [113.4431961, 23.1029722]]}, "properties": {"highway": "trunk", "layer": "-1", "name": "\u6e2f\u6e7e\u8def\u96a7\u9053", "name:en": "Gangwan Road Tunnel", "name:zh": "\u6e2f\u6e7e\u8def\u96a7\u9053", "oneway": "yes", "ref": "G107", "tunnel": "yes", "length": 102.13924271966978}}, {"type": "Feature", "geometry": {"type": "LineString", "coordinates": [[113.4431216, 23.1031466], [113.4429394, 23.103093], [113.4425096, 23.1029726], [113.4423501, 23.1029287], [113.4421764, 23.1028848]]}, "properties": {"highway": "trunk", "layer": "-1", "name": "\u6e2f\u6e7e\u8def\u96a7\u9053", "name:en": "Gangwan Road Tunnel", "name:zh": "\u6e2f\u6e7e\u8def\u96a7\u9053", "oneway": "yes", "ref": "G107", "tunnel": "yes", "length": 101.08652562270032}}, {"type": "Feature", "geometry": {"type": "LineString", "coordinates": [[113.4003156, 23.1173969], [113.400237, 23.1171574], [113.4000215, 23.1165885], [113.3997515, 23.1159041], [113.3995083, 23.1153324], [113.3993156, 23.1149053], [113.3991228, 23.1144969]]}, "properties": {"highway": "trunk_link", "layer": "-1", "oneway": "yes", "tunnel": "yes", "length": 343.8035088222798}}, {"type": "Feature", "geometry": {"type": "LineString", "coordinates": [[113.3200705, 23.1516666], [113.3186278, 23.1516472]]}, "properties": {"access": "delivery", "highway": "tertiary", "layer": "0", "lit": "yes", "oneway": "yes", "sidewalk": "right", "tunnel": "yes", "length": 147.75912703109242}}, {"type": "Feature", "geometry": {"type": "LineString", "coordinates": [[113.3200981, 23.1514061], [113.3186302, 23.1513931]]}, "properties": {"highway": "tertiary", "layer": "0", "lit": "yes", "name:en": "Dongzhan Lu", "oneway": "yes", "sidewalk": "left", "tunnel": "yes", "length": 150.33136004465345}}, {"type": "Feature", "geometry": {"type": "LineString", "coordinates": [[113.4495694, 23.1038586], [113.4496379, 23.103859], [113.4500553, 23.103858], [113.4503992, 23.1038516], [113.4505576, 23.1038459]]}, "properties": {"highway": "trunk", "layer": "-1", "name": "\u4e30\u4e50\u8def\u96a7\u9053", "name:en": "Fengle Road Tunnel", "name:zh": "\u4e30\u4e50\u8def\u96a7\u9053", "oneway": "yes", "source": "Yahoo hires", "tunnel": "yes", "length": 101.25478071977885}}, {"type": "Feature", "geometry": {"type": "LineString", "coordinates": [[113.2599207, 23.0339075], [113.2597543, 23.0339018], [113.2597245, 23.033906]]}, "properties": {"highway": "tertiary", "layer": "-1", "surface": "asphalt", "tunnel": "yes", "length": 20.156783664345454}}, {"type": "Feature", "geometry": {"type": "LineString", "coordinates": [[113.3191601, 23.1164699], [113.3191662, 23.1166355], [113.3192451, 23.1187943], [113.3192485, 23.1188885]]}, "properties": {"highway": "secondary", "layer": "-3", "oneway": "yes", "tunnel": "yes", "length": 268.00246586575827}}, {"type": "Feature", "geometry": {"type": "LineString", "coordinates": [[113.3187893, 23.1195256], [113.3188998, 23.1191264]]}, "properties": {"highway": "secondary", "layer": "-1", "oneway": "yes", "tunnel": "yes", "length": 45.635618581484124}}, {"type": "Feature", "geometry": {"type": "LineString", "coordinates": [[113.3193215, 23.1189315], [113.3193744, 23.1189946], [113.319401, 23.1190705], [113.3193981, 23.1191502], [113.3193699, 23.1192182], [113.3193203, 23.1192749], [113.319254, 23.1193146], [113.3191776, 23.1193335], [113.3190985, 23.1193298], [113.3190246, 23.1193037], [113.3189632, 23.1192578], [113.3189202, 23.1191967], [113.3188998, 23.1191264], [113.3189059, 23.1190469], [113.3189409, 23.1189739], [113.3190006, 23.1189162], [113.319078, 23.1188804], [113.3191641, 23.1188708], [113.3192485, 23.1188885], [113.3193215, 23.1189315]]}, "properties": {"highway": "secondary", "junction": "roundabout", "layer": "-1", "tunnel": "yes", "length": 161.27390065635777}}, {"type": "Feature", "geometry": {"type": "LineString", "coordinates": [[113.319078, 23.1188804], [113.319076, 23.1187891], [113.3190282, 23.1166358], [113.3190244, 23.1164636]]}, "properties": {"highway": "secondary", "layer": "-2", "oneway": "yes", "tunnel": "yes", "length": 267.70641204920696}}, {"type": "Feature", "geometry": {"type": "LineString", "coordinates": [[113.3193981, 23.1191502], [113.3196016, 23.1195712]]}, "properties": {"highway": "secondary", "layer": "-1", "oneway": "yes", "tunnel": "yes", "length": 51.0715457928961}}, {"type": "Feature", "geometry": {"type": "LineString", "coordinates": [[113.450557, 23.1040236], [113.4503206, 23.1040327], [113.4501884, 23.1040346], [113.4499596, 23.1040368], [113.4496715, 23.1040365], [113.4495648, 23.1040353]]}, "properties": {"highway": "trunk", "layer": "-1", "name": "\u4e30\u4e50\u8def\u96a7\u9053", "name:en": "Fengle Road Tunnel", "name:zh": "\u4e30\u4e50\u8def\u96a7\u9053", "oneway": "yes", "source": "Yahoo hires", "tunnel": "yes", "length": 101.6694236973818}}, {"type": "Feature", "geometry": {"type": "LineString", "coordinates": [[113.2295135, 23.0092248], [113.2279999, 23.0091969]]}, "properties": {"highway": "primary", "lanes": "3", "layer": "-1", "name": "\u6cf0\u5c71\u8def\u96a7\u9053", "oneway": "yes", "tunnel": "yes", "length": 155.19833851679286}}, {"type": "Feature", "geometry": {"type": "LineString", "coordinates": [[113.2280102, 23.0090432], [113.22951, 23.0090539]]}, "properties": {"highway": "primary", "lanes": "3", "layer": "-1", "name": "\u6cf0\u5c71\u8def\u96a7\u9053", "oneway": "yes", "tunnel": "yes", "length": 153.75761431832865}}, {"type": "Feature", "geometry": {"type": "LineString", "coordinates": [[113.2822928, 23.139064], [113.2825223, 23.1395622]]}, "properties": {"highway": "tertiary", "layer": "-1", "name": "\u6dd8\u91d1\u8def", "oneway": "yes", "surface": "asphalt", "tunnel": "yes", "length": 59.97167253474841}}, {"type": "Feature", "geometry": {"type": "LineString", "coordinates": [[113.2820511, 23.1385541], [113.2822588, 23.1389931]]}, "properties": {"highway": "tertiary", "layer": "-1", "name": "\u6dd8\u91d1\u8def", "oneway": "yes", "sidewalk": "right", "surface": "asphalt", "tunnel": "yes", "length": 53.0675133724338}}, {"type": "Feature", "geometry": {"type": "LineString", "coordinates": [[113.2824882, 23.139577], [113.2822676, 23.1390803]]}, "properties": {"highway": "tertiary", "layer": "-1", "name": "\u6dd8\u91d1\u8def", "name:en": "Taojin Road", "name:zh": "\u6dd8\u91d1\u8def", "oneway": "yes", "surface": "asphalt", "tunnel": "yes", "length": 59.46662473502525}}, {"type": "Feature", "geometry": {"type": "LineString", "coordinates": [[113.2822312, 23.139005], [113.2820263, 23.1385638]]}, "properties": {"highway": "tertiary", "layer": "-1", "name": "\u6dd8\u91d1\u8def", "name:en": "Taojin Road", "name:zh": "\u6dd8\u91d1\u8def", "oneway": "yes", "sidewalk": "right", "surface": "asphalt", "tunnel": "yes", "length": 53.17699303533341}}, {"type": "Feature", "geometry": {"type": "LineString", "coordinates": [[113.3545659, 23.1068108], [113.3539679, 23.1068281]]}, "properties": {"cycleway:right": "track", "highway": "secondary", "lanes": "3", "layer": "-1", "name": "\u9605\u6c5f\u4e2d\u8def", "name:en": "Yuejiang Middle Road", "name:zh": "\u9605\u6c5f\u4e2d\u8def", "name:zh_pinyin": "yu\u00e8 ji\u0101ng zh\u014dng l\u00f9", "oneway": "yes", "tunnel": "yes", "length": 61.29008029674484}}, {"type": "Feature", "geometry": {"type": "LineString", "coordinates": [[113.3539641, 23.1066805], [113.3545588, 23.1066641]]}, "properties": {"highway": "secondary", "lanes": "4", "layer": "-1", "name": "\u9605\u6c5f\u4e2d\u8def", "name:en": "Yuejiang Middle Road", "name:zh": "\u9605\u6c5f\u4e2d\u8def", "name:zh_pinyin": "yu\u00e8 ji\u0101ng zh\u014dng l\u00f9", "oneway": "yes", "tunnel": "yes", "length": 60.949203690004}}, {"type": "Feature", "geometry": {"type": "LineString", "coordinates": [[113.3192106, 23.1162602], [113.3192324, 23.1162919], [113.3192439, 23.1163279], [113.3192432, 23.116371], [113.3192277, 23.1164117], [113.319199, 23.1164459]]}, "properties": {"highway": "secondary", "layer": "-1", "oneway": "yes", "tunnel": "yes", "length": 22.664974271232737}}, {"type": "Feature", "geometry": {"type": "LineString", "coordinates": [[113.3810044, 23.1059531], [113.3810985, 23.1063138], [113.3813626, 23.1072472], [113.3830855, 23.1133955], [113.383255, 23.1139964]]}, "properties": {"highway": "secondary", "layer": "-1", "name": "\u8f66\u9642\u5357\u96a7\u9053", "oneway": "yes", "tunnel": "yes", "length": 920.1181129599116}}, {"type": "Feature", "geometry": {"type": "LineString", "coordinates": [[113.3831143, 23.1138527], [113.3829665, 23.1134059], [113.3811576, 23.107172], [113.3808646, 23.1060042]]}, "properties": {"highway": "secondary", "layer": "-1", "name": "\u8f66\u9642\u5357\u96a7\u9053", "oneway": "yes", "tunnel": "yes", "length": 899.3240415613514}}, {"type": "Feature", "geometry": {"type": "LineString", "coordinates": [[113.3066425, 23.0169622], [113.3068356, 23.0168876], [113.3071324, 23.0167994], [113.308028, 23.0166156], [113.3084474, 23.0165562], [113.3092181, 23.0164846], [113.3096603, 23.0164515], [113.3102935, 23.0164125], [113.3112045, 23.0164144], [113.311854, 23.0164735], [113.3123611, 23.0165651], [113.3131365, 23.0167646], [113.3136611, 23.016805]]}, "properties": {"highway": "trunk", "name": "\u5bcc\u77f3\u8def\u96a7\u9053", "name:en": "Fushi Road Tunnel", "name:zh": "\u5bcc\u77f3\u8def\u96a7\u9053", "oneway": "yes", "tunnel": "yes", "length": 730.5800749084088}}, {"type": "Feature", "geometry": {"type": "LineString", "coordinates": [[113.3136601, 23.0169172], [113.3131268, 23.0168846], [113.3123395, 23.0167], [113.3118453, 23.0166253], [113.3111605, 23.0165474], [113.3103346, 23.0165658], [113.3092901, 23.0166274], [113.3088813, 23.0166685], [113.3080759, 23.0167619], [113.3070956, 23.0169633], [113.3066922, 23.0170975]]}, "properties": {"highway": "trunk", "name": "\u5bcc\u77f3\u8def\u96a7\u9053", "name:en": "Fushi Road Tunnel", "name:zh": "\u5bcc\u77f3\u8def\u96a7\u9053", "oneway": "yes", "tunnel": "yes", "length": 724.314395405642}}, {"type": "Feature", "geometry": {"type": "LineString", "coordinates": [[113.3541599, 23.1491701], [113.3542032, 23.1490884], [113.3543306, 23.1489988], [113.3544548, 23.1489066]]}, "properties": {"highway": "motorway_link", "layer": "-1", "oneway": "yes", "tunnel": "yes", "length": 42.7785667198046}}, {"type": "Feature", "geometry": {"type": "LineString", "coordinates": [[113.3641534, 23.0190335], [113.364914, 23.0191126], [113.3652963, 23.0191213]]}, "properties": {"highway": "trunk", "layer": "-1", "name": "\u5357\u5927\u5e72\u7ebf", "name:en": "Nanda Avenue", "name:zh": "\u5357\u5927\u5e72\u7ebf", "oneway": "yes", "tunnel": "yes", "length": 117.65892019782463}}, {"type": "Feature", "geometry": {"type": "LineString", "coordinates": [[113.3652878, 23.0192488], [113.3646303, 23.0192026], [113.3641307, 23.0191464]]}, "properties": {"highway": "trunk", "layer": "-1", "name": "\u5357\u5927\u5e72\u7ebf", "name:en": "Nanda Avenue", "name:zh": "\u5357\u5927\u5e72\u7ebf", "oneway": "yes", "tunnel": "yes", "length": 119.18275568815702}}, {"type": "Feature", "geometry": {"type": "LineString", "coordinates": [[113.3960701, 23.0190818], [113.3958794, 23.0190522], [113.3953135, 23.0190062], [113.3947468, 23.0189533], [113.3942243, 23.0189308]]}, "properties": {"highway": "trunk", "lanes": "3", "layer": "-1", "maxspeed": "80", "name": "\u5357\u5927\u5e72\u7ebf", "name:en": "Nanda Avenue", "name:zh": "\u5357\u5927\u5e72\u7ebf", "oneway": "yes", "surface": "asphalt", "tunnel": "yes", "length": 190.05838385355366}}, {"type": "Feature", "geometry": {"type": "LineString", "coordinates": [[113.3942304, 23.0188127], [113.3947846, 23.0188453], [113.3954311, 23.0188974], [113.3960954, 23.0189742]]}, "properties": {"highway": "trunk", "layer": "-1", "maxspeed": "80", "name": "\u5357\u5927\u5e72\u7ebf", "name:en": "Nanda Avenue", "name:zh": "\u5357\u5927\u5e72\u7ebf", "oneway": "yes", "tunnel": "yes", "length": 192.07230405534773}}, {"type": "Feature", "geometry": {"type": "LineString", "coordinates": [[113.4152178, 23.0307014], [113.4150364, 23.0304894], [113.4141854, 23.0297037]]}, "properties": {"highway": "trunk", "lanes": "3", "maxspeed": "80", "name": "\u91d1\u5149\u4e1c\u96a7\u9053", "name:en": "Jinguang E. Tunnel", "name:zh": "\u91d1\u5149\u4e1c\u96a7\u9053", "oneway": "yes", "tunnel": "yes", "length": 153.15449135195527}}, {"type": "Feature", "geometry": {"type": "LineString", "coordinates": [[113.4142876, 23.0296098], [113.4145502, 23.0298651], [113.4153212, 23.0306148]]}, "properties": {"highway": "trunk", "lanes": "3", "maxspeed": "80", "name": "\u91d1\u5149\u4e1c\u96a7\u9053", "name:en": "Jinguang E. Tunnel", "name:zh": "\u91d1\u5149\u4e1c\u96a7\u9053", "oneway": "yes", "tunnel": "yes", "length": 153.65988979939453}}, {"type": "Feature", "geometry": {"type": "LineString", "coordinates": [[113.4241043, 23.0405926], [113.4239732, 23.0404044], [113.4237011, 23.0400962], [113.4233455, 23.0397324], [113.4229865, 23.03943]]}, "properties": {"highway": "trunk", "lanes": "3", "maxspeed": "80", "name": "\u65b0\u9020\u8def\u96a7\u9053", "name:en": "Xinzao Road Tunnel", "name:zh": "\u65b0\u9020\u8def\u96a7\u9053", "oneway": "yes", "tunnel": "yes", "length": 172.95525734719675}}, {"type": "Feature", "geometry": {"type": "LineString", "coordinates": [[113.4231051, 23.0393368], [113.423424, 23.0396323], [113.423783, 23.0400115], [113.4240615, 23.0403222], [113.4241957, 23.0404997]]}, "properties": {"highway": "trunk", "lanes": "3", "maxspeed": "80", "name": "\u65b0\u9020\u8def\u96a7\u9053", "name:en": "Xinzao Road Tunnel", "name:zh": "\u65b0\u9020\u8def\u96a7\u9053", "oneway": "yes", "tunnel": "yes", "length": 170.7835450570471}}, {"type": "Feature", "geometry": {"type": "LineString", "coordinates": [[113.3280126, 23.1506772], [113.3282064, 23.1511763]]}, "properties": {"bicycle": "no", "foot": "no", "highway": "trunk", "horse": "no", "layer": "-1", "name": "\u5929\u5bff\u8def", "name:en": "Tianshou Road", "name:zh": "\u5929\u5bff\u8def", "oneway": "yes", "tunnel": "yes", "length": 58.728523993440724}}, {"type": "Feature", "geometry": {"type": "LineString", "coordinates": [[113.3281087, 23.1512494], [113.3278937, 23.1507068]]}, "properties": {"bicycle": "no", "foot": "no", "highway": "trunk", "horse": "no", "layer": "-1", "motorroad": "yes", "name": "\u5929\u5bff\u8def", "name:en": "Tianshou Road", "name:zh": "\u5929\u5bff\u8def", "oneway": "yes", "tunnel": "yes", "length": 63.997589078058525}}, {"type": "Feature", "geometry": {"type": "LineString", "coordinates": [[113.3275829, 23.1513251], [113.3276087, 23.1512513], [113.3276149, 23.1511705], [113.3276087, 23.1508174]]}, "properties": {"highway": "trunk_link", "layer": "-1", "oneway": "yes", "tunnel": "yes", "length": 56.669912559199254}}, {"type": "Feature", "geometry": {"type": "LineString", "coordinates": [[113.3281867, 23.1505738], [113.3284601, 23.1510018]]}, "properties": {"highway": "motorway_link", "layer": "-1", "motorroad": "yes", "oneway": "yes", "tunnel": "yes", "length": 55.05097215592454}}, {"type": "Feature", "geometry": {"type": "LineString", "coordinates": [[113.3340518, 23.0147572], [113.3319198, 23.0145861]]}, "properties": {"highway": "trunk", "name": "Panyu Avenue N. Tunnel", "name:en": "Panyu Avenue N. Tunnel", "name:zh": "\u756a\u79ba\u5927\u9053\u5317\u96a7\u9053", "oneway": "yes", "tunnel": "yes", "length": 219.37427402758524}}, {"type": "Feature", "geometry": {"type": "LineString", "coordinates": [[113.3319233, 23.0144653], [113.3340922, 23.0146102]]}, "properties": {"highway": "trunk", "name": "\u756a\u79ba\u5927\u9053\u5317\u96a7\u9053", "name:en": "Panyu Avenue N. Tunnel", "name:zh": "\u756a\u79ba\u5927\u9053\u5317\u96a7\u9053", "oneway": "yes", "tunnel": "yes", "length": 222.91563304452595}}, {"type": "Feature", "geometry": {"type": "LineString", "coordinates": [[113.3056087, 23.027873], [113.3055455, 23.0280643], [113.3054938, 23.0282763], [113.3054726, 23.028401], [113.3054535, 23.0285427], [113.3054432, 23.0286893], [113.3054284, 23.0288687], [113.3054325, 23.029148]]}, "properties": {"highway": "trunk", "lanes": "3", "layer": "-1", "maxspeed": "60", "name": "\u671d\u9633\u8def\u96a7\u9053", "name:en": "Chaoyang Road Tunnel", "name:zh": "\u671d\u9633\u8def\u96a7\u9053", "oneway": "yes", "ref": "G105;G324", "surface": "asphalt", "tunnel": "yes", "length": 143.14462073996847}}, {"type": "Feature", "geometry": {"type": "LineString", "coordinates": [[113.3053098, 23.0291535], [113.3053038, 23.0288622], [113.3053182, 23.0286346], [113.3053284, 23.0285224], [113.3053481, 23.0283801], [113.305373, 23.0282472], [113.305421, 23.0280597], [113.3054936, 23.0278403]]}, "properties": {"highway": "trunk", "lanes": "3", "layer": "-1", "maxspeed": "60", "name": "\u671d\u9633\u8def\u96a7\u9053", "name:en": "Chaoyang Road Tunnel", "name:zh": "\u671d\u9633\u8def\u96a7\u9053", "oneway": "yes", "ref": "G105;G324", "surface": "asphalt", "tunnel": "yes", "length": 147.559980603418}}, {"type": "Feature", "geometry": {"type": "LineString", "coordinates": [[113.3020242, 23.0018122], [113.302155, 23.0016814], [113.3024202, 23.0013977], [113.3026066, 23.0011821], [113.3027952, 23.0008857], [113.3029999, 23.0005453], [113.303222, 23.0000767], [113.3033548, 22.9997598], [113.3035673, 22.9990687], [113.3036301, 22.998645], [113.3036784, 22.998454], [113.3037625, 22.9982629], [113.3039242, 22.9980378], [113.3041034, 22.9978609]]}, "properties": {"highway": "trunk_link", "name": "\u98d8\u5cf0\u96a7\u9053", "name:en": "Piaofeng Tunnel", "name:zh": "\u98d8\u5cf0\u96a7\u9053", "oneway": "yes", "tunnel": "yes", "length": 495.734670998402}}, {"type": "Feature", "geometry": {"type": "LineString", "coordinates": [[113.3433225, 23.0112057], [113.3420398, 23.0112374], [113.3411999, 23.0112581], [113.3407575, 23.0112721], [113.3405415, 23.0112759], [113.340047, 23.011287], [113.339829, 23.0112593], [113.339753, 23.0112294], [113.339697, 23.0112024], [113.3396394, 23.0111555], [113.3395767, 23.011047], [113.3395676, 23.0109536], [113.3395742, 23.0104811], [113.3395864, 23.0095976], [113.3395905, 23.0093038], [113.3396289, 23.0091408], [113.3396827, 23.0090163], [113.3397556, 23.0088985], [113.3398388, 23.0087653], [113.3400558, 23.008471], [113.3401937, 23.0082713], [113.3402407, 23.0081955], [113.3406032, 23.0076746], [113.3407088, 23.0075285], [113.3408129, 23.0073843], [113.3409301, 23.007222], [113.3415182, 23.0064823], [113.3418417, 23.006006], [113.342019, 23.0057738], [113.3425222, 23.0050649]]}, "properties": {"alt_name": "\u4e3b\u73af\u8def", "highway": "tertiary", "lanes": "3", "layer": "-3", "maxspeed": "30", "name": "\u4e07\u535a\u5546\u52a1\u533a\u5730\u4e0b\u96a7\u9053\u4e3b\u73af\u8def", "oneway": "yes", "tunnel": "yes", "length": 1147.150869220557}}, {"type": "Feature", "geometry": {"type": "LineString", "coordinates": [[113.3442025, 23.011243], [113.3440576, 23.011258], [113.3439662, 23.0113454]]}, "properties": {"highway": "tertiary_link", "layer": "-1", "name": "\u4e07\u535a\u4e09\u8def\u51fa\u53e3", "oneway": "yes", "tunnel": "yes", "length": 28.41820433100809}}, {"type": "Feature", "geometry": {"type": "LineString", "coordinates": [[113.343691, 23.0113726], [113.343566, 23.0112682], [113.3434877, 23.0112309], [113.3433225, 23.0112057]]}, "properties": {"highway": "tertiary_link", "layer": "-1", "name": "\u4e07\u535a\u4e09\u8def\u5165\u53e3", "oneway": "yes", "tunnel": "yes", "length": 43.450230823724176}}, {"type": "Feature", "geometry": {"type": "LineString", "coordinates": [[113.3411999, 23.0112581], [113.3410213, 23.0113024], [113.3409191, 23.0113517], [113.3408484, 23.0113977]]}, "properties": {"highway": "tertiary_link", "layer": "-1", "name": "\u4e07\u535a\u4e00\u8def\u51fa\u53e3", "oneway": "yes", "tunnel": "yes", "length": 39.627992929200914}}, {"type": "Feature", "geometry": {"type": "LineString", "coordinates": [[113.340534, 23.0114075], [113.3404403, 23.011362], [113.3402768, 23.0113192], [113.340047, 23.011287]]}, "properties": {"highway": "tertiary_link", "layer": "-1", "name": "\u4e07\u535a\u4e00\u8def\u5165\u53e3", "oneway": "yes", "tunnel": "yes", "length": 52.09138887874648}}, {"type": "Feature", "geometry": {"type": "LineString", "coordinates": [[113.3404386, 23.006212], [113.3408621, 23.0064589], [113.3410428, 23.006505], [113.3411663, 23.0064937], [113.3412453, 23.0064736], [113.3413203, 23.0064527], [113.3413709, 23.0064312], [113.3414256, 23.0064043], [113.3414796, 23.0063786], [113.3415441, 23.0063287], [113.3417072, 23.0061428], [113.3418417, 23.006006]]}, "properties": {"highway": "tertiary_link", "lanes": "2", "layer": "-3", "maxspeed": "20", "name": "\u6c49\u6eaa\u5927\u9053\u897f\u5165\u53e3", "oneway": "yes", "tunnel": "yes", "length": 173.58298867414857}}, {"type": "Feature", "geometry": {"type": "LineString", "coordinates": [[113.3458105, 23.0097388], [113.3456495, 23.0099868], [113.3453341, 23.0104341], [113.3452669, 23.0105277], [113.3451319, 23.0107154], [113.3450488, 23.0108098], [113.3448044, 23.0110626], [113.3447382, 23.0111166], [113.3446023, 23.0111942], [113.3443844, 23.0112261], [113.3442025, 23.011243], [113.3433225, 23.0112057]]}, "properties": {"alt_name": "\u4e3b\u73af\u8def", "highway": "tertiary", "lanes": "3", "layer": "-3", "maxspeed": "30", "name": "\u4e07\u535a\u5546\u52a1\u533a\u5730\u4e0b\u96a7\u9053\u4e3b\u73af\u8def", "oneway": "yes", "tunnel": "yes", "length": 336.7485390288757}}, {"type": "Feature", "geometry": {"type": "LineString", "coordinates": [[113.3462712, 23.0099716], [113.3465328, 23.0101224], [113.3468399, 23.0103172], [113.3471248, 23.0105133], [113.3473136, 23.0106869], [113.3474659, 23.0108811], [113.3475646, 23.0110581]]}, "properties": {"access": "no", "highway": "tertiary_link", "lanes": "2", "layer": "-3", "name": "\u6c49\u6eaa\u5927\u9053\u4e1c\u51fa\u53e3", "oneway": "yes", "tunnel": "yes", "length": 182.06836696032383}}, {"type": "Feature", "geometry": {"type": "LineString", "coordinates": [[113.3462058, 23.0091035], [113.3460989, 23.0091343], [113.3459738, 23.0091354], [113.345824, 23.0090846], [113.3456967, 23.0090073], [113.3440788, 23.0080249], [113.3434503, 23.0076432], [113.3430724, 23.0075384], [113.3419947, 23.0068764], [113.341814, 23.0066758], [113.34173, 23.0065072], [113.341743, 23.0062968], [113.3418167, 23.0061299], [113.3422013, 23.0056113], [113.3423989, 23.0053043], [113.3424765, 23.0051772], [113.3425222, 23.0050649]]}, "properties": {"highway": "tertiary_link", "image": "https://mmbiz.qpic.cn/mmbiz_png/q2SV0uHRtI1zW1MGbtxyTicpqc8CnwXI4cv2BOckpxPbcgicxQAgoWlZr18ATVRwREdbLUhWUSnNBk3K9zaUlBuQ/640?wx_fmt=png&tp=webp&wxfrom=5&wx_lazy=1&wx_co=1", "lanes": "2", "layer": "-3", "name": "\u5357\u5faa\u73af\u901a\u9053A", "oneway": "yes", "tunnel": "yes", "length": 736.2115808082292}}, {"type": "Feature", "geometry": {"type": "LineString", "coordinates": [[113.3425222, 23.0050649], [113.3425922, 23.0049698], [113.3426341, 23.0049115], [113.3426805, 23.0048818], [113.3427292, 23.0048601], [113.342762, 23.004851], [113.3428018, 23.0048425], [113.3428405, 23.0048376], [113.3429244, 23.0048373], [113.3429802, 23.0048406], [113.3430784, 23.004869], [113.3431579, 23.0049038], [113.3435033, 23.0051244], [113.3437673, 23.0052857], [113.3440814, 23.0054947], [113.3444306, 23.0057442], [113.3446039, 23.0058833], [113.344815, 23.0060534], [113.344997, 23.0061937], [113.3451361, 23.0063289], [113.3462063, 23.0073538], [113.3463184, 23.0074836], [113.3464105, 23.0077463], [113.3464949, 23.0079873], [113.346503, 23.0080429], [113.3465504, 23.0083691], [113.3465499, 23.0084949], [113.3465154, 23.008746], [113.3464489, 23.0089426], [113.3458105, 23.0097388]]}, "properties": {"alt_name": "\u4e3b\u73af\u8def", "highway": "tertiary", "lanes": "3", "layer": "-3", "maxspeed": "30", "name": "\u4e07\u535a\u5546\u52a1\u533a\u5730\u4e0b\u96a7\u9053\u4e3b\u73af\u8def", "oneway": "yes", "tunnel": "yes", "length": 787.068956212641}}, {"type": "Feature", "geometry": {"type": "LineString", "coordinates": [[113.3406032, 23.0076746], [113.3407058, 23.0074841], [113.3408445, 23.0072922], [113.3409003, 23.0071875], [113.3409, 23.0070881], [113.3408932, 23.0070127], [113.3408769, 23.0069387], [113.3408442, 23.0068219], [113.3408137, 23.0067587], [113.340745, 23.0066468], [113.3407027, 23.0066112], [113.3403298, 23.0063793]]}, "properties": {"highway": "tertiary_link", "lanes": "2", "layer": "-3", "maxspeed": "20", "name": "\u6c49\u6eaa\u5927\u9053\u897f\u5165\u53e3", "oneway": "yes", "tunnel": "yes", "length": 177.0201603797305}}, {"type": "Feature", "geometry": {"type": "LineString", "coordinates": [[113.3425198, 23.0046605], [113.3425811, 23.0046965], [113.3426301, 23.0047137], [113.3427088, 23.00472], [113.3427943, 23.0047256], [113.3428633, 23.0047428], [113.3431579, 23.0049038]]}, "properties": {"access": "no", "highway": "tertiary_link", "lanes": "2", "layer": "-3", "name": "\u654f\u6377\u5e7f\u573a\u505c\u8f66\u573a\u51fa\u53e3", "oneway": "yes", "tunnel": "yes", "length": 72.09849016071566}}, {"type": "Feature", "geometry": {"type": "LineString", "coordinates": [[113.3435033, 23.0051244], [113.3435209, 23.0051865], [113.3435245, 23.0052378], [113.3435318, 23.0053103]]}, "properties": {"highway": "tertiary_link", "lanes": "1", "layer": "-3", "name": "\u5929\u6cb3\u57ce\u505c\u8f66\u573a\u5165\u53e3", "oneway": "yes", "tunnel": "yes", "length": 20.866859651631735}}, {"type": "Feature", "geometry": {"type": "LineString", "coordinates": [[113.3389758, 23.0078419], [113.3396198, 23.0082681], [113.339665, 23.0082873], [113.3397775, 23.0083351], [113.339993, 23.0083295], [113.3401417, 23.0082904], [113.3402407, 23.0081955]]}, "properties": {"highway": "tertiary_link", "layer": "-3", "name": "\u756a\u79ba\u5927\u9053\u5317\u5165\u53e3", "oneway": "yes", "tunnel": "yes", "length": 151.50364998436197}}, {"type": "Feature", "geometry": {"type": "LineString", "coordinates": [[113.3395864, 23.0095976], [113.3395656, 23.0092942], [113.3396091, 23.0091146], [113.3396761, 23.0089787], [113.3397827, 23.0087605], [113.3397863, 23.0086287], [113.3397063, 23.0084508], [113.3396185, 23.0083702], [113.3395832, 23.0083378], [113.3389403, 23.0079053]]}, "properties": {"construction": "tertiary_link", "highway": "tertiary_link", "layer": "-3", "name": "\u756a\u79ba\u5927\u9053\u5317\u51fa\u53e3", "oneway": "yes", "tunnel": "yes", "length": 232.30178922427564}}, {"type": "Feature", "geometry": {"type": "LineString", "coordinates": [[113.3451361, 23.0063289], [113.3451651, 23.0065152], [113.3451372, 23.0067092]]}, "properties": {"access": "no", "highway": "tertiary_link", "layer": "-3", "name": "\u5e7f\u665f\u4e07\u535a\u57ce\u505c\u8f66\u573a\u5165\u53e3", "oneway": "yes", "tunnel": "yes", "length": 42.51864338126231}}, {"type": "Feature", "geometry": {"type": "LineString", "coordinates": [[113.3462508, 23.0100116], [113.3461002, 23.009948], [113.3460144, 23.0099473], [113.3459533, 23.0099446], [113.3458747, 23.0099596], [113.3458298, 23.009975], [113.3457001, 23.0100552], [113.3454337, 23.010346], [113.3453341, 23.0104341]]}, "properties": {"access": "no", "highway": "tertiary_link", "layer": "-3", "name": "\u6c49\u6eaa\u5927\u9053\u4e1c\u5165\u53e3", "oneway": "yes", "tunnel": "yes", "length": 117.50958696618179}}, {"type": "Feature", "geometry": {"type": "LineString", "coordinates": [[113.3464489, 23.0089426], [113.3463603, 23.0091342], [113.3462055, 23.0093841], [113.3461337, 23.0095499], [113.3461146, 23.0097072], [113.3461249, 23.0098141], [113.346139, 23.0098666], [113.3461925, 23.0099265], [113.3462712, 23.0099716]]}, "properties": {"access": "no", "highway": "tertiary_link", "layer": "-3", "name": "\u6c49\u6eaa\u5927\u9053\u4e1c\u5165\u53e3", "oneway": "yes", "tunnel": "yes", "length": 128.26710462735542}}, {"type": "Feature", "geometry": {"type": "LineString", "coordinates": [[113.3425222, 23.0050649], [113.3425511, 23.004991], [113.3426134, 23.0048847], [113.3426314, 23.0048257], [113.3426266, 23.0047668], [113.3425741, 23.0047124], [113.3425087, 23.0046739]]}, "properties": {"access": "no", "highway": "tertiary_link", "lanes": "2", "layer": "-3", "name": "\u654f\u6377\u5e7f\u573a\u505c\u8f66\u573a\u5165\u53e3", "oneway": "yes", "tunnel": "yes", "length": 51.45184983856528}}, {"type": "Feature", "geometry": {"type": "LineString", "coordinates": [[113.3464105, 23.0077463], [113.3464136, 23.0081861], [113.3463945, 23.0084741], [113.3463577, 23.0086686], [113.3462562, 23.0089813], [113.3462058, 23.0091035], [113.3461498, 23.0091892]]}, "properties": {"highway": "tertiary_link", "image": "https://mmbiz.qpic.cn/mmbiz_png/q2SV0uHRtI1zW1MGbtxyTicpqc8CnwXI4cv2BOckpxPbcgicxQAgoWlZr18ATVRwREdbLUhWUSnNBk3K9zaUlBuQ/640?wx_fmt=png&tp=webp&wxfrom=5&wx_lazy=1&wx_co=1", "lanes": "2", "layer": "-3", "name": "\u5357\u5faa\u73af\u901a\u9053B", "oneway": "yes", "tunnel": "yes", "length": 164.26517614815415}}, {"type": "Feature", "geometry": {"type": "LineString", "coordinates": [[113.3419947, 23.0068764], [113.3421328, 23.0066918]]}, "properties": {"highway": "tertiary_link", "layer": "-3", "name": "\u5929\u6cb3\u57ce\u505c\u8f66\u573a\u5165\u53e3", "oneway": "yes", "tunnel": "yes", "length": 24.867050784064286}}, {"type": "Feature", "geometry": {"type": "LineString", "coordinates": [[113.3440788, 23.0080249], [113.3442028, 23.0078649]]}, "properties": {"highway": "tertiary_link", "layer": "-3", "name": "\u5e7f\u665f\u4e07\u535a\u57ce\u505c\u8f66\u573a\u5165\u53e3", "oneway": "yes", "tunnel": "yes", "length": 21.807367615593087}}, {"type": "Feature", "geometry": {"type": "LineString", "coordinates": [[113.3408129, 23.0073843], [113.3409427, 23.0073207], [113.34107, 23.007301], [113.3411687, 23.0073142], [113.3426619, 23.0082198], [113.3429096, 23.0082979], [113.3431019, 23.0083543], [113.3455168, 23.0098409], [113.3455428, 23.0098731], [113.3455582, 23.009905], [113.3455649, 23.0099325], [113.3455704, 23.0099632], [113.345568, 23.0099968], [113.3455613, 23.010049], [113.3455525, 23.0100853], [113.3455383, 23.0101126], [113.3453117, 23.0104262], [113.3452669, 23.0105277]]}, "properties": {"highway": "tertiary_link", "image": "https://mmbiz.qpic.cn/mmbiz_png/q2SV0uHRtI1zW1MGbtxyTicpqc8CnwXI4cv2BOckpxPbcgicxQAgoWlZr18ATVRwREdbLUhWUSnNBk3K9zaUlBuQ/640?wx_fmt=png&tp=webp&wxfrom=5&wx_lazy=1&wx_co=1", "lanes": "2", "layer": "-3", "name": "\u5317\u5faa\u73af\u901a\u9053A", "oneway": "yes", "tunnel": "yes", "length": 652.1704712074246}}, {"type": "Feature", "geometry": {"type": "LineString", "coordinates": [[113.3426619, 23.0082198], [113.3427055, 23.0082793], [113.3427376, 23.0083885], [113.3423594, 23.0091114], [113.3421524, 23.0096126], [113.341572, 23.0092675], [113.3408152, 23.008811], [113.3402728, 23.0084839], [113.3402101, 23.0084367], [113.3401802, 23.0083915], [113.3401677, 23.0083471], [113.3401937, 23.0082713]]}, "properties": {"highway": "tertiary_link", "image": "https://mmbiz.qpic.cn/mmbiz_png/q2SV0uHRtI1zW1MGbtxyTicpqc8CnwXI4cv2BOckpxPbcgicxQAgoWlZr18ATVRwREdbLUhWUSnNBk3K9zaUlBuQ/640?wx_fmt=png&tp=webp&wxfrom=5&wx_lazy=1&wx_co=1", "lanes": "2", "layer": "-3", "name": "\u5317\u5faa\u73af\u901a\u9053B", "oneway": "yes", "tunnel": "yes", "length": 426.5943691561823}}, {"type": "Feature", "geometry": {"type": "LineString", "coordinates": [[113.3421524, 23.0096126], [113.3423279, 23.0097099]]}, "properties": {"highway": "tertiary_link", "layer": "-3", "name": "\u4e07\u8fbe\u5e7f\u573a\u505c\u8f66\u573a\u5165\u53e3", "oneway": "yes", "tunnel": "yes", "length": 20.97142591098596}}, {"type": "Feature", "geometry": {"type": "LineString", "coordinates": [[113.3398388, 23.0087653], [113.3399319, 23.0086767], [113.3399707, 23.0086533], [113.3400428, 23.0086405], [113.3401269, 23.0086584]]}, "properties": {"highway": "tertiary_link", "layer": "-3", "name": "\u5965\u56ed\u56fd\u9645\u4e2d\u5fc3\u505c\u8f66\u573a\u5165\u53e3", "oneway": "yes", "tunnel": "yes", "length": 34.808143557601866}}, {"type": "Feature", "geometry": {"type": "LineString", "coordinates": [[113.3420398, 23.0112374], [113.3419143, 23.0112199], [113.3417567, 23.0112204], [113.3417053, 23.0112127], [113.3416689, 23.011194], [113.3416536, 23.0111725]]}, "properties": {"highway": "tertiary_link", "layer": "-3", "name": "\u5965\u56ed\u56fd\u9645\u4e2d\u5fc3\u505c\u8f66\u573a\u5165\u53e3", "oneway": "yes", "tunnel": "yes", "length": 41.623588627045}}, {"type": "Feature", "geometry": {"type": "LineString", "coordinates": [[113.3457371, 23.0098728], [113.345125, 23.0107154], [113.3450414, 23.0108057], [113.3447743, 23.0110538], [113.3447191, 23.0111053], [113.3446053, 23.0111697], [113.3445374, 23.0111809]]}, "properties": {"highway": "tertiary_link", "image": "https://mmbiz.qpic.cn/mmbiz_png/q2SV0uHRtI1zW1MGbtxyTicpqc8CnwXI4FCqviahAqPsD2icnXpHIAG9ht1Fl0o8NrFlGvR4AhGjH0gzo7NDhiaJBw/640?wx_fmt=png&tp=webp&wxfrom=5&wx_lazy=1&wx_co=1", "lanes": "2", "layer": "-1", "loc_name": "\u4e07\u60e0\u8def\u5e02\u653f\u96a7\u9053", "name": "\u4e07\u60e0\u8def\u96a7\u9053", "tunnel": "yes", "length": 193.18720356087766}}, {"type": "Feature", "geometry": {"type": "LineString", "coordinates": [[113.345903, 23.0096204], [113.3459255, 23.0096396], [113.3459398, 23.0096518], [113.3459642, 23.0096921], [113.345974, 23.0097426], [113.3459645, 23.0097931], [113.3459534, 23.0098109], [113.3459368, 23.0098376], [113.3458942, 23.0098706], [113.3458419, 23.0098883], [113.3457862, 23.0098884], [113.3457371, 23.0098728], [113.3456911, 23.0098382], [113.3456631, 23.0097938], [113.3456534, 23.0097485], [113.3456594, 23.0097027], [113.3456804, 23.0096607], [113.3457146, 23.0096269], [113.3457584, 23.0096044], [113.3458076, 23.0095954], [113.3458574, 23.009601], [113.345903, 23.0096204]]}, "properties": {"highway": "tertiary", "image": "https://mmbiz.qpic.cn/mmbiz_png/q2SV0uHRtI1zW1MGbtxyTicpqc8CnwXI4FCqviahAqPsD2icnXpHIAG9ht1Fl0o8NrFlGvR4AhGjH0gzo7NDhiaJBw/640?wx_fmt=png&tp=webp&wxfrom=5&wx_lazy=1&wx_co=1", "layer": "-1", "loc_name": "\u4e07\u60e0\u8def\u5e02\u653f\u96a7\u9053", "name": "\u4e07\u60e0\u8def\u96a7\u9053", "oneway": "yes", "tunnel": "yes", "length": 102.53975461367689}}, {"type": "Feature", "geometry": {"type": "LineString", "coordinates": [[113.3462705, 23.0099815], [113.3459534, 23.0098109]]}, "properties": {"highway": "tertiary_link", "image": "https://mmbiz.qpic.cn/mmbiz_png/q2SV0uHRtI1zW1MGbtxyTicpqc8CnwXI4FCqviahAqPsD2icnXpHIAG9ht1Fl0o8NrFlGvR4AhGjH0gzo7NDhiaJBw/640?wx_fmt=png&tp=webp&wxfrom=5&wx_lazy=1&wx_co=1", "lanes": "2", "layer": "-1", "loc_name": "\u4e07\u60e0\u8def\u5e02\u653f\u96a7\u9053", "name": "\u4e07\u60e0\u8def\u96a7\u9053", "tunnel": "yes", "length": 37.59897396874}}, {"type": "Feature", "geometry": {"type": "LineString", "coordinates": [[113.344317, 23.0056874], [113.344417, 23.0057528], [113.3449922, 23.0061965], [113.3451063, 23.0063087], [113.3461212, 23.0073067], [113.3461467, 23.0073318], [113.3462948, 23.0074989], [113.346487, 23.0079845], [113.346495, 23.0080431], [113.3465439, 23.0083688], [113.3465417, 23.0084955], [113.3465067, 23.0087444], [113.3464433, 23.0089376], [113.3461432, 23.0093834], [113.3459255, 23.0096396]]}, "properties": {"access": "no", "highway": "tertiary_link", "image": "https://mmbiz.qpic.cn/mmbiz_png/q2SV0uHRtI1zW1MGbtxyTicpqc8CnwXI4FCqviahAqPsD2icnXpHIAG9ht1Fl0o8NrFlGvR4AhGjH0gzo7NDhiaJBw/640?wx_fmt=png&tp=webp&wxfrom=5&wx_lazy=1&wx_co=1", "lanes": "2", "layer": "-1", "loc_name": "\u4e07\u60e0\u8def\u5e02\u653f\u96a7\u9053", "name": "\u4e07\u60e0\u8def\u96a7\u9053", "tunnel": "yes", "length": 544.609441563915}}, {"type": "Feature", "geometry": {"type": "LineString", "coordinates": [[113.4020008, 23.1404174], [113.401897, 23.1404586], [113.4017637, 23.140515], [113.4016472, 23.1405499]]}, "properties": {"highway": "tertiary", "layer": "-1", "oneway": "yes", "tunnel": "yes", "length": 39.123545241864946}}, {"type": "Feature", "geometry": {"type": "LineString", "coordinates": [[113.3481568, 23.0154189], [113.3479772, 23.015355], [113.3478342, 23.0152396], [113.3477728, 23.015147], [113.3477665, 23.0149474], [113.3477446, 23.014611], [113.3477226, 23.0144042], [113.3476448, 23.01408], [113.3475912, 23.0138468]]}, "properties": {"highway": "secondary_link", "layer": "-2", "oneway": "yes", "tunnel": "yes", "length": 196.8349098287091}}, {"type": "Feature", "geometry": {"type": "LineString", "coordinates": [[113.3477183, 23.0139192], [113.3476981, 23.0142308], [113.3476144, 23.0145862], [113.347551, 23.0149169], [113.3474805, 23.0150634], [113.3473477, 23.0151972], [113.3471761, 23.0152488], [113.3469781, 23.0152284], [113.3467493, 23.0152005]]}, "properties": {"highway": "secondary_link", "layer": "-1", "name": "\u6c49\u6eaa\u5927\u9053B\u7ebf\u531d\u9053", "oneway": "yes", "tunnel": "yes", "length": 212.50635550036472}}, {"type": "Feature", "geometry": {"type": "LineString", "coordinates": [[113.3474976, 23.0110692], [113.3473953, 23.0108989], [113.3472246, 23.0106993], [113.3470823, 23.0105418], [113.34677, 23.010332], [113.3462508, 23.0100116]]}, "properties": {"access": "no", "highway": "tertiary_link", "lanes": "2", "layer": "-3", "name": "\u6c49\u6eaa\u5927\u9053\u4e1c\u5165\u53e3", "oneway": "yes", "tunnel": "yes", "length": 176.03678760297643}}, {"type": "Feature", "geometry": {"type": "LineString", "coordinates": [[113.4317389, 23.0471637], [113.4311447, 23.0476156]]}, "properties": {"highway": "primary", "layer": "-1", "name": "\u9f99\u6d25\u8def\u531d\u9053\u96a7\u9053", "name:en": "Longjin Road Ramp Tunnel", "ref": "S296", "tunnel": "yes", "length": 78.82304189703987}}, {"type": "Feature", "geometry": {"type": "LineString", "coordinates": [[113.2523805, 23.0111625], [113.2519708, 23.0110928], [113.2515054, 23.0109993]]}, "properties": {"highway": "trunk", "layer": "-1", "name": "\u5357\u5927\u5e72\u7ebf", "name:en": "Nanda Avenue", "name:zh": "\u5357\u5927\u5e72\u7ebf", "oneway": "yes", "tunnel": "yes", "length": 91.5242541702222}}, {"type": "Feature", "geometry": {"type": "LineString", "coordinates": [[113.2514771, 23.010826], [113.2522929, 23.0109781]]}, "properties": {"highway": "trunk", "layer": "-1", "name": "\u5357\u5927\u5e72\u7ebf", "name:en": "Nanda Avenue", "name:zh": "\u5357\u5927\u5e72\u7ebf", "oneway": "yes", "tunnel": "yes", "length": 85.31060085855746}}, {"type": "Feature", "geometry": {"type": "LineString", "coordinates": [[113.2524639, 23.0113168], [113.2521161, 23.0112625], [113.2512116, 23.0111213]]}, "properties": {"highway": "secondary", "layer": "-1", "name": "\u5357\u5927\u5e72\u7ebf\u8f85\u9053", "name:en": "Nanda Avenue Side Road", "name:zh": "\u5357\u5927\u5e72\u7ebf\u8f85\u9053", "oneway": "yes", "tunnel": "yes", "length": 130.1911918146233}}, {"type": "Feature", "geometry": {"type": "LineString", "coordinates": [[113.2512847, 23.0105009], [113.2519087, 23.0107084], [113.252196, 23.0107839]]}, "properties": {"highway": "secondary", "layer": "-1", "name": "\u5357\u5927\u5e72\u7ebf\u8f85\u9053", "name:en": "Nanda Avenue Side Road", "name:zh": "\u5357\u5927\u5e72\u7ebf\u8f85\u9053", "oneway": "yes", "tunnel": "yes", "length": 98.58749532863409}}, {"type": "Feature", "geometry": {"type": "LineString", "coordinates": [[113.3743012, 23.171707], [113.3740552, 23.1717666], [113.3721935, 23.1721849], [113.3710948, 23.1724262]]}, "properties": {"highway": "primary", "layer": "-1", "name": "\u534e\u89c2\u8def", "name:en": "Huaguan Road", "name:zh": "\u534e\u89c2\u8def", "oneway": "yes", "tunnel": "yes", "length": 337.8391666356944}}, {"type": "Feature", "geometry": {"type": "LineString", "coordinates": [[113.3710817, 23.1723008], [113.3715898, 23.1722037], [113.3723673, 23.1720184], [113.3733451, 23.1718075], [113.3742347, 23.1716029]]}, "properties": {"highway": "primary", "layer": "-1", "name": "\u534e\u89c2\u8def", "name:en": "Huaguan Road", "name:zh": "\u534e\u89c2\u8def", "oneway": "yes", "tunnel": "yes", "length": 332.00897332585095}}, {"type": "Feature", "geometry": {"type": "LineString", "coordinates": [[113.2315875, 23.0207248], [113.2304336, 23.021], [113.2291546, 23.0213218]]}, "properties": {"highway": "tertiary", "lanes": "3", "name": "\u73af\u5c9b\u5357\u8def", "oneway": "yes", "tunnel": "yes", "length": 258.00892890101113}}, {"type": "Feature", "geometry": {"type": "LineString", "coordinates": [[113.2291399, 23.0212081], [113.2296173, 23.0210887], [113.2304135, 23.0208958], [113.2309873, 23.0207535], [113.2315643, 23.0206158]]}, "properties": {"highway": "tertiary", "lanes": "3", "name": "\u73af\u5c9b\u5357\u8def", "oneway": "yes", "tunnel": "yes", "length": 257.03051630112736}}, {"type": "Feature", "geometry": {"type": "LineString", "coordinates": [[113.3839675, 23.1166477], [113.3831143, 23.1138527]]}, "properties": {"highway": "secondary", "layer": "-1", "name": "\u8f66\u9642\u5357\u96a7\u9053", "oneway": "yes", "tunnel": "yes", "length": 321.6359441802472}}, {"type": "Feature", "geometry": {"type": "LineString", "coordinates": [[113.3831026, 23.1140379], [113.3830128, 23.1137679], [113.3829665, 23.1134059]]}, "properties": {"highway": "secondary", "layer": "-1", "oneway": "yes", "tunnel": "yes", "length": 71.65375867941049}}, {"type": "Feature", "geometry": {"type": "LineString", "coordinates": [[113.3783399, 23.0196174], [113.3783203, 23.020314]]}, "properties": {"highway": "tertiary", "layer": "-1", "tunnel": "yes", "length": 77.170629755865}}, {"type": "Feature", "geometry": {"type": "LineString", "coordinates": [[113.2753843, 23.197711], [113.2720923, 23.1917651]]}, "properties": {"highway": "secondary", "layer": "-1", "name": "\u4e91\u57ce\u4e1c\u8def\u96a7\u9053", "oneway": "yes", "tunnel": "yes", "length": 739.72224922031}}, {"type": "Feature", "geometry": {"type": "LineString", "coordinates": [[113.272194, 23.1917117], [113.2754646, 23.197679]]}, "properties": {"highway": "secondary", "layer": "-1", "name": "\u4e91\u57ce\u4e1c\u8def\u96a7\u9053", "oneway": "yes", "tunnel": "yes", "length": 740.8400687536908}}, {"type": "Feature", "geometry": {"type": "LineString", "coordinates": [[113.2752473, 23.1883631], [113.2760453, 23.1899586], [113.276256, 23.1904248], [113.2764141, 23.1907577], [113.2766775, 23.1914782], [113.2776918, 23.1942205], [113.2782648, 23.1955584], [113.2784821, 23.1959882], [113.2786665, 23.1963344]]}, "properties": {"highway": "trunk", "layer": "-1", "name": "\u4e91\u5c71\u96a7\u9053", "name:en": "Yunshan Tunnel", "name:zh": "\u4e91\u5c71\u96a7\u9053", "oneway": "yes", "ref": "G105", "tunnel": "yes", "length": 950.7123386550044}}, {"type": "Feature", "geometry": {"type": "LineString", "coordinates": [[113.2785555, 23.1964234], [113.2783032, 23.1959807], [113.2780931, 23.195521], [113.2775165, 23.1942729], [113.2765023, 23.1915305], [113.2762388, 23.1908101], [113.2760808, 23.1904771], [113.27587, 23.190011], [113.2751106, 23.1884304]]}, "properties": {"highway": "trunk", "layer": "-1", "name": "\u4e91\u5c71\u96a7\u9053", "name:en": "Yunshan Tunnel", "name:zh": "\u4e91\u5c71\u96a7\u9053", "oneway": "yes", "ref": "G105", "tunnel": "yes", "length": 953.9255629446889}}, {"type": "Feature", "geometry": {"type": "LineString", "coordinates": [[113.3096603, 23.0164515], [113.3100215, 23.0163778], [113.3103464, 23.0163115], [113.3104839, 23.0162926]]}, "properties": {"highway": "trunk_link", "layer": "-1", "oneway": "yes", "tunnel": "yes", "length": 86.27055248117824}}, {"type": "Feature", "geometry": {"type": "LineString", "coordinates": [[113.3097035, 23.0166995], [113.3088813, 23.0166685]]}, "properties": {"highway": "trunk_link", "layer": "-1", "oneway": "yes", "tunnel": "yes", "length": 84.3535551084163}}, {"type": "Feature", "geometry": {"type": "LineString", "coordinates": [[113.372562, 23.0214407], [113.3724375, 23.0214098], [113.3723449, 23.0213833]]}, "properties": {"highway": "motorway_link", "layer": "-1", "oneway": "yes", "tunnel": "yes", "length": 23.148273242999153}}, {"type": "Feature", "geometry": {"type": "LineString", "coordinates": [[113.3724573, 23.0211159], [113.3729047, 23.0212412], [113.3730788, 23.0212806]]}, "properties": {"highway": "motorway_link", "layer": "-1", "oneway": "yes", "tunnel": "yes", "length": 66.2867620351658}}, {"type": "Feature", "geometry": {"type": "LineString", "coordinates": [[113.3200867, 23.1512446], [113.3186226, 23.1512419]]}, "properties": {"highway": "tertiary", "oneway": "yes", "tunnel": "yes", "length": 149.93578833201204}}, {"type": "Feature", "geometry": {"type": "LineString", "coordinates": [[113.2738393, 23.1866054], [113.2739771, 23.1865431], [113.2740796, 23.1865126], [113.2741836, 23.1864942], [113.274306, 23.1864907], [113.2744747, 23.1865112], [113.2746286, 23.186554], [113.2748016, 23.1866945], [113.2756546, 23.188734], [113.2760566, 23.189653], [113.2760453, 23.1899586]]}, "properties": {"highway": "secondary_link", "layer": "-1", "oneway": "yes", "tunnel": "yes", "length": 493.36705631799043}}, {"type": "Feature", "geometry": {"type": "LineString", "coordinates": [[113.4515892, 23.1411145], [113.4520527, 23.1423482]]}, "properties": {"highway": "primary", "layer": "-1", "oneway": "yes", "tunnel": "yes", "length": 144.6387769920242}}, {"type": "Feature", "geometry": {"type": "LineString", "coordinates": [[113.4519158, 23.1423949], [113.451441, 23.1411713]]}, "properties": {"highway": "primary", "layer": "-1", "oneway": "yes", "tunnel": "yes", "length": 143.96941291586927}}, {"type": "Feature", "geometry": {"type": "LineString", "coordinates": [[113.3246421, 23.0131427], [113.3240703, 23.0131261], [113.3222791, 23.013172], [113.3211069, 23.0132226], [113.3203923, 23.013298], [113.3201353, 23.0133478], [113.3198812, 23.0134361], [113.319642, 23.0135729], [113.319207, 23.0138599]]}, "properties": {"highway": "trunk", "layer": "-1", "name": "\u5927\u77f3\u4e1c\u96a7\u9053", "name:en": "Dashi E. Tunnel", "name:zh": "\u5927\u77f3\u4e1c\u96a7\u9053", "oneway": "yes", "tunnel": "yes", "length": 574.6862620440426}}, {"type": "Feature", "geometry": {"type": "LineString", "coordinates": [[113.3191329, 23.0137311], [113.3194028, 23.0135366], [113.319781, 23.013312], [113.3200841, 23.0132107], [113.3203711, 23.0131688], [113.3211218, 23.0130764], [113.3222513, 23.013028], [113.3240673, 23.0129867], [113.3246565, 23.0129954]]}, "properties": {"highway": "trunk", "layer": "-1", "name": "\u5927\u77f3\u4e1c\u96a7\u9053", "name:en": "Dashi E. Tunnel", "name:zh": "\u5927\u77f3\u4e1c\u96a7\u9053", "oneway": "yes", "tunnel": "yes", "length": 584.1195418251181}}, {"type": "Feature", "geometry": {"type": "LineString", "coordinates": [[113.3532703, 23.017488], [113.3527263, 23.0172121], [113.3522616, 23.0168977], [113.3517768, 23.0165144]]}, "properties": {"highway": "trunk", "layer": "-1", "name": "\u89c2\u666f\u8def\u96a7\u9053", "name:en": "Guanjing Road Tunnel", "name:zh": "\u89c2\u666f\u8def\u96a7\u9053", "oneway": "yes", "tunnel": "yes", "length": 187.9490429158913}}, {"type": "Feature", "geometry": {"type": "LineString", "coordinates": [[113.3518674, 23.0164058], [113.3523375, 23.0167928], [113.3527929, 23.0170981], [113.3528532, 23.0171319], [113.3533309, 23.0173993]]}, "properties": {"highway": "trunk", "layer": "-1", "name": "\u89c2\u666f\u8def\u96a7\u9053", "name:en": "Guanjing Road Tunnel", "name:zh": "\u89c2\u666f\u8def\u96a7\u9053", "oneway": "yes", "tunnel": "yes", "length": 186.58428125502684}}, {"type": "Feature", "geometry": {"type": "LineString", "coordinates": [[113.3046356, 22.9978005], [113.304421, 22.9978225], [113.3042541, 22.9978115], [113.3040991, 22.9977567], [113.3039561, 22.9976606], [113.303816, 22.9974905], [113.3037534, 22.9973232], [113.3037266, 22.9971613], [113.3037296, 22.9970022], [113.3037468, 22.9968691]]}, "properties": {"highway": "trunk_link", "layer": "-1", "name": "\u5e02\u5e7f\u8def\u96a7\u9053", "name:en": "Shiguang Road Tunnel", "name:zh": "\u5e02\u5e7f\u8def\u96a7\u9053", "oneway": "yes", "tunnel": "yes", "length": 168.32042560924546}}, {"type": "Feature", "geometry": {"type": "LineString", "coordinates": [[113.3034375, 23.0119711], [113.3022431, 23.0105138], [113.3020204, 23.0101665], [113.3018548, 23.0097867]]}, "properties": {"highway": "trunk", "layer": "-1", "name": "Shinan Road Tunnel", "name:en": "Shinan Road Tunnel", "name:zh": "\u77f3\u5357\u8def\u96a7\u9053", "oneway": "yes", "ref": "G105;G324", "tunnel": "yes", "length": 292.6630594355444}}, {"type": "Feature", "geometry": {"type": "LineString", "coordinates": [[113.3035242, 23.0119005], [113.30233, 23.0104605], [113.3021073, 23.0101132], [113.3019727, 23.0097532]]}, "properties": {"highway": "trunk", "layer": "-1", "name": "\u77f3\u5357\u8def\u96a7\u9053", "name:en": "Shinan Road Tunnel", "name:zh": "\u77f3\u5357\u8def\u96a7\u9053", "oneway": "yes", "ref": "G105;G324", "tunnel": "yes", "length": 287.958441846462}}]}