{"type": "FeatureCollection", "features": [{"type": "Feature", "geometry": {"type": "LineString", "coordinates": [[8.5284051, 47.3807181], [8.5289193, 47.3814837]]}, "properties": {"bicycle:lanes:backward": "||designated", "cycleway:both": "lane", "cycleway:both:lane": "advisory", "foot": "no", "highway": "tertiary", "lanes": "3", "lanes:backward": "2", "lanes:forward": "1", "layer": "-1", "lit": "yes", "maxheight": "default", "maxspeed": "50", "motor_vehicle:lanes:backward": "yes|yes|no", "name": "Tunnel Langstrasse", "oneway": "no", "sidewalk": "no", "smoothness": "excellent", "surface": "asphalt", "trolley_wire": "yes", "tunnel": "yes", "turn:lanes:backward": "left|through;right|through;right", "wikidata": "Q1805410", "wikipedia": "de:Langstrasse (Stadt Z\u00fcrich)", "length": 93.5563103564147}}, {"type": "Feature", "geometry": {"type": "LineString", "coordinates": [[8.5736055, 47.4233691], [8.5737294, 47.42293], [8.5738409, 47.4224858]]}, "properties": {"highway": "motorway", "lanes": "2", "layer": "-1", "lit": "yes", "maxheight": "default", "maxspeed": "100", "nat_name": "N11", "old_name": "A51", "oneway": "yes", "ref": "A11", "surface": "asphalt", "toll": "yes", "tunnel": "yes", "length": 99.80304043869504}}, {"type": "Feature", "geometry": {"type": "LineString", "coordinates": [[8.40326, 47.408599], [8.4039409, 47.40866]]}, "properties": {"cycleway:both": "track", "cycleway:both:segregated": "no", "highway": "primary", "lanes": "5", "lanes:backward": "3", "lanes:forward": "2", "layer": "-1", "maxheight": "default", "maxspeed": "60", "name": "Ueberlandstrasse", "ref": "3", "shoulder": "no", "sidewalk": "both", "surface": "asphalt", "tunnel": "yes", "length": 51.83594393652413}}, {"type": "Feature", "geometry": {"type": "LineString", "coordinates": [[8.5314804, 47.3668208], [8.5311656, 47.3670563], [8.5305861, 47.3674706], [8.5293781, 47.3683382]]}, "properties": {"bicycle": "use_sidepath", "foot": "no", "highway": "primary", "lanes": "2", "layer": "-2", "lit": "yes", "maxspeed": "50", "name": "Ulmbergtunnel", "oneway": "yes", "ref": "3", "surface": "asphalt", "tunnel": "yes", "wikidata": "Q20012687", "wikipedia": "de:Ulmbergtunnel", "length": 231.68605310255697}}, {"type": "Feature", "geometry": {"type": "LineString", "coordinates": [[8.558664, 47.4263376], [8.5592777, 47.426132], [8.5599039, 47.4259344], [8.5603037, 47.4258156], [8.5606433, 47.425716], [8.5609983, 47.4256184], [8.5616058, 47.4254742], [8.5622108, 47.4253447], [8.562786, 47.425222], [8.5633753, 47.4251102]]}, "properties": {"avz": "240", "cs_dir": "1", "destination:int_ref:lanes": "E 41;E 60|E 41;E 60|", "destination:lanes": "Sankt Gallen;Schaffhausen;Z\u00fcrich-City|Sankt Gallen;Schaffhausen;Z\u00fcrich-City|B\u00fclach;Flughafen", "destination:ref:lanes": "A1;A4|A1;A4|A11", "highway": "motorway", "int_ref": "E 41;E 60", "lanes": "3", "layer": "-1", "lit": "yes", "maxspeed": "100", "name": "Stelzentunnel", "oneway": "yes", "ref": "A1;A4", "source:maxspeed": "sign", "ssvz": "866N", "surface": "asphalt", "toll": "yes", "tunnel": "yes", "tunnel:name": "Stelzentunnel", "length": 381.5676223474632}}, {"type": "Feature", "geometry": {"type": "LineString", "coordinates": [[8.563426, 47.4252444], [8.5622451, 47.4254743], [8.5616553, 47.4256055], [8.561095, 47.4257429], [8.5605362, 47.425892], [8.5599842, 47.4260515], [8.5593688, 47.4262464], [8.5587571, 47.4264514]]}, "properties": {"avz": "240", "cs_dir": "2", "destination:int_ref:lanes": "E 41;E 60|E 41;E 60|", "destination:lanes": "Bern;Basel;Chur;Luzern;Z\u00fcrich-Affoltern|Bern;Basel;Chur;Luzern;Z\u00fcrich-Affoltern|Z\u00fcrich-Seebach;Glattbrugg;R\u00fcmlang", "destination:ref:lanes": "A1;A4|A1;A4|", "highway": "motorway", "int_ref": "E 41;E 60", "lanes": "3", "layer": "-1", "lit": "yes", "maxspeed": "100", "name": "Stelzentunnel", "oneway": "yes", "ref": "A1;A4", "source:maxspeed": "sign", "ssvz": "866N", "surface": "asphalt", "toll": "yes", "tunnel": "yes", "tunnel:name": "Stelzentunnel", "length": 377.75403967853}}, {"type": "Feature", "geometry": {"type": "LineString", "coordinates": [[8.5345701, 47.3980786], [8.5341566, 47.3980158], [8.5336316, 47.3979057], [8.5323122, 47.3975952]]}, "properties": {"bicycle": "no", "foot": "no", "highway": "primary", "lanes": "1", "layer": "-2", "lit": "yes", "maxspeed": "50", "oneway": "yes", "ref": "1;4", "surface": "asphalt", "tunnel": "yes", "tunnel:name": "Bucheggtunnel", "wikidata": "Q27330362", "length": 178.8792777082194}}, {"type": "Feature", "geometry": {"type": "LineString", "coordinates": [[8.6602875, 47.3832314], [8.660642, 47.3834174]]}, "properties": {"highway": "secondary", "layer": "-1", "maxspeed": "50", "name": "Bahnhofstrasse", "surface": "asphalt", "tunnel": "yes", "length": 33.82566886185019}}, {"type": "Feature", "geometry": {"type": "LineString", "coordinates": [[8.547669, 47.4281295], [8.5481302, 47.428477], [8.5483388, 47.4286437], [8.5486482, 47.4289289], [8.5490655, 47.4293754]]}, "properties": {"bicycle": "yes", "destination:lanes": "Bern;Chur;Zurzach;R\u00fcmlang;Glattbrugg|Flughafen;Sankt Gallen;Z\u00fcrich-City", "foot": "no", "highway": "secondary", "lanes": "2", "layer": "-1", "maxheight": "4.8", "maxspeed": "60", "name": "Birchstrasse", "note": "Richtplankategorie: Hauptverkehrsstrasse (HVS); Hauptstrasse ohne Nummerntafel", "oneway": "yes", "owner": "Kanton Z\u00fcrich", "surface": "asphalt", "tunnel": "yes", "tunnel:name": "Eichraintunnel", "wikidata": "Q27331786", "length": 174.465378923446}}, {"type": "Feature", "geometry": {"type": "LineString", "coordinates": [[8.5490942, 47.4297655], [8.5488536, 47.4294553]]}, "properties": {"bicycle": "yes", "foot": "no", "highway": "secondary", "lanes": "2", "layer": "-1", "maxheight": "4.8", "maxspeed": "60", "name": "Birchstrasse", "note": "Richtplankategorie: Hauptverkehrsstrasse (HVS); Hauptstrasse ohne Nummerntafel", "oneway": "yes", "owner": "Kanton Z\u00fcrich", "surface": "asphalt", "tunnel": "yes", "tunnel:name": "Eichraintunnel", "wikidata": "Q27331786", "length": 38.97304901089028}}, {"type": "Feature", "geometry": {"type": "LineString", "coordinates": [[8.5710122, 47.4352905], [8.5709667, 47.4357448]]}, "properties": {"highway": "motorway_link", "lanes": "1", "layer": "-1", "lit": "yes", "maxheight": "4.8", "maxspeed": "100", "oneway": "yes", "tunnel": "yes", "tunnel:name": "Bubenholztunnel", "length": 50.6252584405929}}, {"type": "Feature", "geometry": {"type": "LineString", "coordinates": [[8.4422604, 47.4157905], [8.4429253, 47.416141], [8.443582, 47.4165066], [8.4448666, 47.4172466], [8.4455834, 47.4176446], [8.4463334, 47.4180273], [8.4471036, 47.4183781], [8.447902, 47.4186931], [8.4484219, 47.4188788], [8.4489124, 47.4190372], [8.4497954, 47.4192912], [8.45068, 47.4195054], [8.4514678, 47.419659], [8.4521793, 47.4197842], [8.452892, 47.419883], [8.4541525, 47.420034], [8.4663059, 47.4212883], [8.472378, 47.4219212], [8.4784478, 47.4225658], [8.4791444, 47.4226718], [8.4798171, 47.4228071], [8.4804727, 47.4229769], [8.4810932, 47.4231714], [8.4817502, 47.4234187], [8.4823827, 47.4236798], [8.4830573, 47.4239528]]}, "properties": {"highway": "motorway", "int_ref": "E 41;E 60", "lanes": "2", "layer": "-1", "length": 3270.3388431097947, "lit": "24/7", "maxspeed": "100", "name": "Gubristtunnel", "oneway": "yes", "ref": "A1;A4", "source:maxspeed": "sign", "surface": "asphalt", "toll": "yes", "tunnel": "yes", "tunnel:name": "Gubristtunnel", "wikipedia": "de:Gubristtunnel"}}, {"type": "Feature", "geometry": {"type": "LineString", "coordinates": [[8.6664843, 47.4222635], [8.6659552, 47.4222206], [8.6654505, 47.422194], [8.6646422, 47.4221727]]}, "properties": {"highway": "motorway", "int_ref": "E 41;E 60", "lanes": "3", "layer": "-1", "lit": "yes", "maxheight": "default", "maxspeed": "120", "oneway": "yes", "ref": "A1;A4", "source:maxspeed": "CH:motorway", "surface": "asphalt", "toll": "yes", "tunnel": "yes", "length": 139.43978965046657}}, {"type": "Feature", "geometry": {"type": "LineString", "coordinates": [[8.6230865, 47.3324184], [8.62323, 47.3322374], [8.6237144, 47.3317537], [8.6241808, 47.3314171]]}, "properties": {"foot": "no", "highway": "tertiary", "layer": "-1", "maxspeed": "50", "name": "Dorfstrasse", "surface": "asphalt", "tunnel": "yes", "length": 139.3285626721283}}, {"type": "Feature", "geometry": {"type": "LineString", "coordinates": [[8.5606645, 47.4048765], [8.5603507, 47.4047496], [8.55975, 47.4045148], [8.5594416, 47.4044137], [8.5591223, 47.4043256], [8.5584378, 47.404152], [8.5563932, 47.4035994], [8.5559276, 47.4034715]]}, "properties": {"highway": "motorway", "lanes": "1", "layer": "-1", "lit": "yes", "maxspeed": "60", "note": "Baustellenbedingt nur noch ein Fahrstreifen", "oneway": "yes", "ref": "A1L", "toll": "yes", "tunnel": "yes", "tunnel:name": "Sch\u00f6neichtunnel", "wikidata": "Q1667296", "wikipedia": "de:Sch\u00f6neichtunnel", "length": 390.9261749907767}}, {"type": "Feature", "geometry": {"type": "LineString", "coordinates": [[8.4827231, 47.4242756], [8.4820365, 47.4240917], [8.4815355, 47.4239569], [8.4812043, 47.4238737], [8.4804711, 47.4236821], [8.4800347, 47.4235938], [8.4795757, 47.4235146], [8.4788506, 47.4234009], [8.4781161, 47.4233086], [8.476511, 47.4231231], [8.4680404, 47.4224313], [8.4665206, 47.4222942], [8.4651579, 47.4221659], [8.4622577, 47.4218635], [8.460097, 47.4215986], [8.4578989, 47.4213287], [8.4534661, 47.4207277], [8.4521183, 47.4205154], [8.4513728, 47.4203895], [8.4504932, 47.4201982], [8.4494692, 47.4199301], [8.4485994, 47.4196598], [8.4478655, 47.4193855], [8.4471013, 47.4190806], [8.4464485, 47.4187856], [8.4458068, 47.418472], [8.4453428, 47.4182201], [8.4448916, 47.4179678], [8.4443145, 47.4175808], [8.4436978, 47.4171678], [8.4429905, 47.4166757], [8.4424989, 47.4163462], [8.4418103, 47.4159287], [8.4412984, 47.4156616], [8.4407322, 47.4154099]]}, "properties": {"highway": "motorway", "int_ref": "E 41;E 60", "lanes": "3", "layer": "-1", "length": 3397.344084481, "lit": "24/7", "maxspeed": "80", "name": "3. R\u00f6hre Gubristtunnel", "oneway": "yes", "ref": "A1;A4", "source:maxspeed": "sign", "surface": "asphalt", "toll": "yes", "tunnel": "yes", "tunnel:name": "Gubristtunnel", "wikipedia": "de:Gubristtunnel"}}, {"type": "Feature", "geometry": {"type": "LineString", "coordinates": [[8.5729412, 47.4250634], [8.5730718, 47.4252707], [8.5731313, 47.4253835], [8.5731751, 47.4254971], [8.5732318, 47.4256853]]}, "properties": {"highway": "motorway_link", "lanes": "1", "layer": "-1", "lit": "yes", "maxspeed": "80", "nat_name": "N11", "old_name": "A51", "oneway": "yes", "ref": "A11", "surface": "asphalt", "toll": "no", "tunnel": "yes", "length": 72.79778377354384}}, {"type": "Feature", "geometry": {"type": "LineString", "coordinates": [[8.5320962, 47.3659903], [8.5322865, 47.3656185]]}, "properties": {"bicycle": "use_sidepath", "foot": "no", "highway": "primary", "lanes": "2", "layer": "-1", "lit": "yes", "maxspeed": "50", "name": "Alfred-Escher-Strasse", "name:etymology:wikidata": "Q115569", "oneway": "yes", "ref": "3", "surface": "asphalt", "tunnel": "yes", "width": "5.8", "wikidata": "Q27330560", "length": 43.76397121587868}}, {"type": "Feature", "geometry": {"type": "LineString", "coordinates": [[8.4239084, 47.3622266], [8.4242226, 47.363037], [8.4244209, 47.3637588], [8.4244871, 47.364138], [8.4245022, 47.364519], [8.4245042, 47.3648457], [8.4244787, 47.3651694], [8.424414, 47.3655017], [8.4243374, 47.365831], [8.4242213, 47.3661664], [8.4240946, 47.3664258]]}, "properties": {"highway": "motorway", "int_ref": "E 41", "lanes": "2", "layer": "-2", "lit": "yes", "maxheight": "default", "maxspeed": "100", "oneway": "yes", "ref": "A3;A4", "source:maxspeed": "sign", "surface": "asphalt", "toll": "yes", "tunnel": "yes", "tunnel:name": "Eggraintunnel", "length": 475.02101380974966}}, {"type": "Feature", "geometry": {"type": "LineString", "coordinates": [[8.4235118, 47.3670799], [8.4237113, 47.3666611], [8.4238994, 47.3662211], [8.4240322, 47.3657776], [8.4240844, 47.3654838], [8.4241292, 47.3651718], [8.4241544, 47.3648572], [8.4241502, 47.3645429], [8.424114, 47.3641843], [8.4240529, 47.3638237], [8.4239538, 47.3634661], [8.4238335, 47.363107], [8.4236272, 47.3624391]]}, "properties": {"highway": "motorway", "int_ref": "E 41", "lanes": "2", "layer": "-2", "lit": "yes", "maxheight": "default", "maxspeed": "100", "maxspeed:variable": "obstruction", "oneway": "yes", "overtaking:hgv": "no", "ref": "A3;A4", "shoulder:right": "yes", "source:maxspeed": "signals", "surface": "asphalt", "toll": "yes", "tunnel": "yes", "tunnel:name": "Eggraintunnel", "length": 525.5148067876819}}, {"type": "Feature", "geometry": {"type": "LineString", "coordinates": [[8.4249384, 47.3648988], [8.4246772, 47.3648869], [8.4244117, 47.364842], [8.4241395, 47.364765], [8.4238993, 47.3646609], [8.4236896, 47.3645375], [8.4234859, 47.3643542], [8.4233401, 47.3641763], [8.4232186, 47.3639347], [8.4231875, 47.3636757], [8.4232467, 47.3633588], [8.4233261, 47.3631011], [8.4233712, 47.3629416], [8.4234062, 47.362818], [8.4234413, 47.362627], [8.4234485, 47.3625319]]}, "properties": {"highway": "motorway_link", "lanes": "1", "layer": "-1", "lit": "yes", "maxspeed": "60", "oneway": "yes", "ref": "A4", "tunnel": "yes", "tunnel:name": "Ristettunnel", "length": 339.4637292791195}}, {"type": "Feature", "geometry": {"type": "LineString", "coordinates": [[8.4240702, 47.3621596], [8.4242466, 47.3623464], [8.4243948, 47.3624998], [8.4245631, 47.3626433], [8.4248447, 47.3628303], [8.4250728, 47.362964], [8.4253659, 47.3631107], [8.4257339, 47.3632391], [8.4261055, 47.3633474], [8.4264289, 47.3634156], [8.4268482, 47.3634684], [8.4273154, 47.3634846], [8.427845, 47.3634543], [8.4283745, 47.3633791], [8.4287047, 47.3633255], [8.4290355, 47.3632847]]}, "properties": {"destination": "Uitikon", "destination:lanes": "Uitikon", "highway": "motorway_link", "lanes": "1", "layer": "-1", "lit": "yes", "maxheight": "4.8", "maxspeed": "80", "oneway": "yes", "ref": "A4", "source:maxspeed": "sign", "tunnel": "yes", "tunnel:name": "Ristettunnel", "length": 432.44931485132173}}, {"type": "Feature", "geometry": {"type": "LineString", "coordinates": [[8.4218543, 47.3577697], [8.4217107, 47.3572347], [8.4216045, 47.3566736], [8.4215578, 47.3560002], [8.4215695, 47.3554685], [8.4216038, 47.3549366], [8.4216744, 47.3545621], [8.4217696, 47.3541788], [8.421914, 47.3537263], [8.4220855, 47.3532681], [8.4224191, 47.3525771], [8.4229103, 47.3518083], [8.4234284, 47.3511422], [8.4239751, 47.3505539], [8.4243025, 47.3502435]]}, "properties": {"highway": "motorway", "int_ref": "E 41", "lanes": "2", "layer": "-1", "lit": "yes", "maxheight": "default", "maxspeed": "100", "oneway": "yes", "overtaking:hgv": "no", "ref": "A3;A4", "shoulder:right": "yes", "source:maxspeed": "signals", "surface": "asphalt", "toll": "yes", "tunnel": "yes", "tunnel:name": "Hafnerbergtunnel", "length": 883.4719295508085}}, {"type": "Feature", "geometry": {"type": "LineString", "coordinates": [[8.426497, 47.3488317], [8.4256963, 47.349474], [8.4250496, 47.3499894]]}, "properties": {"highway": "motorway", "int_ref": "E 41", "lanes": "3", "layer": "-1", "lit": "yes", "maxheight": "default", "maxspeed": "100", "oneway": "yes", "placement": "right_of:1", "ref": "A3;A4", "source:maxspeed": "sign", "surface": "asphalt", "toll": "yes", "tunnel": "yes", "tunnel:name": "Hafnerbergtunnel", "turn:lanes": "||merge_to_left", "length": 168.8989555492695}}, {"type": "Feature", "geometry": {"type": "LineString", "coordinates": [[8.4208848, 47.371136], [8.4204733, 47.3710401]]}, "properties": {"highway": "secondary", "layer": "-1", "maxspeed": "60", "name": "Sch\u00fctzenstrasse", "surface": "asphalt", "tunnel": "yes", "length": 32.857647388208015}}, {"type": "Feature", "geometry": {"type": "LineString", "coordinates": [[8.4143007, 47.3902367], [8.4141041, 47.389698], [8.4139881, 47.3892268], [8.4139002, 47.3886294], [8.4138731, 47.3879968], [8.4139192, 47.3873629], [8.4140169, 47.3868252], [8.4141123, 47.3864984]]}, "properties": {"change:lanes": "not_left|not_right|no", "highway": "motorway", "int_ref": "E 41", "lanes": "3", "layer": "-1", "lit": "yes", "maxheight": "default", "maxspeed": "100", "maxspeed:variable": "obstruction", "oneway": "yes", "placement": "right_of:1", "ref": "A3;A4", "shoulder": "no", "source:maxspeed": "signals", "surface": "asphalt", "toll": "yes", "tunnel": "yes", "tunnel:name": "Honerettunnel", "length": 419.7642938918096}}, {"type": "Feature", "geometry": {"type": "LineString", "coordinates": [[8.4143254, 47.3862905], [8.4141862, 47.3868435], [8.414098, 47.3873743], [8.4140439, 47.388007], [8.4140732, 47.388623], [8.4141683, 47.38921], [8.4142778, 47.3896732], [8.4144562, 47.3901907]]}, "properties": {"highway": "motorway", "int_ref": "E 41", "lanes": "2", "layer": "-1", "lit": "yes", "maxheight": "default", "maxspeed": "100", "oneway": "yes", "ref": "A3;A4", "source:maxspeed": "sign", "surface": "asphalt", "toll": "yes", "tunnel": "yes", "tunnel:name": "Honerettunnel", "length": 437.64756543025015}}, {"type": "Feature", "geometry": {"type": "LineString", "coordinates": [[8.4669602, 47.3514723], [8.4665923, 47.3513787]]}, "properties": {"bicycle": "use_sidepath", "highway": "tertiary", "lanes": "1", "layer": "-1", "loc_name": "Landiker Viadukt", "maxspeed": "60", "name": "Stallikonerstrasse", "priority": "forward", "surface": "asphalt", "tunnel": "yes", "length": 29.681023674668694}}, {"type": "Feature", "geometry": {"type": "LineString", "coordinates": [[8.5415173, 47.3772663], [8.5415161, 47.3772031], [8.5415268, 47.3770334], [8.541605, 47.3767906]]}, "properties": {"cycleway:right": "track", "foot": "no", "highway": "tertiary", "layer": "-1", "lit": "yes", "maxspeed": "50", "name": "Bahnhofquai", "oneway": "yes", "oneway:bicycle": "yes", "sidewalk": "no", "surface": "asphalt", "tunnel": "yes", "wikidata": "Q27322849", "length": 53.54379786849073}}, {"type": "Feature", "geometry": {"type": "LineString", "coordinates": [[8.5417292, 47.3767824], [8.5417386, 47.3768471], [8.5417548, 47.3769256], [8.541842, 47.3772215]]}, "properties": {"cycleway:right": "lane", "foot": "no", "highway": "tertiary", "lanes": "1", "layer": "-1", "lit": "yes", "maxspeed": "50", "name": "Bahnhofquai", "oneway": "yes", "oneway:bicycle": "yes", "sidewalk": "no", "surface": "asphalt", "tunnel": "yes", "wikidata": "Q27322849", "length": 49.59124998029001}}, {"type": "Feature", "geometry": {"type": "LineString", "coordinates": [[8.5466403, 47.3980071], [8.5462163, 47.3975098]]}, "properties": {"foot": "no", "highway": "primary", "lanes": "2", "layer": "-1", "lit": "yes", "maxspeed": "50", "name": "Winterthurerstrasse", "oneway": "yes", "surface": "asphalt", "tunnel": "yes", "wikidata": "Q27331753", "length": 63.88564350314771}}, {"type": "Feature", "geometry": {"type": "LineString", "coordinates": [[8.5463274, 47.3974666], [8.5467613, 47.3979753]]}, "properties": {"foot": "no", "highway": "primary", "lanes": "2", "layer": "-1", "lit": "yes", "maxspeed": "50", "name": "Winterthurerstrasse", "oneway": "yes", "ref": "17", "tunnel": "yes", "wikidata": "Q27331753", "length": 65.35697659284077}}, {"type": "Feature", "geometry": {"type": "LineString", "coordinates": [[8.4525879, 47.3420847], [8.4515773, 47.3420534], [8.4509269, 47.3420033], [8.4502674, 47.3419288], [8.4497414, 47.3418487], [8.4492406, 47.3417448], [8.4482501, 47.3415061], [8.4472204, 47.3412323], [8.4467094, 47.341103], [8.446195, 47.3409927], [8.4457044, 47.3408952], [8.4452071, 47.3408075], [8.4442146, 47.3406691], [8.4432672, 47.3405924], [8.4424858, 47.3405597], [8.4417189, 47.3405583], [8.4411767, 47.3405802], [8.4406599, 47.3406058], [8.4396524, 47.3406933], [8.4390414, 47.3407847], [8.4384416, 47.3408819], [8.4378493, 47.3409969], [8.4372703, 47.341129], [8.4367741, 47.3412628], [8.4363214, 47.3413957], [8.4358574, 47.3415465], [8.4353863, 47.3417064], [8.4345596, 47.3420476], [8.4337636, 47.3424157], [8.4330129, 47.3428247], [8.4326507, 47.3430394], [8.432304, 47.343266], [8.4317189, 47.3436785], [8.4314171, 47.3438958], [8.431153, 47.3441361], [8.4306588, 47.3445783], [8.4302274, 47.345036], [8.4296862, 47.3456534]]}, "properties": {"avz": "565", "cs_dir": "2", "highway": "motorway", "int_ref": "E 41", "lanes": "3", "layer": "-1", "lit": "yes", "maxheight": "default", "maxspeed": "100", "maxspeed:variable": "obstruction", "oneway": "yes", "ref": "A3;A4", "source:maxspeed": "sign", "toll": "yes", "tunnel": "yes", "tunnel:name": "Aeschertunnel", "length": 1968.2859129152903}}, {"type": "Feature", "geometry": {"type": "LineString", "coordinates": [[8.4286072, 47.2961076], [8.4288324, 47.2965381], [8.4290209, 47.29696], [8.4291691, 47.2974101], [8.4292902, 47.2978673], [8.4293826, 47.2983296], [8.4294603, 47.2988521], [8.4295748, 47.2998532], [8.4296855, 47.30044], [8.4298363, 47.3010101], [8.4299734, 47.3014006], [8.4301918, 47.3018821], [8.4304316, 47.3023388], [8.4309773, 47.3031379], [8.431597, 47.3038648], [8.4324807, 47.3048187], [8.4349567, 47.30749], [8.4471292, 47.3206193], [8.4532486, 47.3272139], [8.456305, 47.3305102], [8.4578435, 47.332165], [8.4585523, 47.3330015], [8.4592132, 47.333858]]}, "properties": {"avz": "572", "cs_dir": "2", "highway": "motorway", "int_ref": "E 41", "lanes": "2", "layer": "-4", "lit": "yes", "maxspeed": "100", "name": "Islisbergtunnel", "oneway": "yes", "ref": "A4", "source:maxspeed": "sign", "surface": "asphalt", "toll": "yes", "tunnel": "yes", "tunnel:name": "Islisbergtunnel", "length": 4835.435924761466}}, {"type": "Feature", "geometry": {"type": "LineString", "coordinates": [[8.5227255, 47.3372895], [8.5229299, 47.3366745], [8.5231543, 47.3362044], [8.5234415, 47.335666], [8.5239268, 47.3349168], [8.5244349, 47.3342559], [8.5249423, 47.3336833], [8.525488, 47.3331391], [8.5258547, 47.3328376]]}, "properties": {"highway": "motorway", "lanes": "3", "layer": "-1", "lit": "yes", "maxheight": "default", "maxspeed": "100", "oneway": "yes", "ref": "A3", "toll": "yes", "tunnel": "yes", "tunnel:name": "Entlisbergtunnel", "length": 553.6732802492326}}, {"type": "Feature", "geometry": {"type": "LineString", "coordinates": [[8.5223514, 47.3410027], [8.5222072, 47.3413669], [8.5220345, 47.3417244], [8.5219223, 47.3419325], [8.5217904, 47.3421767], [8.5216294, 47.3424111], [8.5214457, 47.3426394], [8.5213006, 47.3427996], [8.5211375, 47.3429459], [8.520685, 47.3432795]]}, "properties": {"highway": "motorway", "lanes": "2", "layer": "-1", "lit": "yes", "maxheight": "default", "maxspeed": "80", "oneway": "yes", "ref": "A3", "toll": "yes", "tunnel": "yes", "length": 286.7871117945812}}, {"type": "Feature", "geometry": {"type": "LineString", "coordinates": [[8.5477894, 47.399707], [8.5476081, 47.3995877], [8.547389, 47.3994269], [8.5469765, 47.3991215], [8.5466356, 47.3988207], [8.5463941, 47.3986093], [8.546168, 47.3983879], [8.546064, 47.3982204], [8.546004, 47.3980417], [8.5458789, 47.3975305], [8.545718, 47.3972696], [8.5454199, 47.3966736], [8.5452544, 47.3962486], [8.5450927, 47.3956433], [8.5448075, 47.3936593], [8.5447292, 47.3932036], [8.544662, 47.3928937], [8.5446077, 47.3926682], [8.5445367, 47.392447], [8.5444487, 47.3922116], [8.544356, 47.3919769], [8.5441909, 47.3916313], [8.544012, 47.3913167], [8.5437803, 47.3909519], [8.5435831, 47.3906767], [8.5434007, 47.3904387], [8.5432132, 47.3902024], [8.5427938, 47.3897419], [8.5423307, 47.389274], [8.5418914, 47.3888508], [8.5413072, 47.3883592], [8.5407011, 47.387873], [8.5392936, 47.3868853], [8.538398, 47.3862831], [8.5379811, 47.3860293], [8.5378506, 47.3859889], [8.5377033, 47.3859695], [8.5375806, 47.3859537], [8.5374616, 47.3859307], [8.5373831, 47.3859125], [8.5372647, 47.3858642]]}, "properties": {"bicycle": "no", "foot": "no", "highway": "trunk", "lanes": "1", "layer": "-3", "lit": "yes", "maxspeed": "60", "oneway": "yes", "ref": "A1L", "surface": "asphalt", "toll": "yes", "tunnel": "yes", "tunnel:name": "Milchbucktunnel", "wikidata": "Q1934398", "wikipedia": "de:Milchbucktunnel", "length": 1805.4573920502314}}, {"type": "Feature", "geometry": {"type": "LineString", "coordinates": [[8.5382419, 47.3861023], [8.5393603, 47.3868559], [8.5407532, 47.387841], [8.5413626, 47.38832], [8.5419446, 47.3888209], [8.5423938, 47.389253], [8.5428627, 47.3897325], [8.5432454, 47.3901631], [8.5434537, 47.3904159], [8.5436488, 47.3906646], [8.543842, 47.3909296], [8.5440767, 47.3912925], [8.544257, 47.3916062], [8.5444266, 47.3919616], [8.5446162, 47.3924384], [8.5446848, 47.3926666], [8.5447469, 47.3928926], [8.5448729, 47.3934977], [8.5449685, 47.3941129], [8.5450763, 47.3948879], [8.5451998, 47.3956651], [8.5453542, 47.3962419], [8.5454593, 47.3965383], [8.5455794, 47.3968257], [8.5458018, 47.397267], [8.5461136, 47.3977534]]}, "properties": {"highway": "trunk", "lanes": "1", "layer": "-3", "lit": "yes", "maxspeed": "80", "oneway": "yes", "ref": "A1L", "surface": "asphalt", "toll": "yes", "tunnel": "yes", "tunnel:name": "Milchbucktunnel", "length": 1469.9462892030072}}, {"type": "Feature", "geometry": {"type": "LineString", "coordinates": [[8.4296862, 47.3456534], [8.4295403, 47.3459421], [8.4294207, 47.3462246], [8.4293093, 47.3466098], [8.429285, 47.347056], [8.4293057, 47.3472826]]}, "properties": {"destination": "Birmensdorf;Oberwil-Lieli", "highway": "motorway_link", "layer": "-1", "lit": "yes", "maxheight": "4.8", "maxspeed": "80", "oneway": "yes", "ref": "A3;A4", "tunnel": "yes", "length": 185.14747977653266}}, {"type": "Feature", "geometry": {"type": "LineString", "coordinates": [[8.4594358, 47.3349281], [8.4591804, 47.3344375], [8.4588958, 47.3339329], [8.458595, 47.3334924], [8.458249, 47.3330684], [8.4575255, 47.3322328], [8.4560092, 47.3306118], [8.4529362, 47.3273016], [8.4468462, 47.3207344], [8.4346595, 47.307592], [8.4322021, 47.3049426], [8.4312653, 47.3039347], [8.4306348, 47.3031693], [8.4301037, 47.3023801], [8.4298556, 47.3019211], [8.4296624, 47.3014712], [8.4294951, 47.3010312], [8.4293352, 47.3004403], [8.4292349, 47.2998583], [8.4291354, 47.2988414], [8.4290688, 47.2983295], [8.4289989, 47.2978641], [8.4288934, 47.2974338], [8.4287595, 47.2970075], [8.428606, 47.2966228], [8.4284274, 47.2962244]]}, "properties": {"avz": "572", "cs_dir": "1", "highway": "motorway", "int_ref": "E 41", "lanes": "2", "layer": "-4", "lit": "24/7", "maxspeed": "100", "maxspeed:variable": "obstruction", "name": "Islisbergtunnel", "oneway": "yes", "overtaking:hgv": "no", "ref": "A4", "shoulder": "no", "source:maxspeed": "signals", "surface": "asphalt", "toll": "yes", "tunnel": "yes", "tunnel:name": "Islisbergtunnel", "length": 4946.835332631495}}, {"type": "Feature", "geometry": {"type": "LineString", "coordinates": [[8.5240181, 47.3351288], [8.5236633, 47.3356454], [8.5233742, 47.3361608], [8.5232234, 47.3364579], [8.523108, 47.3367323], [8.5229218, 47.3373214]]}, "properties": {"destination:lanes": "Z\u00fcrich City|Z\u00fcrich City;Brunau;Basel;Bern;Luzern;Westring Z\u00fcrich;Flughafen|Basel;Bern;Luzern;Westring Z\u00fcrich;Flughafen", "highway": "motorway", "lanes": "3", "layer": "-1", "lit": "yes", "maxheight": "default", "maxspeed": "100", "oneway": "yes", "ref": "A3W", "toll": "yes", "tunnel": "yes", "tunnel:name": "Entlisbergtunnel", "length": 258.37146719658483}}, {"type": "Feature", "geometry": {"type": "LineString", "coordinates": [[8.4481736, 47.3928915], [8.4483357, 47.3927037]]}, "properties": {"bicycle": "use_sidepath", "foot": "no", "highway": "tertiary", "lane_markings": "no", "layer": "-1", "maxheight": "3", "maxspeed": "50", "name": "Uitikonerstrasse", "surface": "asphalt", "tunnel": "yes", "length": 24.201560442687434}}, {"type": "Feature", "geometry": {"type": "LineString", "coordinates": [[8.601666, 47.4078927], [8.6008034, 47.4077951]]}, "properties": {"highway": "motorway_link", "lanes": "1", "layer": "-1", "lit": "yes", "maxheight": "2", "maxspeed": "60", "oneway": "yes", "surface": "asphalt", "tunnel": "yes", "length": 66.00308328085774}}, {"type": "Feature", "geometry": {"type": "LineString", "coordinates": [[8.5998945, 47.4035425], [8.5998549, 47.4036252], [8.5998204, 47.4037195], [8.5997884, 47.4038783], [8.59978, 47.4040296]]}, "properties": {"highway": "motorway_link", "layer": "-1", "lit": "yes", "maxheight": "4.8", "maxspeed": "80", "oneway": "yes", "source:maxspeed": "sign", "surface": "asphalt", "tunnel": "yes", "length": 55.123786622574826}}, {"type": "Feature", "geometry": {"type": "LineString", "coordinates": [[8.570705, 47.4357126], [8.5708258, 47.4352538], [8.5710499, 47.434231], [8.571249, 47.4332015], [8.5717015, 47.4303204]]}, "properties": {"alt_name": "Flughafenautobahn", "avz": "241", "highway": "motorway", "lanes": "3", "layer": "-1", "lit": "yes", "maxspeed": "100", "nat_name": "N11", "old_name": "A51", "oneway": "yes", "ref": "A11", "ssvz": "865N", "surface": "asphalt", "toll": "yes", "tunnel": "yes", "tunnel:name": "Bubenholztunnel", "length": 604.3534482099685}}, {"type": "Feature", "geometry": {"type": "LineString", "coordinates": [[8.5718838, 47.4303348], [8.5718228, 47.430727], [8.5717191, 47.4315115]]}, "properties": {"alt_name": "Flughafenautobahn", "highway": "motorway", "lanes": "2", "layer": "-1", "lit": "yes", "maxspeed": "100", "nat_name": "N11", "old_name": "A51", "oneway": "yes", "ref": "A11", "surface": "asphalt", "toll": "yes", "tunnel": "yes", "tunnel:name": "Bubenholztunnel", "length": 131.4169512969687}}, {"type": "Feature", "geometry": {"type": "LineString", "coordinates": [[8.5719625, 47.4303417], [8.5719072, 47.4306592], [8.5718587, 47.4310887], [8.5717191, 47.4315115]]}, "properties": {"highway": "motorway_link", "lanes": "1", "layer": "-1", "lit": "yes", "maxheight": "4.8", "maxspeed": "100", "oneway": "yes", "surface": "asphalt", "tunnel": "yes", "tunnel:name": "Bubenholztunnel", "length": 131.60849237403195}}, {"type": "Feature", "geometry": {"type": "LineString", "coordinates": [[8.5292321, 47.3682376], [8.5304196, 47.3673799], [8.5309866, 47.3669765], [8.5313067, 47.366757], [8.5315731, 47.3665813]]}, "properties": {"bicycle": "use_sidepath", "foot": "no", "highway": "primary", "lanes": "2", "layer": "-2", "lit": "yes", "maxspeed": "50", "name": "Ulmbergtunnel", "oneway": "yes", "ref": "3", "surface": "asphalt", "tunnel": "yes", "wikidata": "Q20012687", "wikipedia": "de:Ulmbergtunnel", "length": 255.32343418768104}}, {"type": "Feature", "geometry": {"type": "LineString", "coordinates": [[8.4425925, 47.3607387], [8.4422256, 47.3607835]]}, "properties": {"highway": "secondary", "lanes": "2", "maxspeed": "80", "name": "Waldeggstrasse", "surface": "asphalt", "tunnel": "yes", "length": 28.160535850449552}}, {"type": "Feature", "geometry": {"type": "LineString", "coordinates": [[8.4298548, 47.4114953], [8.4298435, 47.4114238], [8.4298551, 47.4113151], [8.4299067, 47.4111855], [8.4300046, 47.4110503]]}, "properties": {"destination": "Z\u00fcrich-City", "highway": "motorway_link", "lanes": "1", "layer": "-1", "lit": "yes", "maxheight": "default", "maxspeed": "80", "oneway": "yes", "ref": "A1H", "surface": "asphalt", "toll": "yes", "tunnel": "yes", "length": 51.78660745675609}}, {"type": "Feature", "geometry": {"type": "LineString", "coordinates": [[8.5822019, 47.4132522], [8.5821921, 47.413517]]}, "properties": {"foot": "no", "highway": "secondary", "lanes": "3", "lanes:backward": "1", "lanes:forward": "2", "layer": "-1", "maxspeed": "60", "name": "Weststrasse", "surface": "asphalt", "tunnel": "yes", "length": 29.44946122914557}}, {"type": "Feature", "geometry": {"type": "LineString", "coordinates": [[8.5565908, 47.403878], [8.5564536, 47.4037585], [8.5562476, 47.4036214], [8.5559276, 47.4034715]]}, "properties": {"highway": "motorway_link", "lanes": "1", "layer": "-1", "lit": "yes", "maxheight": "default", "maxspeed": "60", "oneway": "yes", "surface": "asphalt", "tunnel": "yes", "length": 67.96492188550071}}, {"type": "Feature", "geometry": {"type": "LineString", "coordinates": [[8.4017573, 47.3415245], [8.4013367, 47.3415907], [8.3985597, 47.3420679], [8.3976048, 47.3422034], [8.3966446, 47.3422761], [8.3943057, 47.3422943], [8.3934554, 47.3423906], [8.3921478, 47.3427561], [8.3916847, 47.3428316], [8.3914713, 47.3428479]]}, "properties": {"bicycle": "no", "foot": "no", "highway": "trunk", "layer": "-1", "length": 796.7717828650705, "maxheight": "default", "maxspeed": "80", "motorroad": "yes", "name": "Lieli", "ref": "K 263", "start_date": "2006", "tunnel": "yes", "tunnel:name": "Lieli"}}, {"type": "Feature", "geometry": {"type": "LineString", "coordinates": [[8.5547824, 47.4029366], [8.5556752, 47.4031784]]}, "properties": {"highway": "motorway_link", "lanes": "1", "layer": "-1", "lit": "yes", "maxspeed": "80", "oneway": "yes", "tunnel": "yes", "length": 72.55460598200605}}, {"type": "Feature", "geometry": {"type": "LineString", "coordinates": [[8.5431338, 47.3995684], [8.5430437, 47.3995328], [8.5427738, 47.399426], [8.5423991, 47.3992264], [8.5421831, 47.3991467], [8.5419672, 47.3990915], [8.5414784, 47.399008], [8.5389403, 47.3985953]]}, "properties": {"bicycle": "no", "foot": "no", "highway": "primary", "lanes": "1", "layer": "-2", "lit": "yes", "maxspeed": "50", "oneway": "yes", "ref": "1", "sidewalk": "no", "surface": "asphalt", "tunnel": "yes", "tunnel:name": "Hirschwiesentunnel", "length": 338.4371429773323}}, {"type": "Feature", "geometry": {"type": "LineString", "coordinates": [[8.5389662, 47.3985502], [8.5415114, 47.3989388], [8.5419943, 47.399032], [8.5422223, 47.3990996], [8.5424353, 47.3991817], [8.5428032, 47.3993758]]}, "properties": {"bicycle": "no", "foot": "no", "highway": "primary", "lanes": "1", "layer": "-2", "lit": "yes", "maxspeed": "50", "oneway": "yes", "ref": "1", "sidewalk": "no", "surface": "asphalt", "tunnel": "yes", "tunnel:name": "Hirschwiesentunnel", "length": 307.2679213996227}}, {"type": "Feature", "geometry": {"type": "LineString", "coordinates": [[8.5708148, 47.4240296], [8.571099, 47.4240655], [8.5713621, 47.4241188], [8.5716129, 47.4241888], [8.5718173, 47.4242611]]}, "properties": {"highway": "motorway_link", "lanes": "1", "layer": "-1", "lit": "yes", "maxheight": "default", "maxspeed": "80", "nat_name": "N11", "old_name": "A51", "oneway": "yes", "ref": "A11", "surface": "asphalt", "toll": "no", "tunnel": "yes", "length": 80.38152125732043}}, {"type": "Feature", "geometry": {"type": "LineString", "coordinates": [[8.5393533, 47.3836204], [8.5391413, 47.3837974], [8.5389909, 47.3839526], [8.5388466, 47.3840979], [8.5384201, 47.3843942], [8.5379627, 47.3846847], [8.5375176, 47.3849226], [8.5372807, 47.38504]]}, "properties": {"foot": "no", "highway": "tertiary", "lanes": "2", "layer": "-1", "maxspeed": "50", "name": "Wasserwerkstrasse", "oneway": "yes", "surface": "asphalt", "tunnel": "yes", "turn:lanes": "through|right", "wikidata": "Q27330279", "length": 223.7759499181973}}, {"type": "Feature", "geometry": {"type": "LineString", "coordinates": [[8.5372807, 47.38504], [8.5371896, 47.3851156], [8.5371595, 47.3851835], [8.5371578, 47.3852414], [8.5371441, 47.3853127]]}, "properties": {"highway": "trunk_link", "lanes": "1", "layer": "-2", "lit": "yes", "maxheight": "4.8", "maxspeed": "80", "note": "position estimated", "oneway": "yes", "ref": "A1L", "toll": "yes", "tunnel": "yes", "tunnel:name": "Milchbucktunnel", "length": 33.177526319187486}}, {"type": "Feature", "geometry": {"type": "LineString", "coordinates": [[8.5367878, 47.385552], [8.5367247, 47.3855324], [8.5366233, 47.3855035], [8.5365043, 47.3854983]]}, "properties": {"highway": "trunk_link", "lanes": "1", "layer": "-2", "lit": "yes", "maxspeed": "60", "note": "position estimated", "oneway": "yes", "ref": "A1L", "surface": "asphalt", "toll": "yes", "tunnel": "yes", "tunnel:name": "Milchbucktunnel", "length": 22.546403877279758}}, {"type": "Feature", "geometry": {"type": "LineString", "coordinates": [[8.5368381, 47.385232], [8.536975, 47.3852179], [8.5370573, 47.3852399], [8.5371441, 47.3853127]]}, "properties": {"highway": "trunk_link", "lanes": "1", "layer": "-2", "lit": "yes", "maxheight": "4.8", "maxspeed": "80", "note": "position estimated", "oneway": "yes", "ref": "A1L", "toll": "yes", "tunnel": "yes", "tunnel:name": "Milchbucktunnel", "length": 27.548141045782323}}, {"type": "Feature", "geometry": {"type": "LineString", "coordinates": [[8.5371441, 47.3853127], [8.5372983, 47.3854511], [8.5374707, 47.385556], [8.5378504, 47.3858361], [8.5382419, 47.3861023]]}, "properties": {"bicycle": "no", "foot": "no", "highway": "trunk", "lanes": "1", "layer": "-2", "lit": "yes", "maxspeed": "80", "note": "position estimated", "oneway": "yes", "ref": "A1L", "surface": "asphalt", "toll": "yes", "tunnel": "yes", "tunnel:name": "Milchbucktunnel", "length": 120.93234146021267}}, {"type": "Feature", "geometry": {"type": "LineString", "coordinates": [[8.4716067, 47.4346367], [8.4720083, 47.4352121]]}, "properties": {"foot": "no", "highway": "secondary", "layer": "-1", "maxspeed": "60", "maxspeed:type": "sign", "name": "Ostring", "ref": "295.3", "surface": "asphalt", "tunnel": "yes", "length": 70.78346672909768}}, {"type": "Feature", "geometry": {"type": "LineString", "coordinates": [[8.4725777, 47.4360671], [8.4729371, 47.4366609]]}, "properties": {"cycleway:both": "no", "foot": "no", "highway": "secondary", "layer": "-1", "maxspeed": "60", "name": "Ostring", "ref": "295.3", "surface": "asphalt", "tunnel": "yes", "length": 71.36828257563906}}, {"type": "Feature", "geometry": {"type": "LineString", "coordinates": [[8.5323618, 47.3656634], [8.5321697, 47.3660346]]}, "properties": {"bicycle": "use_sidepath", "foot": "no", "highway": "primary", "lanes": "2", "layer": "-1", "lit": "yes", "maxspeed": "50", "name": "Alfred-Escher-Strasse", "name:etymology:wikidata": "Q115569", "oneway": "yes", "ref": "3", "surface": "asphalt", "tunnel": "yes", "width": "5.8", "wikidata": "Q27330560", "length": 43.74587739948925}}, {"type": "Feature", "geometry": {"type": "LineString", "coordinates": [[8.5490655, 47.4293754], [8.549341, 47.4296713]]}, "properties": {"bicycle": "yes", "destination:lanes": "Bern;Chur;Zurzach;R\u00fcmlang;Glattbrugg|Flughafen;Sankt Gallen;Z\u00fcrich-City", "foot": "no", "highway": "secondary", "lanes": "2", "layer": "-1", "maxheight": "4.8", "name": "Birchstrasse", "note": "Richtplankategorie: Hauptverkehrsstrasse (HVS); Hauptstrasse ohne Nummerntafel", "oneway": "yes", "owner": "Kanton Z\u00fcrich", "surface": "asphalt", "tunnel": "yes", "tunnel:name": "Eichraintunnel", "wikidata": "Q27331786", "length": 38.91383417122366}}, {"type": "Feature", "geometry": {"type": "LineString", "coordinates": [[8.5488536, 47.4294553], [8.5484887, 47.4289815], [8.5483586, 47.4288282], [8.5482246, 47.4286831], [8.5480256, 47.4285157], [8.5475902, 47.4281913]]}, "properties": {"bicycle": "yes", "foot": "no", "highway": "secondary", "lanes": "2", "layer": "-1", "maxheight": "4.8", "maxspeed": "60", "name": "Birchstrasse", "note": "Richtplankategorie: Hauptverkehrsstrasse (HVS); Hauptstrasse ohne Nummerntafel", "oneway": "yes", "owner": "Kanton Z\u00fcrich", "surface": "asphalt", "tunnel": "yes", "tunnel:name": "Eichraintunnel", "wikidata": "Q27331786", "length": 170.83901482672434}}, {"type": "Feature", "geometry": {"type": "LineString", "coordinates": [[8.4283322, 47.411469], [8.4283294, 47.4115899], [8.4283069, 47.4117175], [8.4282681, 47.411833], [8.4282131, 47.4119355], [8.4281665, 47.4119968]]}, "properties": {"destination": "Bern;Basel", "destination:ref": "A1;A3", "highway": "motorway_link", "lanes": "1", "layer": "-1", "lit": "yes", "maxspeed": "60", "oneway": "yes", "ref": "A3", "surface": "asphalt", "toll": "yes", "tunnel": "yes", "length": 60.699093710844856}}, {"type": "Feature", "geometry": {"type": "LineString", "coordinates": [[8.4657874, 47.348627], [8.466437, 47.3488788], [8.467111, 47.3491038], [8.4677221, 47.3492743], [8.4683104, 47.349418], [8.4687821, 47.3495157], [8.4692677, 47.3496009], [8.4697328, 47.3496722], [8.4699727, 47.3497079], [8.4702307, 47.3497378], [8.4709906, 47.3497991], [8.4717581, 47.3498359], [8.4723392, 47.3498447], [8.4729089, 47.3498303], [8.473964, 47.3497618], [8.475022, 47.3496352], [8.4766918, 47.3493985], [8.507955, 47.3447731]]}, "properties": {"avz": "577", "highway": "motorway", "lanes": "2", "layer": "-2", "lit": "yes", "maxheight": "default", "maxspeed": "100", "name": "Uetlibergtunnel", "oneway": "yes", "ref": "A3", "toll": "yes", "tunnel": "yes", "tunnel:name": "Uetlibergtunnel", "length": 3270.6245184467452}}, {"type": "Feature", "geometry": {"type": "LineString", "coordinates": [[8.4748381, 47.3499722], [8.4739016, 47.3500801], [8.4729852, 47.3501342], [8.4723392, 47.3501479], [8.4716795, 47.3501391], [8.4710579, 47.3501102], [8.4704576, 47.3500598], [8.4696918, 47.3499814], [8.4689215, 47.3498651], [8.468592, 47.349805], [8.4682585, 47.3497317], [8.4675957, 47.3495661], [8.4668008, 47.3493442], [8.4660981, 47.3491004], [8.4656387, 47.3489303], [8.4651797, 47.3487312], [8.4648974, 47.3485992], [8.4646194, 47.3484533], [8.4641534, 47.3482055], [8.4637228, 47.3479325], [8.4632221, 47.3475671], [8.4627416, 47.3471814], [8.462387, 47.3468344], [8.4620544, 47.3464684], [8.4616638, 47.345968], [8.461146, 47.3451726]]}, "properties": {"avz": "577", "cs_dir:forward": "2", "highway": "motorway", "lanes": "3", "layer": "-2", "lit": "yes", "maxheight": "default", "maxspeed": "100", "oneway": "yes", "ref": "A3", "toll": "yes", "tunnel": "yes", "tunnel:name": "Uetlibergtunnel", "length": 1269.5213495559128}}, {"type": "Feature", "geometry": {"type": "LineString", "coordinates": [[8.552354, 47.4019756], [8.5543423, 47.4028223], [8.5547824, 47.4029366], [8.5552184, 47.4030947], [8.5558292, 47.4033223], [8.5564295, 47.4035205], [8.5591742, 47.4042505], [8.5593878, 47.404311], [8.5596006, 47.4043773], [8.5600058, 47.4045132], [8.5604075, 47.4046629], [8.5607287, 47.4047874]]}, "properties": {"highway": "motorway", "lanes": "2", "layer": "-1", "lit": "yes", "maxspeed": "60", "oneway": "yes", "ref": "A1L", "toll": "yes", "tunnel": "yes", "tunnel:name": "Sch\u00f6neichtunnel", "wikidata": "Q1667296", "wikipedia": "de:Sch\u00f6neichtunnel", "length": 707.2803886614495}}, {"type": "Feature", "geometry": {"type": "LineString", "coordinates": [[8.4586111, 47.3426729], [8.4584727, 47.34253], [8.4583471, 47.3423781], [8.4582016, 47.342134], [8.4581385, 47.3420273], [8.4580733, 47.3418716], [8.4580207, 47.3415928], [8.458007, 47.3414017], [8.458012, 47.3412085], [8.4580517, 47.3410226]]}, "properties": {"highway": "motorway", "lanes": "2", "layer": "-1", "lit": "yes", "maxspeed": "80", "oneway": "yes", "ref": "A4", "surface": "asphalt", "toll": "yes", "tunnel": "yes", "tunnel:name": "Filderentunnel", "length": 193.34605041670656}}, {"type": "Feature", "geometry": {"type": "LineString", "coordinates": [[8.4252812, 47.3490672], [8.4253056, 47.3489365], [8.4253097, 47.3488042], [8.425296, 47.3485741]]}, "properties": {"destination": "Birmensdorf;Oberwil-Lieli", "highway": "motorway_link", "lanes": "1", "layer": "-1", "lit": "yes", "maxheight": "4.8", "maxspeed": "60", "oneway": "yes", "ref": "A4", "tunnel": "yes", "length": 54.96238495693865}}, {"type": "Feature", "geometry": {"type": "LineString", "coordinates": [[8.5461136, 47.3977534], [8.5464121, 47.3980508], [8.5465449, 47.3981925], [8.5467115, 47.398389]]}, "properties": {"highway": "trunk_link", "lanes": "1", "layer": "-3", "lit": "yes", "maxheight": "4.8", "maxspeed": "80", "oneway": "yes", "tunnel": "yes", "length": 83.89399173321044}}, {"type": "Feature", "geometry": {"type": "LineString", "coordinates": [[8.5260212, 47.3329216], [8.5255167, 47.3333768], [8.5250423, 47.3338459], [8.5244894, 47.3344693], [8.5240181, 47.3351288]]}, "properties": {"destination:lanes": "Z\u00fcrich City|Z\u00fcrich City;Brunau;Basel;Bern;Luzern;Westring Z\u00fcrich;Flughafen|Basel;Bern;Luzern;Westring Z\u00fcrich;Flughafen", "highway": "motorway", "lanes": "3", "layer": "-1", "lit": "yes", "maxheight": "default", "maxspeed": "100", "oneway": "yes", "ref": "A3", "toll": "yes", "tunnel": "yes", "tunnel:name": "Entlisbergtunnel", "length": 289.10231663263863}}, {"type": "Feature", "geometry": {"type": "LineString", "coordinates": [[8.4296862, 47.3456534], [8.4285759, 47.3469199]]}, "properties": {"highway": "motorway", "int_ref": "E 41", "lanes": "2", "layer": "-1", "lit": "yes", "maxspeed": "100", "oneway": "yes", "ref": "A3;A4", "source:maxspeed": "sign", "toll": "yes", "tunnel": "yes", "tunnel:name": "Aeschertunnel", "length": 163.90635726169688}}, {"type": "Feature", "geometry": {"type": "LineString", "coordinates": [[8.5717191, 47.4315115], [8.5714455, 47.4332113], [8.5712296, 47.4342655], [8.5710122, 47.4352905]]}, "properties": {"alt_name": "Flughafenautobahn", "avz": "241", "highway": "motorway", "lanes": "2", "layer": "-1", "lit": "yes", "maxspeed": "100", "nat_name": "N11", "old_name": "A51", "oneway": "yes", "ref": "A11", "ssvz": "865N", "surface": "asphalt", "toll": "yes", "tunnel": "yes", "tunnel:name": "Bubenholztunnel", "length": 423.5706265926206}}, {"type": "Feature", "geometry": {"type": "LineString", "coordinates": [[8.5710122, 47.4352905], [8.5708915, 47.4357343]]}, "properties": {"alt_name": "Flughafenautobahn", "highway": "motorway", "lanes": "2", "layer": "-1", "lit": "yes", "maxspeed": "100", "nat_name": "N11", "old_name": "A51", "oneway": "yes", "ref": "A11", "toll": "yes", "tunnel": "yes", "tunnel:name": "Bubenholztunnel", "length": 50.17444925255149}}, {"type": "Feature", "geometry": {"type": "LineString", "coordinates": [[8.4300349, 47.3446496], [8.4307781, 47.3439445], [8.4311304, 47.3436504], [8.4315076, 47.3433743], [8.4322831, 47.3428517], [8.4329601, 47.342454], [8.4336693, 47.3420783], [8.4344163, 47.3417434], [8.4352039, 47.3414348], [8.4356763, 47.341273], [8.4361705, 47.3411145], [8.4366685, 47.3409713], [8.4371783, 47.340835], [8.4377361, 47.340708], [8.4383096, 47.3405981], [8.438883, 47.3405035], [8.4395014, 47.3404178], [8.4401279, 47.3403552], [8.4407919, 47.3403067], [8.4421433, 47.3402697], [8.4426178, 47.3402837], [8.4430969, 47.3403049]]}, "properties": {"avz": "565", "cs_dir": "1", "highway": "motorway", "int_ref": "E 41", "lanes": "2", "layer": "-1", "lit": "24/7", "maxspeed": "100", "maxspeed:variable": "obstruction", "oneway": "yes", "overtaking:hgv": "no", "ref": "A3;A4", "shoulder:right": "yes", "source:maxspeed": "signals", "surface": "asphalt", "toll": "yes", "tunnel": "yes", "tunnel:name": "Aeschertunnel", "length": 1152.9124455257408}}, {"type": "Feature", "geometry": {"type": "LineString", "coordinates": [[8.4592132, 47.333858], [8.4594761, 47.3343059], [8.4595893, 47.3345291]]}, "properties": {"avz": "572", "cs_dir": "2", "destination:lanes": "Bern;Basel;St. Gallen;Westring-Z\u00fcrich|Chur;Z\u00fcrich-City|Wettswil", "destination:ref:lanes": "A4|A3|", "highway": "motorway", "int_ref": "E 41", "lanes": "3", "layer": "-4", "lit": "yes", "maxspeed": "100", "oneway": "yes", "placement": "right_of:1", "ref": "A4", "surface": "asphalt", "toll": "yes", "tunnel": "yes", "tunnel:name": "Islisbergtunnel", "turn:lanes": "through|through|right", "length": 79.862643111042}}, {"type": "Feature", "geometry": {"type": "LineString", "coordinates": [[8.4250496, 47.3499894], [8.4244154, 47.3505879], [8.4240832, 47.3509149], [8.4237917, 47.3512499], [8.4235211, 47.3515743], [8.4232731, 47.3519034], [8.4230382, 47.3522695], [8.4228141, 47.3526286], [8.4224834, 47.3533301], [8.4223064, 47.3537723], [8.4221739, 47.3542137], [8.4220798, 47.3545773], [8.4220132, 47.3549383], [8.4219735, 47.3554836], [8.4219623, 47.3560299], [8.4220201, 47.3567357], [8.4221189, 47.3572631], [8.4222462, 47.3577801], [8.4226278, 47.3588152], [8.4230215, 47.3598417]]}, "properties": {"highway": "motorway", "int_ref": "E 41", "lanes": "2", "layer": "-1", "lit": "yes", "maxspeed": "100", "oneway": "yes", "ref": "A3;A4", "source:maxspeed": "sign", "surface": "asphalt", "toll": "yes", "tunnel": "yes", "tunnel:name": "Hafnerbergtunnel", "length": 1158.1946829614321}}, {"type": "Feature", "geometry": {"type": "LineString", "coordinates": [[8.5461136, 47.3977534], [8.5461989, 47.3979326], [8.5463098, 47.398103], [8.5465916, 47.3984153], [8.5470352, 47.398856], [8.5474322, 47.399253], [8.5476831, 47.3994505], [8.5478994, 47.3996228]]}, "properties": {"highway": "trunk", "lanes": "2", "layer": "-3", "lit": "yes", "maxspeed": "80", "oneway": "yes", "ref": "A1L", "toll": "yes", "tunnel": "yes", "tunnel:name": "Milchbucktunnel", "length": 249.23482185453085}}, {"type": "Feature", "geometry": {"type": "LineString", "coordinates": [[8.5467115, 47.398389], [8.547059, 47.3987341], [8.5472397, 47.3988914], [8.5474223, 47.3990368], [8.5476334, 47.3991906], [8.5478559, 47.3993404], [8.5479897, 47.3994318]]}, "properties": {"highway": "trunk_link", "lanes": "2", "layer": "-2", "lit": "yes", "maxheight": "4.8", "maxspeed": "80", "oneway": "yes", "tunnel": "yes", "length": 151.255873874258}}, {"type": "Feature", "geometry": {"type": "LineString", "coordinates": [[8.5428032, 47.3993758], [8.5430378, 47.3994744], [8.5431678, 47.399529]]}, "properties": {"bicycle": "no", "foot": "no", "highway": "primary", "lanes": "2", "layer": "-2", "lit": "yes", "maxheight": "default", "maxspeed": "50", "name": "Hirschwiesentunnel", "oneway": "yes", "ref": "1", "sidewalk": "no", "surface": "asphalt", "tunnel": "yes", "tunnel:name": "Hirschwiesentunnel", "wikidata": "Q27330549", "length": 32.36673709334427}}, {"type": "Feature", "geometry": {"type": "LineString", "coordinates": [[8.5370438, 47.3857168], [8.5367878, 47.385552]]}, "properties": {"highway": "trunk", "lanes": "3", "layer": "-2", "lit": "yes", "maxspeed": "60", "note": "position estimated", "oneway": "yes", "ref": "A1L", "surface": "asphalt", "toll": "yes", "tunnel": "yes", "tunnel:name": "Milchbucktunnel", "turn:lanes": "left|left;right|right", "length": 26.633512452723664}}, {"type": "Feature", "geometry": {"type": "LineString", "coordinates": [[8.5372647, 47.3858642], [8.5370438, 47.3857168]]}, "properties": {"highway": "trunk", "lanes": "2", "layer": "-2", "lit": "yes", "maxspeed": "60", "note": "position estimated", "oneway": "yes", "ref": "A1L", "toll": "yes", "tunnel": "yes", "tunnel:name": "Milchbucktunnel", "length": 23.38291293223654}}, {"type": "Feature", "geometry": {"type": "LineString", "coordinates": [[8.4595893, 47.3345291], [8.4596988, 47.3346421], [8.4597789, 47.3348278]]}, "properties": {"destination": "Wettswil", "highway": "motorway_link", "lanes": "1", "layer": "-1", "lit": "yes", "maxheight": "4.8", "maxspeed": "100", "oneway": "yes", "source:maxspeed": "sign", "surface": "asphalt", "tunnel": "yes", "length": 36.558944092201564}}, {"type": "Feature", "geometry": {"type": "LineString", "coordinates": [[8.4595893, 47.3345291], [8.4597073, 47.3348338]]}, "properties": {"avz": "572", "cs_dir": "2", "destination:lanes": "Bern;Basel;St. Gallen;Westring Z\u00fcrich|Chur;Z\u00fcrich-City|Chur;Z\u00fcrich-City", "highway": "motorway", "int_ref": "E 41", "lanes": "3", "layer": "-4", "lit": "yes", "maxspeed": "100", "oneway": "yes", "placement": "right_of:1", "ref": "A4", "surface": "asphalt", "toll": "yes", "tunnel": "yes", "tunnel:name": "Islisbergtunnel", "turn:lanes": "through|through|right", "length": 35.03004565747969}}, {"type": "Feature", "geometry": {"type": "LineString", "coordinates": [[8.5323332, 47.3975371], [8.5323599, 47.3975445], [8.5341595, 47.3979691], [8.5345601, 47.3980267]]}, "properties": {"bicycle": "no", "foot": "no", "highway": "primary", "lanes": "2", "layer": "-2", "lit": "yes", "maxspeed": "50", "oneway": "yes", "ref": "1;4", "surface": "asphalt", "tunnel": "yes", "tunnel:name": "Bucheggtunnel", "wikidata": "Q27330362", "length": 176.90809894008805}}, {"type": "Feature", "geometry": {"type": "LineString", "coordinates": [[8.5317195, 47.3666763], [8.5314804, 47.3668208]]}, "properties": {"foot": "no", "highway": "secondary", "lanes": "1", "layer": "-2", "lit": "yes", "maxspeed": "50", "name": "Tunnelstrasse", "oneway": "yes", "surface": "asphalt", "tunnel": "yes", "wikidata": "Q27325756", "length": 24.171499064001488}}, {"type": "Feature", "geometry": {"type": "LineString", "coordinates": [[8.5313067, 47.366757], [8.5315127, 47.3665427]]}, "properties": {"foot": "no", "highway": "secondary", "lanes": "1", "layer": "-2", "lit": "yes", "maxspeed": "50", "name": "Tunnelstrasse", "oneway": "yes", "sidewalk": "no", "surface": "asphalt", "tunnel": "yes", "wikidata": "Q27325756", "length": 28.456394286598503}}, {"type": "Feature", "geometry": {"type": "LineString", "coordinates": [[8.5372807, 47.38504], [8.5370865, 47.3851306], [8.5368381, 47.385232]]}, "properties": {"foot": "no", "highway": "tertiary", "lanes": "1", "layer": "-1", "maxspeed": "50", "name": "Wasserwerkstrasse", "oneway": "yes", "surface": "asphalt", "tunnel": "yes", "wikidata": "Q27330279", "length": 39.67334239278379}}, {"type": "Feature", "geometry": {"type": "LineString", "coordinates": [[8.4227084, 47.360038], [8.4227003, 47.3600177], [8.4223911, 47.3592471]]}, "properties": {"highway": "motorway", "int_ref": "E 41", "lanes": "3", "layer": "-1", "lit": "yes", "maxspeed": "100", "maxspeed:variable": "obstruction", "oneway": "yes", "overtaking:hgv": "no", "placement": "right_of:1", "ref": "A3;A4", "shoulder:right": "no", "source:maxspeed": "signals", "surface": "asphalt", "toll": "yes", "tunnel": "yes", "tunnel:name": "Hafnerbergtunnel", "turn:lanes": "through|through|merge_to_left", "length": 91.13919582197356}}, {"type": "Feature", "geometry": {"type": "LineString", "coordinates": [[8.4430969, 47.3403049], [8.4436809, 47.3403412], [8.4442733, 47.3404015], [8.4453127, 47.340542], [8.4463446, 47.3407325], [8.4473533, 47.340983], [8.4483589, 47.3412461], [8.4488522, 47.3413639], [8.449336, 47.3414654], [8.44983, 47.3415532], [8.4503402, 47.3416158], [8.4509644, 47.3416824], [8.4515914, 47.3417169], [8.4526149, 47.3417485]]}, "properties": {"avz": "565", "cs_dir": "1", "destination:lanes": "San Bernardino;Chur;Z\u00fcrich-City|San Bernardino;Chur;Z\u00fcrich-City|Gotthard;Luzern;Zug;Wettswil", "destination:ref:lanes": "A3|A3|A4", "highway": "motorway", "int_ref": "E 41", "lanes": "3", "layer": "-1", "lit": "24/7", "maxheight": "default", "maxspeed": "100", "maxspeed:variable": "obstruction", "oneway": "yes", "overtaking:hgv": "no", "placement": "right_of:1", "ref": "A3;A4", "shoulder": "no", "source:maxspeed": "signals", "surface": "asphalt", "toll": "yes", "tunnel": "yes", "tunnel:name": "Aeschertunnel", "turn:lanes": "through|through|slight_right", "length": 741.3169452891314}}, {"type": "Feature", "geometry": {"type": "LineString", "coordinates": [[8.4282082, 47.3467405], [8.4291858, 47.3456065], [8.4300349, 47.3446496]]}, "properties": {"avz": "565", "cs_dir": "1", "highway": "motorway", "int_ref": "E 41", "lanes": "3", "layer": "-1", "lit": "24/7", "maxspeed": "100", "maxspeed:variable": "obstruction", "oneway": "yes", "overtaking:hgv": "no", "placement": "right_of:1", "ref": "A3;A4", "shoulder": "no", "source:maxspeed": "signals", "surface": "asphalt", "toll": "yes", "tunnel": "yes", "tunnel:name": "Aeschertunnel", "turn:lanes": "||merge_to_left", "length": 270.35941145555853}}, {"type": "Feature", "geometry": {"type": "LineString", "coordinates": [[8.4243025, 47.3502435], [8.4249024, 47.3497255]]}, "properties": {"highway": "motorway", "int_ref": "E 41", "lanes": "3", "layer": "-1", "lit": "yes", "maxspeed": "100", "maxspeed:variable": "obstruction", "oneway": "yes", "overtaking:hgv": "no", "placement": "right_of:1", "ref": "A3;A4", "shoulder:right": "yes", "source:maxspeed": "signals", "surface": "asphalt", "toll": "yes", "tunnel": "yes", "tunnel:name": "Hafnerbergtunnel", "turn:lanes": "through|through|slight_right", "length": 73.28824472200758}}, {"type": "Feature", "geometry": {"type": "LineString", "coordinates": [[8.4249024, 47.3497255], [8.4262105, 47.3486799]]}, "properties": {"highway": "motorway", "int_ref": "E 41", "lanes": "2", "layer": "-1", "lit": "yes", "maxheight": "default", "maxspeed": "100", "maxspeed:variable": "obstruction", "oneway": "yes", "overtaking:hgv": "no", "ref": "A3;A4", "shoulder:right": "yes", "source:maxspeed": "signals", "surface": "asphalt", "toll": "yes", "tunnel": "yes", "tunnel:name": "Hafnerbergtunnel", "length": 152.58621235616283}}, {"type": "Feature", "geometry": {"type": "LineString", "coordinates": [[8.461146, 47.3451726], [8.4607278, 47.3445993]]}, "properties": {"avz": "577", "cs_dir:forward": "2", "destination:lanes": "Gotthard;Luzern|Bern;Basel;Westring-Z\u00fcrich;Gotthard;Luzern|Bern;Basel;St. Gallen;Westring-Z\u00fcrich|Wettswil;Hedingen;Bonstetten", "highway": "motorway", "lanes": "4", "layer": "-2", "lit": "yes", "maxheight": "default", "maxspeed": "100", "maxspeed:variable": "obstruction", "oneway": "yes", "ref": "A3", "toll": "yes", "tunnel": "yes", "tunnel:name": "Uetlibergtunnel", "length": 71.14205312248912}}, {"type": "Feature", "geometry": {"type": "LineString", "coordinates": [[8.4610503, 47.3444913], [8.4624629, 47.3463276], [8.4629178, 47.3468029], [8.4634406, 47.3472518], [8.4637217, 47.3474604], [8.4640068, 47.3476609], [8.4642946, 47.3478541], [8.464606, 47.348038], [8.4651771, 47.3483526], [8.4657874, 47.348627]]}, "properties": {"avz": "577", "cs_dir:forward": "1", "highway": "motorway", "lanes": "3", "layer": "-2", "lit": "yes", "maxheight": "default", "maxspeed": "100", "oneway": "yes", "ref": "A3", "toll": "yes", "tunnel": "yes", "tunnel:name": "Uetlibergtunnel", "turn:lanes": "none|none|merge_to_left", "length": 592.0903743361017}}, {"type": "Feature", "geometry": {"type": "LineString", "coordinates": [[8.5079891, 47.3450805], [8.4768, 47.349689], [8.4748381, 47.3499722]]}, "properties": {"avz": "577", "cs_dir:forward": "2", "highway": "motorway", "lanes": "2", "layer": "-2", "lit": "yes", "maxheight": "default", "maxspeed": "100", "name": "Uetlibergtunnel", "oneway": "yes", "ref": "A3", "toll": "yes", "tunnel": "yes", "tunnel:name": "Uetlibergtunnel", "length": 2563.296311840933}}, {"type": "Feature", "geometry": {"type": "LineString", "coordinates": [[8.5149797, 47.3443191], [8.5134262, 47.3443875], [8.5126501, 47.3444382], [8.5118845, 47.3445169], [8.510925, 47.3446429], [8.5099675, 47.3447865], [8.5079891, 47.3450805]]}, "properties": {"avz": "577", "cs_dir:forward": "2", "highway": "motorway", "lanes": "3", "layer": "-2", "lit": "yes", "maxheight": "default", "maxspeed": "100", "oneway": "yes", "ref": "A3", "toll": "yes", "tunnel": "yes", "tunnel:name": "Uetlibergtunnel", "turn:lanes": "none|none|merge_to_left", "length": 536.0358265939294}}, {"type": "Feature", "geometry": {"type": "LineString", "coordinates": [[8.507955, 47.3447731], [8.5098538, 47.3444858], [8.5107676, 47.3443481], [8.5116874, 47.3442209], [8.5124942, 47.3441316], [8.5133033, 47.3440707], [8.5149508, 47.3440037]]}, "properties": {"avz": "577", "cs_dir:forward": "1", "destination:lanes": "Z\u00fcrich City|Z\u00fcrich City;San Bernardino;Chur|San Bernardino;Chur", "highway": "motorway", "lanes": "3", "layer": "-2", "lit": "yes", "maxheight": "default", "maxspeed": "100", "oneway": "yes", "ref": "A3", "toll": "yes", "tunnel": "yes", "tunnel:name": "Uetlibergtunnel", "wikidata": "Q1291276", "wikipedia": "de:Uetlibergtunnel", "length": 536.6574041998979}}, {"type": "Feature", "geometry": {"type": "LineString", "coordinates": [[8.425296, 47.3485741], [8.4252487, 47.3482862]]}, "properties": {"destination": "Birmensdorf;Oberwil-Lieli", "highway": "motorway_link", "lanes": "2", "layer": "-1", "lit": "yes", "maxheight": "4.8", "maxspeed": "60", "oneway": "yes", "ref": "A4", "tunnel": "yes", "length": 32.20695796072396}}, {"type": "Feature", "geometry": {"type": "LineString", "coordinates": [[8.4249024, 47.3497255], [8.4251893, 47.3492775], [8.4252812, 47.3490672]]}, "properties": {"destination": "Birmensdorf;Oberwil-Lieli", "highway": "motorway_link", "lanes": "1", "layer": "-1", "lit": "yes", "maxheight": "4.8", "maxspeed": "80", "oneway": "yes", "ref": "A4", "tunnel": "yes", "length": 78.71055781259878}}, {"type": "Feature", "geometry": {"type": "LineString", "coordinates": [[8.4983928, 47.4267629], [8.4990581, 47.4268384], [8.4995784, 47.4269057], [8.5000736, 47.4269784], [8.5005192, 47.427045], [8.5009387, 47.427114], [8.5013694, 47.4271864], [8.5017941, 47.4272586], [8.5022237, 47.4273362], [8.5026797, 47.4274263], [8.5031486, 47.4275206], [8.5035703, 47.4276082], [8.5040877, 47.427725], [8.5047663, 47.4278819], [8.5052934, 47.4280142], [8.5058948, 47.4281667]]}, "properties": {"highway": "motorway", "int_ref": "E 41;E 60", "lanes": "5", "layer": "-1", "lit": "no", "maxheight": "default", "maxspeed": "120", "name": "Katzenseetunnel", "oneway": "yes", "overtaking:hgv": "no", "ref": "A1;A4", "source:maxspeed": "CH:motorway", "surface": "asphalt", "toll": "yes", "tunnel": "yes", "tunnel:name": "Katzenseetunnel", "length": 588.1950974392823}}, {"type": "Feature", "geometry": {"type": "LineString", "coordinates": [[8.5057953, 47.4283207], [8.5052013, 47.4281729], [8.504668, 47.4280438], [8.5040015, 47.4278881], [8.5034908, 47.427777], [8.5030492, 47.4276829], [8.5026246, 47.4275991], [8.5021637, 47.427511], [8.5017153, 47.4274303], [8.5012926, 47.4273554], [8.5008598, 47.4272839], [8.5004533, 47.4272204], [8.5000216, 47.4271558], [8.4995444, 47.4270869], [8.4990068, 47.4270139], [8.4983504, 47.4269244]]}, "properties": {"highway": "motorway", "int_ref": "E 41;E 60", "lanes": "3", "layer": "-1", "lit": "no", "maxheight": "default", "maxspeed": "120", "name": "Katzenseetunnel", "oneway": "yes", "ref": "A1;A4", "source:maxspeed": "CH:motorway", "surface": "asphalt", "toll": "yes", "tunnel": "yes", "tunnel:name": "Katzenseetunnel", "length": 583.5865589969292}}, {"type": "Feature", "geometry": {"type": "LineString", "coordinates": [[8.5559276, 47.4034715], [8.554855, 47.4030963], [8.5542297, 47.4029138], [8.5531108, 47.4024321], [8.5522751, 47.402054]]}, "properties": {"highway": "motorway", "lanes": "2", "layer": "-1", "lit": "yes", "maxspeed": "60", "note": "Baustellenbedingt nur zwei Fahrstreifen (yes|yes|no)", "oneway": "yes", "ref": "A1L", "toll": "yes", "tunnel": "yes", "tunnel:name": "Sch\u00f6neichtunnel", "wikidata": "Q1667296", "wikipedia": "de:Sch\u00f6neichtunnel", "length": 318.26240266042066}}, {"type": "Feature", "geometry": {"type": "LineString", "coordinates": [[8.5316521, 47.3666348], [8.5314804, 47.3668208]]}, "properties": {"bicycle": "use_sidepath", "foot": "no", "highway": "primary", "lanes": "2", "layer": "-2", "lit": "yes", "maxspeed": "50", "name": "Ulmbergtunnel", "oneway": "yes", "ref": "3", "surface": "asphalt", "tunnel": "yes", "wikidata": "Q20012687", "wikipedia": "de:Ulmbergtunnel", "length": 24.40953518356366}}, {"type": "Feature", "geometry": {"type": "LineString", "coordinates": [[8.4751634, 47.3986649], [8.4754273, 47.3988667]]}, "properties": {"highway": "tertiary", "lanes": "2", "layer": "-1", "lit": "yes", "maxheight": "default", "maxspeed": "60", "name": "B\u00e4ndlistrasse", "oneway": "no", "owner": "Gemeinde Z\u00fcrich", "sidewalk": "both", "surface": "asphalt", "tunnel": "yes", "wikidata": "Q27327254", "length": 30.00379319030655}}, {"type": "Feature", "geometry": {"type": "LineString", "coordinates": [[8.4141123, 47.3864984], [8.4141757, 47.3862813]]}, "properties": {"change:lanes": "not_left|not_right|no", "highway": "motorway", "int_ref": "E 41", "lanes": "3", "layer": "-1", "lit": "yes", "maxheight": "default", "maxspeed": "100", "maxspeed:variable": "obstruction", "oneway": "yes", "placement": "right_of:1", "ref": "A3;A4", "shoulder": "no", "source:maxspeed": "signals", "surface": "asphalt", "toll": "yes", "tunnel": "yes", "tunnel:name": "Honerettunnel", "turn:lanes": "through|through|merge_to_left", "length": 24.606959258653298}}, {"type": "Feature", "geometry": {"type": "LineString", "coordinates": [[8.4223911, 47.3592471], [8.4221091, 47.3585131], [8.4218543, 47.3577697]]}, "properties": {"highway": "motorway", "int_ref": "E 41", "lanes": "3", "layer": "-1", "lit": "yes", "maxheight": "default", "maxspeed": "100", "maxspeed:variable": "obstruction", "oneway": "yes", "overtaking:hgv": "no", "ref": "A3;A4", "shoulder:right": "no", "source:maxspeed": "signals", "surface": "asphalt", "toll": "yes", "tunnel": "yes", "tunnel:name": "Hafnerbergtunnel", "turn:lanes": "through|through|merge_to_left", "length": 169.201067456847}}]}