{"type": "FeatureCollection", "features": [{"type": "Feature", "geometry": {"type": "LineString", "coordinates": [[21.0333389, 52.2390099], [21.0327622, 52.239475], [21.0306748, 52.2409855], [21.0302967, 52.2412346], [21.0298475, 52.2415305], [21.0281821, 52.2425759], [21.026374, 52.2435624]]}, "properties": {"foot": "no", "highway": "primary", "lanes": "2", "layer": "-1", "lit": "24/7", "maxaxleload": "10", "maxspeed": "50", "name": "Tunel Wis\u0142ostrady", "old_ref": "7;E 77", "oneway": "yes", "sidewalk": "no", "source:maxaxleload": "Rozporz\u0105dznie Ministra Infrastruktury z dnia 8 czerwca 2011 r", "source:maxaxleload:url": "http://isap.sejm.gov.pl/DetailsServlet?id=WDU20120001061", "surface": "asphalt", "tunnel": "yes", "wikidata": "Q8172685", "wikipedia": "pl:Tunel Wis\u0142ostrady", "length": 696.2823119385055}}, {"type": "Feature", "geometry": {"type": "LineString", "coordinates": [[21.0181272, 52.1664787], [21.0177796, 52.1665305], [21.017413, 52.1665829], [21.017037, 52.1666703]]}, "properties": {"cycleway:right": "no", "foot": "no", "highway": "primary", "lanes": "3", "layer": "-1", "lit": "yes", "maxaxleload": "11.5", "maxheight": "default", "maxspeed": "60", "name": "Dolina S\u0142u\u017cewiecka", "oneway": "yes", "sidewalk": "no", "source:maxaxleload": "Dz.U. 2011 nr 222 poz. 1321 Art. 2 pkt. 11", "surface": "asphalt", "tunnel": "yes", "turn:lanes": "through|through|right", "wikidata": "Q9365068", "wikipedia": "pl:Ulica Dolina S\u0142u\u017cewiecka w Warszawie", "length": 77.72846835265695}}, {"type": "Feature", "geometry": {"type": "LineString", "coordinates": [[21.0169635, 52.1665697], [21.017321, 52.1664944], [21.0178051, 52.1664206], [21.0182014, 52.1663691]]}, "properties": {"cycleway:right": "no", "foot": "no", "highway": "primary", "lanes": "3", "layer": "-1", "maxaxleload": "10", "maxheight": "default", "maxspeed": "60", "name": "Dolina S\u0142u\u017cewiecka", "old_ref": "7", "oneway": "yes", "sidewalk:left": "no", "sidewalk:right": "separate", "source:maxaxleload": "Rozporz\u0105dznie Ministra Infrastruktury z dnia 8 czerwca 2011 r", "source:maxaxleload:url": "http://isap.sejm.gov.pl/DetailsServlet?id=WDU20120001061", "surface": "asphalt", "tunnel": "yes", "turn:lanes": "none|none|slight_right", "wikidata": "Q9365068", "wikipedia": "pl:Ulica Dolina S\u0142u\u017cewiecka w Warszawie", "length": 87.69761812106105}}, {"type": "Feature", "geometry": {"type": "LineString", "coordinates": [[21.0055406, 52.2172742], [21.0045873, 52.2172165]]}, "properties": {"alt_name": "Trasa \u0141azienkowska", "bicycle": "no", "bus:lanes": "yes|yes|designated", "foot": "no", "highway": "primary", "lanes": "3", "layer": "-1", "lit": "24/7", "loc_name": "Trasa \u0141azienkowska", "maxgcweightrating": "10", "maxheight": "default", "maxspeed": "80", "name": "Aleja Armii Ludowej", "name:pl": "Aleja Armii Ludowej", "old_name": "Lecha Kaczy\u0144skiego", "old_ref": "2;E 30", "oneway": "yes", "psv:lanes": "yes|yes|designated", "sidewalk": "no", "smoothness": "excellent", "source:maxgcweightrating": "PL:sign_B-5", "source:maxspeed": "sign", "surface": "asphalt", "taxi:lanes": "yes|yes|designated", "tunnel": "yes", "wikidata": "Q17563575", "wikipedia": "pl:Aleja Armii Ludowej w Warszawie", "length": 65.46892717976056}}, {"type": "Feature", "geometry": {"type": "LineString", "coordinates": [[21.0045965, 52.217109], [21.0055559, 52.2171609]]}, "properties": {"alt_name": "Trasa \u0141azienkowska", "bicycle": "no", "foot": "no", "highway": "primary", "lanes": "3", "layer": "-1", "lit": "24/7", "loc_name": "Trasa \u0141azienkowska", "maxgcweightrating": "10", "maxheight": "default", "maxspeed": "80", "name": "Aleja Armii Ludowej", "name:pl": "Aleja Armii Ludowej", "old_name": "Lecha Kaczy\u0144skiego", "old_ref": "2;E 30", "oneway": "yes", "sidewalk": "no", "smoothness": "excellent", "source:maxgcweightrating": "PL:sign_B-5", "source:maxspeed": "sign", "surface": "asphalt", "tunnel": "yes", "wikidata": "Q17563575", "wikipedia": "pl:Aleja Armii Ludowej w Warszawie", "length": 65.82423936599845}}, {"type": "Feature", "geometry": {"type": "LineString", "coordinates": [[21.0145856, 52.2170248], [21.0149037, 52.2170159], [21.0153238, 52.2170336], [21.0158586, 52.2170966]]}, "properties": {"alt_name": "Trasa \u0141azienkowska", "bicycle": "no", "cycleway:both": "no", "foot": "no", "highway": "primary", "lanes": "2", "layer": "-1", "lit": "24/7", "loc_name": "Trasa \u0141azienkowska", "maxgcweightrating": "10", "maxheight": "default", "maxspeed": "60", "name": "Aleja Armii Ludowej", "name:pl": "Aleja Armii Ludowej", "old_name": "Lecha Kaczy\u0144skiego", "old_ref": "2;E 30", "oneway": "yes", "parking:lane:both": "no", "shoulder": "no", "sidewalk": "no", "smoothness": "good", "source:maxgcweightrating": "PL:sign_B-5", "source:maxspeed": "sign", "surface": "asphalt", "tunnel": "yes", "wikidata": "Q17563575", "wikipedia": "pl:Aleja Armii Ludowej w Warszawie", "length": 87.7598445693662}}, {"type": "Feature", "geometry": {"type": "LineString", "coordinates": [[21.0158474, 52.2171887], [21.0154885, 52.2171431], [21.0152916, 52.2171225], [21.0150962, 52.2171116], [21.0149544, 52.2171084], [21.0148127, 52.2171052], [21.0145916, 52.2171093]]}, "properties": {"alt_name": "Trasa \u0141azienkowska", "bicycle": "no", "cycleway:both": "no", "foot": "no", "highway": "primary", "lanes": "2", "layer": "-1", "lit": "24/7", "loc_name": "Trasa \u0141azienkowska", "maxgcweightrating": "10", "maxheight": "default", "maxspeed": "60", "name": "Aleja Armii Ludowej", "name:pl": "Aleja Armii Ludowej", "old_name": "Lecha Kaczy\u0144skiego", "old_ref": "2;E 30", "oneway": "yes", "parking:lane:both": "no", "shoulder": "no", "sidewalk": "no", "smoothness": "good", "source:maxgcweightrating": "PL:sign_B-5", "source:maxspeed": "sign", "surface": "asphalt", "tunnel": "yes", "wikidata": "Q17563575", "wikipedia": "pl:Aleja Armii Ludowej w Warszawie", "length": 86.61600304921407}}, {"type": "Feature", "geometry": {"type": "LineString", "coordinates": [[21.0194226, 52.2179793], [21.0188041, 52.2178459]]}, "properties": {"alt_name": "Trasa \u0141azienkowska", "bicycle": "no", "cycleway:both": "no", "foot": "no", "highway": "primary", "lanes": "4", "lanes:psv": "1", "layer": "-1", "lit": "24/7", "loc_name": "Trasa \u0141azienkowska", "maxgcweightrating": "10", "maxheight": "default", "maxspeed": "80", "name": "Aleja Armii Ludowej", "name:pl": "Aleja Armii Ludowej", "old_name": "Lecha Kaczy\u0144skiego", "old_ref": "2;E 30", "oneway": "yes", "psv:lanes": "yes|yes|yes|designated", "shoulder": "no", "sidewalk:left": "no", "sidewalk:right": "separate", "source:maxgcweightrating": "PL:sign_B-5", "source:maxspeed": "sign", "surface": "asphalt", "tunnel": "yes", "turn:lanes": "through|through|right|right", "wikidata": "Q17563575", "wikipedia": "pl:Aleja Armii Ludowej w Warszawie", "length": 44.80125777017056}}, {"type": "Feature", "geometry": {"type": "LineString", "coordinates": [[21.0262427, 52.2434647], [21.0280461, 52.2424775], [21.0296995, 52.241443], [21.0301432, 52.241148], [21.0305109, 52.2409035], [21.0325922, 52.2394011], [21.0327057, 52.2393005], [21.0328038, 52.2391853], [21.0328653, 52.2390831], [21.0329164, 52.2389744], [21.0329607, 52.2388606], [21.0331682, 52.2381167]]}, "properties": {"cycleway:right": "no", "foot": "no", "highway": "primary", "lanes": "3", "layer": "-1", "lit": "24/7", "maxaxleload": "10", "maxspeed": "50", "maxspeed:hgv": "50", "name": "Tunel Wis\u0142ostrady", "old_ref": "7;E 77", "oneway": "yes", "sidewalk": "no", "source:maxaxleload": "Rozporz\u0105dznie Ministra Infrastruktury z dnia 8 czerwca 2011 r", "source:maxaxleload:url": "http://isap.sejm.gov.pl/DetailsServlet?id=WDU20120001061", "source:maxspeed": "PL:urban", "source:maxspeed:hgv": "sign", "surface": "asphalt", "tunnel": "yes", "wikidata": "Q8172685", "wikipedia": "pl:Tunel Wis\u0142ostrady", "length": 777.2629691619251}}, {"type": "Feature", "geometry": {"type": "LineString", "coordinates": [[21.0245368, 52.2190761], [21.0257047, 52.219361]]}, "properties": {"cycleway:both": "no", "highway": "primary", "lanes": "4", "lanes:psv": "1", "layer": "-1", "lit": "24/7", "maxgcweightrating": "10", "maxheight": "default", "maxspeed": "80", "name": "Aleja Armii Ludowej", "name:pl": "Aleja Armii Ludowej", "old_name": "Lecha Kaczy\u0144skiego", "old_ref": "2;E 30", "oneway": "yes", "psv:lanes": "yes|yes|yes|designated", "shoulder": "right", "sidewalk:left": "no", "sidewalk:right": "separate", "smoothness": "excellent", "source:maxgcweightrating": "PL:sign_B-5", "surface": "asphalt", "tunnel": "yes", "turn:lanes": "through|through|merge_to_left|through", "wikidata": "Q17563575", "wikipedia": "pl:Aleja Armii Ludowej w Warszawie", "length": 85.88172003075864}}, {"type": "Feature", "geometry": {"type": "LineString", "coordinates": [[21.0256573, 52.219489], [21.0245826, 52.2192168]]}, "properties": {"bus:lanes": "yes|yes|designated", "cycleway:both": "no", "foot": "no", "highway": "primary", "lanes": "3", "lanes:psv": "1", "layer": "-1", "lit": "24/7", "maxgcweightrating": "10", "maxheight": "default", "maxspeed": "80", "name": "Aleja Armii Ludowej", "name:pl": "Aleja Armii Ludowej", "old_name": "Lecha Kaczy\u0144skiego", "old_ref": "2;E 30", "oneway": "yes", "psv:lanes": "yes|yes|designated", "shoulder": "no", "sidewalk": "no", "smoothness": "excellent", "source:maxgcweightrating": "PL:sign_B-5", "source:maxspeed": "sign", "surface": "asphalt", "taxi:lanes": "yes|yes|designated", "tunnel": "yes", "wikidata": "Q17563575", "wikipedia": "pl:Aleja Armii Ludowej w Warszawie", "length": 79.4470037952428}}, {"type": "Feature", "geometry": {"type": "LineString", "coordinates": [[20.9601708, 52.2183866], [20.9600203, 52.2201096]]}, "properties": {"dual_carriageway": "yes", "highway": "secondary", "lanes": "2", "layer": "-1", "lit": "24/7", "maxgcweightrating:hgv:conditional": "16@(6:00-10:00, 16:00-20:00); none@permit", "maxheight": "4", "maxspeed": "50", "name": "Aleja Prymasa Tysi\u0105clecia", "note:maxgcweightrating:hgv": "W godz. 6-10, 16-20; Nie dotyczy posiadaczy identyfikatora C16", "old_ref": "2; E 30", "oneway": "yes", "sidewalk:left": "no", "sidewalk:right": "separate", "smoothness": "excellent", "source:maxgcweightrating:hgv": "PL:sign_B-5-note", "surface": "asphalt", "tunnel": "yes", "wikidata": "Q9144955", "wikipedia": "pl:Aleja Prymasa Tysi\u0105clecia w Warszawie", "length": 191.99652071562855}}, {"type": "Feature", "geometry": {"type": "LineString", "coordinates": [[21.0250921, 52.2188225], [21.0252127, 52.2189174], [21.0253281, 52.2190069], [21.0254677, 52.2190891], [21.0255769, 52.2191426], [21.0257384, 52.2192019], [21.0257533, 52.2192061]]}, "properties": {"bicycle": "no", "cycleway:both": "no", "foot": "no", "highway": "primary_link", "lanes": "1", "layer": "-1", "lit": "24/7", "maxheight": "below_default", "maxspeed": "50", "oneway": "yes", "parking:lane:both": "no", "sidewalk": "no", "smoothness": "excellent", "source:maxspeed": "PL:urban", "surface": "asphalt", "tunnel": "yes", "length": 62.841745117920674}}, {"type": "Feature", "geometry": {"type": "LineString", "coordinates": [[21.0256516, 52.219627], [21.0246197, 52.2193697]]}, "properties": {"bicycle": "no", "cycleway:both": "no", "foot": "no", "highway": "primary_link", "lanes": "2", "layer": "-1", "lit": "24/7", "maxheight": "default", "maxspeed": "50", "name": "Aleja Armii Ludowej", "oneway": "yes", "parking:both": "no", "sidewalk": "no", "smoothness": "excellent", "source:maxspeed": "PL:urban", "surface": "asphalt", "tunnel": "yes", "turn:lanes": "through|right", "length": 76.11174187570101}}, {"type": "Feature", "geometry": {"type": "LineString", "coordinates": [[20.9722153, 52.2761034], [20.9718415, 52.2763604]]}, "properties": {"foot": "yes", "highway": "tertiary", "lanes": "2", "layer": "-1", "lit": "yes", "maxheight": "3.8", "name": "Gda\u0144ska", "sidewalk": "left", "surface": "asphalt", "tunnel": "yes", "wikidata": "Q67800460", "length": 38.32403768459471}}, {"type": "Feature", "geometry": {"type": "LineString", "coordinates": [[20.9600083, 52.2183001], [20.9598863, 52.220033]]}, "properties": {"cycleway:right": "no", "dual_carriageway": "yes", "foot": "no", "highway": "primary", "highway:category:pl": "1", "lanes": "2", "layer": "-1", "lit": "24/7", "maxaxleload": "10", "maxheight": "4", "maxweight": "16", "name": "Aleja Prymasa Tysi\u0105clecia", "oneway": "yes", "ref": "7", "sidewalk": "no", "smoothness": "excellent", "source:maxaxleload": "Rozporz\u0105dzenie Ministra Infrastruktury i Budownictwa z dnia 21 kwietnia 2017 r", "surface": "asphalt", "tunnel": "yes", "wikidata": "Q9144955", "wikipedia": "pl:Aleja Prymasa Tysi\u0105clecia w Warszawie", "length": 193.00258581160546}}, {"type": "Feature", "geometry": {"type": "LineString", "coordinates": [[20.9865293, 52.1669947], [20.9864182, 52.1671276], [20.9862624, 52.1673004], [20.9861242, 52.167437], [20.986114, 52.1674439], [20.9859092, 52.1675827], [20.9855623, 52.1677403], [20.985074, 52.1678691]]}, "properties": {"foot": "no", "highway": "trunk_link", "lanes": "1", "layer": "-1", "lit": "yes", "maxspeed": "60", "oneway": "yes", "source:maxspeed": "sign", "surface": "asphalt", "tunnel": "yes", "length": 144.2692878247242}}, {"type": "Feature", "geometry": {"type": "LineString", "coordinates": [[20.9998684, 52.289644], [20.9999436, 52.2895968], [21.000039, 52.2895447], [21.0001318, 52.2894991], [21.0001955, 52.2894706], [21.0002653, 52.2894472], [21.0003302, 52.289429], [21.0004142, 52.2894111], [21.0004952, 52.2894006]]}, "properties": {"access": "yes", "agricultural": "no", "cycleway:right": "no", "foot": "no", "hgv": "no", "highway": "primary_link", "lanes": "1", "lit": "yes", "maxheight": "default", "maxspeed": "50", "maxweight": "3.5", "oneway": "yes", "psv": "yes", "sidewalk": "no", "surface": "asphalt", "tunnel": "yes", "length": 51.56865084991065}}, {"type": "Feature", "geometry": {"type": "LineString", "coordinates": [[20.9145714, 52.1722281], [20.9147538, 52.1723787], [20.9148553, 52.1724778], [20.9150202, 52.1727059]]}, "properties": {"destination": "Al. Jerozolimskie;Warszawa Centrum", "destination:colour": "white", "destination:colour:back": "white", "destination:colour:text": "blue;blue", "foot": "no", "highway": "trunk_link", "lanes": "2", "layer": "-1", "lit": "yes", "maxheight": "default", "maxspeed": "60", "oneway": "yes", "sidewalk": "no", "smoothness": "excellent", "source:maxspeed": "sign", "surface": "asphalt", "tunnel": "yes", "length": 61.69954357112023}}, {"type": "Feature", "geometry": {"type": "LineString", "coordinates": [[20.8920335, 52.2048495], [20.8923707, 52.2044779]]}, "properties": {"cycleway:right": "no", "foot": "no", "highway": "secondary", "lanes": "2", "layer": "-1", "lit": "yes", "maxheight": "below_default", "maxspeed": "60", "name": "Aleja 4 Czerwca 1989 r.", "oneway": "yes", "shoulder": "no", "sidewalk": "no", "smoothness": "excellent", "surface": "asphalt", "tunnel": "yes", "wikidata": "Q57246094", "length": 47.34031915315117}}, {"type": "Feature", "geometry": {"type": "LineString", "coordinates": [[20.8927303, 52.2043433], [20.8925294, 52.2045247], [20.8922847, 52.2047764]]}, "properties": {"highway": "secondary", "lanes": "2", "layer": "-1", "lit": "yes", "maxheight": "below_default", "maxspeed": "60", "name": "Aleja 4 Czerwca 1989 r.", "oneway": "yes", "shoulder": "no", "sidewalk:left": "no", "sidewalk:right": "separate", "smoothness": "excellent", "surface": "asphalt", "tunnel": "yes", "wikidata": "Q57246094", "length": 57.03693923548879}}, {"type": "Feature", "geometry": {"type": "LineString", "coordinates": [[20.9603327, 52.2159371], [20.9605603, 52.216018], [20.9606788, 52.2160827], [20.9607614, 52.2161613], [20.9608092, 52.2162458], [20.9608329, 52.2163219], [20.9608378, 52.216391], [20.9608386, 52.2164532], [20.9608276, 52.21652], [20.960799, 52.2166008], [20.9607682, 52.2166566]]}, "properties": {"bicycle": "no", "cycleway:right": "no", "foot": "no", "highway": "primary", "highway:category:pl": "1", "lanes": "1", "layer": "-1", "lit": "yes", "maxaxleload": "10", "maxheight": "3", "maxspeed": "40", "oneway": "yes", "ref": "7", "sidewalk": "no", "smoothness": "excellent", "source:maxaxleload": "Rozporz\u0105dzenie Ministra Infrastruktury i Budownictwa z dnia 21 kwietnia 2017 r", "source:maxspeed": "sign", "surface": "asphalt", "tunnel": "yes", "length": 95.63894715380408}}, {"type": "Feature", "geometry": {"type": "LineString", "coordinates": [[20.9153804, 52.2171157], [20.9149657, 52.2157761]]}, "properties": {"cycleway": "lane", "foot": "no", "highway": "secondary", "lanes": "2", "layer": "-1", "lit": "24/7", "maxheight": "default", "maxspeed": "50", "maxweight": "10", "name": "D\u017awigowa", "name:etymology:wikidata": "Q9249606", "old_ref": "719", "parking:both": "no", "sidewalk": "no", "smoothness": "good", "surface": "asphalt", "tunnel": "yes", "wikidata": "Q107398545", "length": 151.73001557338867}}, {"type": "Feature", "geometry": {"type": "LineString", "coordinates": [[20.9148333, 52.2153484], [20.9147162, 52.214994], [20.9145839, 52.2146344]]}, "properties": {"cycleway": "lane", "foot": "no", "highway": "secondary", "lanes": "2", "layer": "-1", "lit": "24/7", "maxheight": "default", "maxspeed": "50", "maxweight": "10", "name": "D\u017awigowa", "name:etymology:wikidata": "Q9249606", "old_ref": "719", "parking:both": "no", "sidewalk": "no", "smoothness": "good", "surface": "asphalt", "tunnel": "yes", "wikidata": "Q107398545", "length": 81.2608402149305}}, {"type": "Feature", "geometry": {"type": "LineString", "coordinates": [[20.9597276, 52.2199749], [20.9598925, 52.2182965]]}, "properties": {"cycleway:right": "no", "dual_carriageway": "yes", "foot": "no", "highway": "primary", "highway:category:pl": "1", "lanes": "3", "layer": "-1", "lit": "24/7", "maxaxleload": "10", "maxgcweightrating:hgv:conditional": "16@(6:00-10:00, 16:00-20:00); none@permit", "maxheight": "4", "maxspeed": "40", "name": "Aleja Prymasa Tysi\u0105clecia", "note:maxgcweightrating:hgv": "W godz. 6-10, 16-20;Nie dotyczy posiadaczy identyfikatora C16", "oneway": "yes", "ref": "7", "sidewalk": "no", "smoothness": "excellent", "source:maxaxleload": "Rozporz\u0105dzenie Ministra Infrastruktury i Budownictwa z dnia 21 kwietnia 2017 r", "source:maxgcweightrating:hgv": "PL:sign_B-5-note", "surface": "asphalt", "tunnel": "yes", "wikidata": "Q9144955", "wikipedia": "pl:Aleja Prymasa Tysi\u0105clecia w Warszawie", "length": 187.09782233784304}}, {"type": "Feature", "geometry": {"type": "LineString", "coordinates": [[21.1146157, 52.2933076], [21.1153474, 52.2927864]]}, "properties": {"highway": "tertiary", "lanes": "2", "layer": "-1", "lit": "yes", "maxspeed": "30", "name": "Wojska Polskiego", "sidewalk:left": "no", "sidewalk:right": "separate", "surface": "asphalt", "tunnel": "yes", "length": 76.52299271912739}}, {"type": "Feature", "geometry": {"type": "LineString", "coordinates": [[21.0190048, 52.2177304], [21.0195146, 52.2178444]]}, "properties": {"alt_name": "Trasa \u0141azienkowska", "bicycle": "no", "cycleway:both": "no", "foot": "no", "highway": "primary", "lanes": "4", "layer": "-1", "lit": "24/7", "loc_name": "Trasa \u0141azienkowska", "maxgcweightrating": "10", "maxheight": "default", "maxspeed": "50", "name": "Aleja Armii Ludowej", "name:pl": "Aleja Armii Ludowej", "old_name": "Lecha Kaczy\u0144skiego", "old_ref": "2;E 30", "oneway": "yes", "parking:both": "no", "psv:lanes": "yes|yes|yes|designated", "shoulder": "no", "sidewalk:left": "no", "sidewalk:right": "separate", "smoothness": "good", "source:maxgcweightrating": "PL:sign_B-5", "source:maxspeed": "PL:urban", "surface": "asphalt", "tunnel": "yes", "turn:lanes": "through|through|merge_to_left|through", "wikidata": "Q17563575", "wikipedia": "pl:Aleja Armii Ludowej w Warszawie", "length": 37.07917638871378}}, {"type": "Feature", "geometry": {"type": "LineString", "coordinates": [[21.0140023, 52.2467165], [21.0111746, 52.2465084]]}, "properties": {"foot": "no", "highway": "secondary", "lanes": "4", "lanes:backward": "2", "lanes:forward": "2", "lanes:psv": "2", "lanes:psv:backward": "1", "lanes:psv:forward": "1", "layer": "-3", "lit": "24/7", "loc_name": "Trasa W-Z", "maxheight": "3.4", "maxspeed": "40", "motorcar:conditional": "private @ (Mo-Fr 06:00-10:00, 15:00-19:00)", "name": "Aleja \"Solidarno\u015bci\"", "name:pl": "Aleja \"Solidarno\u015bci\"", "name:ru": "\u0430\u043b\u043b\u0435\u044f \u0421\u043e\u043b\u0438\u0434\u0430\u0440\u043d\u043e\u0441\u0442\u0438", "old_ref": "629", "oneway": "no", "psv:lanes:backward": "designated|", "psv:lanes:forward": "designated|", "sidewalk": "no", "source:maxspeed": "sign", "surface": "asphalt", "traffic_sign:backward": "PL:B-16", "traffic_sign:forward": "PL:B-16", "tunnel": "yes", "wikidata": "Q4062603", "wikipedia": "pl:Aleja \u201eSolidarno\u015bci\u201d w Warszawie", "length": 194.5150460047204}}]}