{"type": "FeatureCollection", "features": [{"type": "Feature", "geometry": {"type": "LineString", "coordinates": [[2.3026974, 48.8644894], [2.3008051, 48.8642153]]}, "properties": {"alt_name": "Tunnel du pont de l'Alma", "bicycle": "no", "foot": "no", "hazmat:E": "no", "highway": "primary", "lanes": "2", "layer": "-1", "lit": "24/7", "maxheight": "3.9", "maxspeed": "50", "moped": "no", "name": "Voie Georges Pompidou", "oneway": "yes", "source": "Bing", "surface": "asphalt", "tunnel": "yes", "length": 142.14535748190136}}, {"type": "Feature", "geometry": {"type": "LineString", "coordinates": [[2.2429181, 48.8786852], [2.2421335, 48.8780284]]}, "properties": {"highway": "primary", "lanes": "2", "layer": "-1", "lit": "24/7", "maxheight": "4.50", "maxspeed": "50", "name": "Quai de Dion Bouton", "oneway": "yes", "ref": "D 7", "source": "opendata.hauts-de-seine.net 2012", "surface": "asphalt", "tunnel": "yes", "length": 92.98936556313983}}, {"type": "Feature", "geometry": {"type": "LineString", "coordinates": [[2.2793403, 48.8787], [2.2795754, 48.8786046], [2.2797385, 48.8784974], [2.2798206, 48.8783671], [2.2798462, 48.8781878], [2.2798161, 48.8779624], [2.2797202, 48.8777896], [2.2794985, 48.8775503]]}, "properties": {"destination:lanes": "vers A13 p\u00e9riph\u00e9rique ext\u00e9rieur|vers A1 p\u00e9riph\u00e9rique int\u00e9rieur", "hazmat:E": "no", "highway": "trunk_link", "lanes": "2", "layer": "-1", "lit": "24/7", "maxspeed": "30", "nat_ref": "75Periph_Paris_03_2D", "official_name": "Voie AT/16", "oneway": "yes", "operator": "VILLE DE PARIS", "tunnel": "yes", "zone:traffic": "FR:urban", "length": 149.6693134322378}}, {"type": "Feature", "geometry": {"type": "LineString", "coordinates": [[2.2623553, 48.8842312], [2.2604653, 48.8848282], [2.2569512, 48.885967]]}, "properties": {"bicycle": "no", "cycleway:both": "no", "foot": "no", "hazmat:E": "no", "highway": "trunk", "lanes": "3", "layer": "-1", "lit": "yes", "location": "underground", "maxheight": "4.3", "maxspeed": "70", "name": "Tunnel de Neuilly", "oneway": "yes", "operator": "DIRIF", "ref": "N 13", "shoulder": "no", "surface": "asphalt", "tunnel": "yes", "zone:traffic": "FR:urban", "length": 440.8505743901481}}, {"type": "Feature", "geometry": {"type": "LineString", "coordinates": [[2.2568288, 48.8858053], [2.2603736, 48.8847045], [2.2622601, 48.8841122]]}, "properties": {"bicycle": "no", "cycleway:both": "no", "foot": "no", "hazmat:E": "no", "highway": "trunk", "lanes": "4", "layer": "-1", "lit": "yes", "location": "underground", "maxheight": "4.3", "maxspeed": "50", "name": "Tunnel de Neuilly", "oneway": "yes", "operator": "DIRIF", "ref": "N 13", "shoulder": "no", "surface": "asphalt", "tunnel": "yes", "zone:traffic": "FR:urban", "length": 440.5915512682941}}, {"type": "Feature", "geometry": {"type": "LineString", "coordinates": [[2.3516157, 48.8118121], [2.3511629, 48.8115459]]}, "properties": {"hazmat:E": "no", "highway": "motorway", "int_ref": "E 15;E 50", "lanes": "2", "layer": "-1", "lit": "24/7", "maxspeed": "70", "name": "Tunnel de Bic\u00eatre", "oneway": "yes", "operator": "DIRIF", "ref": "A 6b", "source:maxspeed": "sign", "start_date": "1972", "toll": "no", "tunnel": "yes", "length": 44.52374531877463}}, {"type": "Feature", "geometry": {"type": "LineString", "coordinates": [[2.3530701, 48.8124712], [2.3538441, 48.8128823], [2.354239, 48.8131253], [2.3543526, 48.81321]]}, "properties": {"cutting": "yes", "hazmat:E": "no", "highway": "motorway", "int_ref": "E 15;E 50", "lanes": "2", "layer": "-1", "lit": "24/7", "maxspeed": "70", "name": "Tunnel de Bic\u00eatre", "oneway": "yes", "operator": "DIRIF", "ref": "A 6b", "source:maxspeed": "sign", "start_date": "1972", "toll": "no", "tunnel": "yes", "length": 125.17398370874666}}, {"type": "Feature", "geometry": {"type": "LineString", "coordinates": [[2.3448092, 48.8050924], [2.3450066, 48.8053242], [2.3454186, 48.8057764], [2.3468344, 48.8073147], [2.3479617, 48.8084122], [2.3488615, 48.809289], [2.3491248, 48.8095501]]}, "properties": {"cutting": "yes", "hazmat:E": "no", "highway": "motorway", "int_ref": "E 15;E 50", "lanes": "2", "layer": "-1", "lit": "24/7", "maxspeed": "70", "name": "Tunnel de Bic\u00eatre", "oneway": "yes", "operator": "DIRIF", "ref": "A 6b", "source:maxspeed": "sign", "start_date": "1972", "toll": "no", "tunnel": "yes", "length": 588.6344408242945}}, {"type": "Feature", "geometry": {"type": "LineString", "coordinates": [[2.3388098, 48.816898], [2.3384491, 48.8169174], [2.3381594, 48.816905], [2.3379488, 48.8168626], [2.3377435, 48.81681], [2.3375988, 48.8167584], [2.3374727, 48.8166957], [2.3373239, 48.8165959], [2.3371884, 48.8164732]]}, "properties": {"bicycle": "no", "foot": "no", "hazmat:E": "no", "highway": "motorway_link", "horse": "no", "lanes": "2", "layer": "-1", "lit": "yes", "maxheight": "default", "maxspeed": "30", "motorway": "yes", "nat_ref": "94A900601_1D", "official_name": "Voie BF/14", "oneway": "yes", "operator": "DIRIF", "overtaking:hgv": "no", "sidewalk": "no", "tunnel": "yes", "length": 136.37158662211164}}, {"type": "Feature", "geometry": {"type": "LineString", "coordinates": [[2.3511629, 48.8115459], [2.350506, 48.8111061], [2.349991, 48.8106821], [2.3496866, 48.8103146]]}, "properties": {"cutting": "yes", "hazmat:E": "no", "highway": "motorway", "int_ref": "E 15;E 50", "lanes": "2", "layer": "-1", "lit": "24/7", "maxspeed": "70", "name": "Tunnel de Bic\u00eatre", "oneway": "yes", "operator": "DIRIF", "ref": "A 6b", "source:maxspeed": "sign", "start_date": "1972", "toll": "no", "tunnel": "yes", "length": 175.73440316284663}}, {"type": "Feature", "geometry": {"type": "LineString", "coordinates": [[2.344483, 48.8048154], [2.3442427, 48.8044649], [2.3440796, 48.8041144], [2.343688, 48.8028559], [2.3435291, 48.802255], [2.3434809, 48.8020265], [2.3434596, 48.8018162]]}, "properties": {"cutting": "yes", "hazmat:E": "no", "highway": "motorway", "int_ref": "E 15;E 50", "lanes": "2", "layer": "-1", "lit": "24/7", "maxspeed": "70", "name": "Tunnel de Bic\u00eatre", "oneway": "yes", "operator": "DIRIF", "ref": "A 6b", "source:maxspeed": "sign", "start_date": "1972", "toll": "no", "tunnel": "yes", "length": 343.3748493215554}}, {"type": "Feature", "geometry": {"type": "LineString", "coordinates": [[2.3445775, 48.8048154], [2.3448092, 48.8050924]]}, "properties": {"hazmat:E": "no", "highway": "motorway", "int_ref": "E 15;E 50", "lanes": "2", "layer": "-1", "lit": "24/7", "maxspeed": "70", "name": "Tunnel de Bic\u00eatre", "oneway": "yes", "operator": "DIRIF", "ref": "A 6b", "source:maxspeed": "sign", "start_date": "1972", "toll": "no", "tunnel": "yes", "length": 35.193324895765}}, {"type": "Feature", "geometry": {"type": "LineString", "coordinates": [[2.3368156, 48.816444], [2.3367727, 48.8165412], [2.336719, 48.8166233], [2.3366185, 48.8167063], [2.3364978, 48.8167761], [2.3363341, 48.8168564], [2.3361705, 48.8169315], [2.335972, 48.8169969], [2.3354512, 48.8171496]]}, "properties": {"hazmat:E": "no", "highway": "motorway", "int_ref": "E 05", "lanes": "3", "layer": "-1", "lit": "yes", "maxspeed": "50", "name": "Tunnel d'Orl\u00e9ans", "official_name": "Voie BC/14", "oneway": "yes", "operator": "DIRIF", "ref": "A 6a", "sidewalk": "no", "start_date": "1960", "tunnel": "yes", "zone:traffic": "FR:rural", "length": 132.551778604764}}, {"type": "Feature", "geometry": {"type": "LineString", "coordinates": [[2.3446976, 48.8051037], [2.344483, 48.8048154]]}, "properties": {"hazmat:E": "no", "highway": "motorway", "int_ref": "E 15;E 50", "lanes": "2", "layer": "-1", "lit": "24/7", "maxspeed": "70", "name": "Tunnel de Bic\u00eatre", "oneway": "yes", "operator": "DIRIF", "ref": "A 6b", "source:maxspeed": "sign", "start_date": "1972", "toll": "no", "tunnel": "yes", "length": 35.72656178706874}}, {"type": "Feature", "geometry": {"type": "LineString", "coordinates": [[2.351223, 48.8115007], [2.3516649, 48.8117526]]}, "properties": {"hazmat:E": "no", "highway": "motorway", "int_ref": "E 15;E 50", "lanes": "2", "layer": "-1", "lit": "24/7", "maxspeed": "70", "name": "Tunnel de Bic\u00eatre", "oneway": "yes", "operator": "DIRIF", "ref": "A 6b", "source:maxspeed": "sign", "start_date": "1972", "toll": "no", "tunnel": "yes", "length": 42.87346727937273}}, {"type": "Feature", "geometry": {"type": "LineString", "coordinates": [[2.3516649, 48.8117526], [2.3526152, 48.8122338]]}, "properties": {"cutting": "yes", "hazmat:E": "no", "highway": "motorway", "int_ref": "E 15;E 50", "lanes": "2", "layer": "-1", "lit": "24/7", "maxspeed": "70", "name": "Tunnel de Bic\u00eatre", "oneway": "yes", "operator": "DIRIF", "ref": "A 6b", "source:maxspeed": "sign", "start_date": "1972", "toll": "no", "tunnel": "yes", "length": 87.94955828568473}}, {"type": "Feature", "geometry": {"type": "LineString", "coordinates": [[2.3529929, 48.812539], [2.3525466, 48.8122903]]}, "properties": {"hazmat:E": "no", "highway": "motorway", "int_ref": "E 15;E 50", "lanes": "2", "layer": "-1", "lit": "24/7", "maxspeed": "70", "name": "Tunnel de Bic\u00eatre", "oneway": "yes", "operator": "DIRIF", "ref": "A 6b", "source:maxspeed": "sign", "start_date": "1972", "toll": "no", "tunnel": "yes", "length": 42.8879038649918}}, {"type": "Feature", "geometry": {"type": "LineString", "coordinates": [[2.3525466, 48.8122903], [2.3516157, 48.8118121]]}, "properties": {"cutting": "yes", "hazmat:E": "no", "highway": "motorway", "int_ref": "E 15;E 50", "lanes": "2", "layer": "-1", "lit": "24/7", "maxspeed": "70", "name": "Tunnel de Bic\u00eatre", "oneway": "yes", "operator": "DIRIF", "ref": "A 6b", "source:maxspeed": "sign", "start_date": "1972", "toll": "no", "tunnel": "yes", "length": 86.61783092891173}}, {"type": "Feature", "geometry": {"type": "LineString", "coordinates": [[2.3526152, 48.8122338], [2.3530701, 48.8124712]]}, "properties": {"hazmat:E": "no", "highway": "motorway", "int_ref": "E 15;E 50", "lanes": "2", "layer": "-1", "lit": "24/7", "maxspeed": "70", "name": "Tunnel de Bic\u00eatre", "oneway": "yes", "operator": "DIRIF", "ref": "A 6b", "source:maxspeed": "sign", "start_date": "1972", "toll": "no", "tunnel": "yes", "length": 42.58230817997833}}, {"type": "Feature", "geometry": {"type": "LineString", "coordinates": [[2.3108875, 48.8329681], [2.3102162, 48.8332327], [2.3100261, 48.8333076]]}, "properties": {"busway:left": "lane", "cycleway:left": "share_busway", "highway": "secondary", "lanes": "2", "layer": "-1", "lit": "yes", "maxheight": "4.1", "maxspeed": "30", "name": "Rue de Vouill\u00e9", "shoulder": "no", "sidewalk": "both", "source:maxspeed": "FR:urban", "surface": "asphalt", "tunnel": "yes", "length": 73.65301804532555}}, {"type": "Feature", "geometry": {"type": "LineString", "coordinates": [[2.2935632, 48.8593673], [2.2928099, 48.8588417]]}, "properties": {"bicycle": "no", "foot": "no", "hazmat": "no", "highway": "primary", "horse": "no", "lanes": "1", "layer": "-1", "lit": "yes", "maxheight": "4.1", "maxspeed": "30", "name": "Quai Jacques Chirac", "name:etymology:wikidata": "Q2105", "oneway": "yes", "surface": "asphalt", "tunnel": "yes", "length": 80.44777075363476}}, {"type": "Feature", "geometry": {"type": "LineString", "coordinates": [[2.3207865, 48.8424548], [2.3218496, 48.8398832]]}, "properties": {"bicycle": "no", "dual_carriageway": "yes", "foot": "no", "highway": "primary", "lanes": "2", "layer": "-1", "lit": "24/7", "maxheight": "4.1", "maxspeed": "30", "name": "Avenue du Maine", "name:br": "Bali Ar Mewan", "oneway": "yes", "source:maxspeed": "sign", "surface": "asphalt", "tunnel": "yes", "length": 296.4348644567835}}, {"type": "Feature", "geometry": {"type": "LineString", "coordinates": [[2.2501726, 48.8878808], [2.2510152, 48.8875383], [2.2512128, 48.8874566], [2.2517154, 48.8872478], [2.2518126, 48.8872018], [2.2519065, 48.8871416], [2.2519872, 48.8870391], [2.2520121, 48.8869961], [2.2520305, 48.8869544]]}, "properties": {"highway": "motorway_link", "lanes": "1", "layer": "-5", "lit": "yes", "nat_ref": "92N901401_2D", "oneway": "yes", "operator": "DIRIF", "surface": "asphalt", "tunnel": "yes", "length": 174.4261709857347}}, {"type": "Feature", "geometry": {"type": "LineString", "coordinates": [[2.2855554, 48.8841515], [2.2863622, 48.8845183]]}, "properties": {"bicycle": "no", "destination": "Porte de Champerret", "foot": "no", "hazmat:E": "no", "highway": "trunk_link", "horse": "no", "layer": "-1", "lit": "yes", "motorroad": "no", "official_name": "Voie BC/17", "oneway": "yes", "smoothness": "excellent", "start_date": "1973-04-25", "surface": "asphalt", "tunnel": "yes", "zone:traffic": "FR:urban", "length": 71.86914746506692}}, {"type": "Feature", "geometry": {"type": "LineString", "coordinates": [[2.4103093, 48.8344928], [2.4078016, 48.8335507]]}, "properties": {"bicycle": "no", "foot": "no", "hazmat:E": "no", "highway": "trunk", "horse": "no", "int_ref": "E 15", "lanes": "4", "layer": "-1", "lit": "yes", "maxspeed": "70", "motorroad": "no", "name": "Boulevard P\u00e9riph\u00e9rique Int\u00e9rieur", "official_ref": "75000C01", "oneway": "yes", "operator": "VILLE DE PARIS", "smoothness": "excellent", "start_date": "1970-03-05", "surface": "asphalt", "toll": "no", "tunnel": "yes", "zone:traffic": "FR:urban", "length": 211.82481480361426}}, {"type": "Feature", "geometry": {"type": "LineString", "coordinates": [[2.407918, 48.8334171], [2.410569, 48.8344128]]}, "properties": {"bicycle": "no", "foot": "no", "hazmat:E": "no", "highway": "trunk", "horse": "no", "int_ref": "E 15", "lanes": "4", "layer": "-1", "lit": "yes", "maxspeed": "70", "motorroad": "no", "name": "Boulevard P\u00e9riph\u00e9rique Ext\u00e9rieur", "official_ref": "75000C02", "oneway": "yes", "operator": "VILLE DE PARIS", "smoothness": "excellent", "start_date": "1970-03-05", "surface": "asphalt", "toll": "no", "tunnel": "yes", "zone:traffic": "FR:urban", "length": 223.91674569037588}}, {"type": "Feature", "geometry": {"type": "LineString", "coordinates": [[2.4097846, 48.8762433], [2.4092278, 48.8771289], [2.4085781, 48.8781652], [2.4080765, 48.8789925], [2.4079181, 48.8792199]]}, "properties": {"bicycle": "no", "foot": "no", "hazmat:E": "no", "highway": "trunk", "horse": "no", "lanes": "4", "layer": "-1", "length": 358.2428808857647, "lit": "yes", "maxheight": "default", "maxspeed": "70", "motorroad": "no", "name": "Boulevard P\u00e9riph\u00e9rique Ext\u00e9rieur", "official_ref": "75000C02", "oneway": "yes", "operator": "Ville de Paris", "sidewalk": "no", "smoothness": "excellent", "start_date": "1969-12-01", "surface": "asphalt", "toll": "no", "tunnel": "yes", "tunnel:name": "Tunnel Lilas", "zone:traffic": "FR:urban"}}, {"type": "Feature", "geometry": {"type": "LineString", "coordinates": [[2.4077084, 48.8791564], [2.4078955, 48.8789475], [2.4083877, 48.8781194], [2.4089972, 48.8770899], [2.4095778, 48.8761888]]}, "properties": {"bicycle": "no", "foot": "no", "hazmat:E": "no", "highway": "trunk", "horse": "no", "lanes": "4", "layer": "-1", "length": 357.6875891038659, "lit": "yes", "maxheight": "default", "maxspeed": "70", "motorroad": "no", "name": "Boulevard P\u00e9riph\u00e9rique Int\u00e9rieur", "official_ref": "75000C01", "oneway": "yes", "operator": "Ville de Paris", "sidewalk": "no", "smoothness": "excellent", "start_date": "1969-12-01", "surface": "asphalt", "toll": "no", "tunnel": "yes", "tunnel:name": "Tunnel Lilas", "zone:traffic": "FR:urban"}}, {"type": "Feature", "geometry": {"type": "LineString", "coordinates": [[2.410923, 48.8743021], [2.4119244, 48.8731474], [2.4123681, 48.8724988], [2.4124883, 48.8722886], [2.4128138, 48.8717575]]}, "properties": {"bicycle": "no", "foot": "no", "hazmat:E": "no", "highway": "trunk", "horse": "no", "lanes": "4", "layer": "-1", "lit": "yes", "maxspeed": "70", "motorroad": "no", "name": "Boulevard P\u00e9riph\u00e9rique Int\u00e9rieur", "official_ref": "75000C01", "oneway": "yes", "operator": "Ville de Paris", "sidewalk": "no", "smoothness": "excellent", "start_date": "1969-12-01", "surface": "asphalt", "toll": "no", "tunnel": "yes", "tunnel:name": "Tunnel Foug\u00e8res", "zone:traffic": "FR:urban", "length": 315.7610914668284}}, {"type": "Feature", "geometry": {"type": "LineString", "coordinates": [[2.4130646, 48.8718088], [2.4127458, 48.8723473], [2.4126235, 48.8725632], [2.4121687, 48.873228], [2.4111247, 48.8743868]]}, "properties": {"bicycle": "no", "foot": "no", "hazmat:E": "no", "highway": "trunk", "horse": "no", "lanes": "5", "layer": "-1", "lit": "yes", "maxspeed": "70", "motorroad": "no", "name": "Boulevard P\u00e9riph\u00e9rique Ext\u00e9rieur", "official_ref": "75000C02", "oneway": "yes", "operator": "Ville de Paris", "sidewalk": "no", "smoothness": "excellent", "start_date": "1969-12-01", "surface": "asphalt", "toll": "no", "tunnel": "yes", "tunnel:name": "Tunnel Foug\u00e8res", "zone:traffic": "FR:urban", "length": 320.93697897040613}}, {"type": "Feature", "geometry": {"type": "LineString", "coordinates": [[2.4549875, 48.9073015], [2.451943, 48.9081201], [2.4490595, 48.9089114], [2.4471581, 48.9094332], [2.4455498, 48.9099059], [2.4431289, 48.910645], [2.4404153, 48.9114948], [2.4372986, 48.9125452], [2.4367094, 48.9127677], [2.4366318, 48.9127965], [2.4362509, 48.91294], [2.4358701, 48.9130835], [2.4333028, 48.9139632], [2.4327134, 48.9141799], [2.4322539, 48.9143637], [2.4314654, 48.9147014], [2.4309253, 48.9150727], [2.4305471, 48.9154007], [2.4302453, 48.9157111], [2.4299205, 48.916212], [2.4295052, 48.9170312]]}, "properties": {"hazmat:E": "no", "highway": "motorway", "lanes": "3", "layer": "-2", "lit": "24/7", "maxspeed": "90", "name": "Tunnel de Bobigny", "oneway": "yes", "operator": "DIRIF", "ref": "A 86", "source:maxspeed": "sign", "toll": "no", "tunnel": "yes", "length": 2213.577744926579}}, {"type": "Feature", "geometry": {"type": "LineString", "coordinates": [[2.4293191, 48.916988], [2.4297406, 48.916159], [2.4300818, 48.9156433], [2.430392, 48.9153252], [2.4307922, 48.9149685], [2.4313444, 48.9145852], [2.4321416, 48.9142121], [2.4326287, 48.9140368], [2.4331964, 48.9138247], [2.4348647, 48.9132096], [2.4356803, 48.91288], [2.4361621, 48.9127196], [2.4364323, 48.9126297], [2.43714, 48.9123941], [2.4372187, 48.9123679]]}, "properties": {"hazmat:E": "no", "highway": "motorway", "lanes": "3", "layer": "-2", "lit": "24/7", "maxspeed": "70", "name": "Tunnel de Bobigny", "oneway": "yes", "operator": "DIRIF", "ref": "A 86", "toll": "no", "tunnel": "yes", "length": 806.708429099767}}, {"type": "Feature", "geometry": {"type": "LineString", "coordinates": [[2.3829462, 48.839848], [2.3840169, 48.8396562]]}, "properties": {"foot": "use_sidepath", "highway": "primary", "lanes": "3", "lanes:backward": "2", "lanes:forward": "1", "layer": "-1", "lit": "yes", "maxheight": "default", "maxspeed": "30", "name": "Boulevard de Bercy", "shoulder": "no", "sidewalk": "separate", "surface": "asphalt", "tunnel": "yes", "length": 81.43885268439479}}, {"type": "Feature", "geometry": {"type": "LineString", "coordinates": [[2.385315, 48.8394243], [2.3869153, 48.839159]]}, "properties": {"busway:right": "lane", "cycleway": "separate", "highway": "primary", "lanes": "3", "lanes:backward": "1", "lanes:forward": "2", "layer": "-1", "lit": "yes", "maxheight": "default", "maxspeed": "30", "name": "Boulevard de Bercy", "psv:lanes:forward": "yes|designated", "shoulder": "no", "sidewalk": "separate", "surface": "asphalt", "tunnel": "yes", "length": 121.12126895656526}}, {"type": "Feature", "geometry": {"type": "LineString", "coordinates": [[2.4145238, 48.8462399], [2.4147254, 48.84723]]}, "properties": {"bicycle": "no", "foot": "no", "hazmat:E": "no", "highway": "trunk", "horse": "no", "int_ref": "E 15", "lanes": "4", "layer": "-1", "lit": "24/7", "maxheight": "default", "maxspeed": "70", "motorroad": "no", "name": "Boulevard P\u00e9riph\u00e9rique Ext\u00e9rieur", "official_ref": "75000C02", "oneway": "yes", "operator": "VILLE DE PARIS", "sidewalk": "no", "smoothness": "excellent", "start_date": "1970-03-05", "surface": "asphalt", "toll": "no", "tunnel": "yes", "zone:traffic": "FR:urban", "length": 111.09559996875947}}, {"type": "Feature", "geometry": {"type": "LineString", "coordinates": [[2.414503, 48.847251], [2.4142985, 48.8462609]]}, "properties": {"bicycle": "no", "foot": "no", "hazmat:E": "no", "highway": "trunk", "horse": "no", "int_ref": "E 15", "lanes": "4", "layer": "-1", "lit": "24/7", "maxheight": "default", "maxspeed": "70", "motorroad": "no", "name": "Boulevard P\u00e9riph\u00e9rique Int\u00e9rieur", "official_ref": "75000C01", "oneway": "yes", "operator": "VILLE DE PARIS", "sidewalk": "no", "smoothness": "excellent", "start_date": "1970-03-05", "surface": "asphalt", "toll": "no", "tunnel": "yes", "zone:traffic": "FR:urban", "length": 111.12414869823085}}, {"type": "Feature", "geometry": {"type": "LineString", "coordinates": [[2.4138698, 48.8441706], [2.4137918, 48.8438046]]}, "properties": {"bicycle": "no", "foot": "no", "hazmat:E": "no", "highway": "trunk", "horse": "no", "int_ref": "E 15", "lanes": "4", "layer": "-1", "lit": "yes", "maxheight": "default", "maxspeed": "70", "motorroad": "no", "name": "Boulevard P\u00e9riph\u00e9rique Int\u00e9rieur", "official_ref": "75000C01", "oneway": "yes", "operator": "VILLE DE PARIS", "shoulder": "no", "smoothness": "excellent", "start_date": "1970-03-05", "surface": "asphalt", "toll": "no", "tunnel": "yes", "zone:traffic": "FR:urban", "length": 41.10234643907197}}, {"type": "Feature", "geometry": {"type": "LineString", "coordinates": [[2.4140242, 48.8437847], [2.4140941, 48.8441511]]}, "properties": {"bicycle": "no", "foot": "no", "hazmat:E": "no", "highway": "trunk", "horse": "no", "int_ref": "E 15", "lanes": "4", "layer": "-1", "lit": "yes", "maxspeed": "70", "motorroad": "no", "name": "Boulevard P\u00e9riph\u00e9rique Ext\u00e9rieur", "official_ref": "75000C02", "oneway": "yes", "operator": "VILLE DE PARIS", "smoothness": "excellent", "start_date": "1970-03-05", "surface": "asphalt", "toll": "no", "tunnel": "yes", "zone:traffic": "FR:urban", "length": 41.067890811156914}}, {"type": "Feature", "geometry": {"type": "LineString", "coordinates": [[2.2752394, 48.8441241], [2.2724011, 48.8407778], [2.2722336, 48.8406614]]}, "properties": {"bicycle": "no", "dual_carriageway": "yes", "foot": "no", "hazmat:E": "no", "highway": "primary", "lanes": "2", "layer": "-1", "lit": "24/7", "maxheight": "4.6", "maxspeed": "30", "moped": "no", "name": "Quai Andr\u00e9 Citro\u00ebn", "oneway": "yes", "sidewalk": "no", "surface": "asphalt", "tunnel": "yes", "length": 444.33411648384157}}, {"type": "Feature", "geometry": {"type": "LineString", "coordinates": [[2.2723709, 48.8406089], [2.2753466, 48.8440904]]}, "properties": {"bicycle": "no", "dual_carriageway": "yes", "foot": "no", "hazmat:E": "no", "highway": "primary", "lanes": "2", "layer": "-1", "lit": "24/7", "maxheight": "4.6", "maxspeed": "30", "moped": "no", "name": "Quai Andr\u00e9 Citro\u00ebn", "oneway": "yes", "sidewalk": "no", "surface": "asphalt", "tunnel": "yes", "length": 444.5294856582993}}, {"type": "Feature", "geometry": {"type": "LineString", "coordinates": [[2.4329989, 48.8717865], [2.4313135, 48.8708051], [2.4301303, 48.8700147], [2.4292241, 48.8692454]]}, "properties": {"busway:right": "lane", "highway": "motorway", "int_ref": "E 15", "lanes": "4", "layer": "-1", "lit": "24/7", "maxspeed": "70", "oneway": "yes", "operator": "DIRIF", "ref": "A 3", "toll": "no", "tunnel": "yes", "length": 396.79895392905865}}, {"type": "Feature", "geometry": {"type": "LineString", "coordinates": [[2.4281453, 48.8680199], [2.4287345, 48.868502]]}, "properties": {"highway": "motorway", "int_ref": "E 15", "lanes": "4", "layer": "-1", "lit": "24/7", "maxspeed": "90", "oneway": "yes", "operator": "DIRIF", "ref": "A 3", "toll": "no", "tunnel": "yes", "length": 68.86853095538085}}, {"type": "Feature", "geometry": {"type": "LineString", "coordinates": [[2.2668716, 48.8644864], [2.2663688, 48.8640364], [2.2657508, 48.8635565], [2.2651586, 48.8629749], [2.2645709, 48.8623336]]}, "properties": {"bicycle": "no", "foot": "no", "hazmat:E": "no", "highway": "trunk", "horse": "no", "lanes": "4", "layer": "-1", "lit": "24/7", "maxspeed": "70", "motorroad": "no", "name": "Boulevard P\u00e9riph\u00e9rique Ext\u00e9rieur", "official_ref": "75000C02", "oneway": "yes", "operator": "VILLE DE PARIS", "smoothness": "excellent", "start_date": "1972-06", "surface": "asphalt", "toll": "no", "tunnel": "yes", "zone:traffic": "FR:urban", "length": 293.45912186291105}}, {"type": "Feature", "geometry": {"type": "LineString", "coordinates": [[2.2743845, 48.8728535], [2.2727032, 48.8709418]]}, "properties": {"bicycle": "no", "foot": "no", "hazmat:E": "no", "highway": "trunk", "horse": "no", "lanes": "4", "layer": "-1", "lit": "yes", "maxspeed": "70", "motorroad": "no", "name": "Boulevard P\u00e9riph\u00e9rique Ext\u00e9rieur", "official_ref": "75000C02", "oneway": "yes", "operator": "VILLE DE PARIS", "smoothness": "excellent", "start_date": "1973-04-25", "surface": "asphalt", "toll": "no", "tunnel": "yes", "zone:traffic": "FR:urban", "length": 245.78260091639117}}, {"type": "Feature", "geometry": {"type": "LineString", "coordinates": [[2.3702162, 48.8434195], [2.3708491, 48.8429451]]}, "properties": {"alt_name": "Voie Georges Pompidou", "bicycle": "no", "dual_carriageway": "yes", "highway": "primary", "lanes": "3", "layer": "-1", "lit": "yes", "maxspeed": "50", "name": "Quai de la Rap\u00e9e", "name:etymology:wikidata": "Q19060423", "oneway": "yes", "smoothness": "good", "surface": "asphalt", "tunnel": "yes", "length": 70.29488220997828}}, {"type": "Feature", "geometry": {"type": "LineString", "coordinates": [[2.3585749, 48.906148], [2.3582041, 48.9109352], [2.3580489, 48.9129004], [2.3575989, 48.9183473]]}, "properties": {"hazmat:E": "no", "highway": "motorway", "int_ref": "E 19", "lanes": "4", "layer": "-3", "lit": "yes", "maxheight": "4.3", "maxspeed": "90", "name": "Tunnel du Landy", "oneway": "yes", "operator": "DIRIF", "ref": "A 1", "smoothness": "excellent", "start_date": "1965-12-17", "surface": "asphalt", "toll": "no", "tunnel": "yes", "tunnel:name": "Tunnel du Landy", "length": 1358.5468734995284}}, {"type": "Feature", "geometry": {"type": "LineString", "coordinates": [[2.35738, 48.9183396], [2.3577705, 48.9128718], [2.3579184, 48.910923], [2.3583614, 48.9061342]]}, "properties": {"hazmat:E": "no", "highway": "motorway", "int_ref": "E 19", "lanes": "4", "layer": "-3", "lit": "yes", "maxheight": "4.3", "maxspeed": "90", "name": "Tunnel du Landy", "oneway": "yes", "operator": "DIRIF", "ref": "A 1", "smoothness": "excellent", "start_date": "1965-12-17", "surface": "asphalt", "toll": "no", "tunnel": "yes", "tunnel:name": "Tunnel du Landy", "length": 1359.2720205911405}}, {"type": "Feature", "geometry": {"type": "LineString", "coordinates": [[2.2073877, 48.9005024], [2.2080008, 48.9004011], [2.2095841, 48.9000698]]}, "properties": {"hazmat:E": "no", "highway": "motorway_link", "lanes": "2", "layer": "-4", "lit": "24/7", "maxspeed": "70", "nat_ref": "92A901402_4D", "oneway": "yes", "operator": "DIRIF", "source": "extrapolation", "tunnel": "yes", "length": 168.13164719150518}}, {"type": "Feature", "geometry": {"type": "LineString", "coordinates": [[2.2436075, 48.8901501], [2.2418641, 48.8908965], [2.2416991, 48.8909551], [2.2413813, 48.8910618], [2.2411023, 48.8911553], [2.2406182, 48.8913114], [2.2394983, 48.8916694], [2.2388439, 48.8918686], [2.238003, 48.8921288], [2.2375001, 48.8922848], [2.2359525, 48.8926957], [2.234669, 48.8930405], [2.2332917, 48.8934725], [2.2311567, 48.8941735], [2.2300462, 48.8945297], [2.2283752, 48.8950261], [2.2272567, 48.8953823], [2.2269939, 48.8954678], [2.2263307, 48.8956715]]}, "properties": {"destination": "Rouen p\u00e9age;Saint Germain en Laye;Cergy-Pontoise", "hazmat:E": "no", "hgv:conditional": "no @ (weight>3.5)", "highway": "motorway", "lanes": "2", "layer": "-4", "lit": "24/7", "maxspeed": "70", "name": "Tunnel de la D\u00e9fense", "oneway": "yes", "operator": "DIRIF", "ref": "N 1014", "source": "yahoo;extrapolation;guess", "toll": "no", "tunnel": "yes", "length": 1409.628859449302}}, {"type": "Feature", "geometry": {"type": "LineString", "coordinates": [[2.200206, 48.9025632], [2.201946, 48.9018638], [2.2038769, 48.9011098], [2.2048422, 48.9008484], [2.2059697, 48.9005984], [2.2066897, 48.9004739], [2.2074004, 48.900385], [2.2095841, 48.9000698]]}, "properties": {"hazmat:E": "no", "hgv:conditional": "no @ (weight>3.5)", "highway": "motorway", "lanes": "2", "layer": "-2", "lit": "24/7", "maxspeed": "70", "name": "Tunnel de la D\u00e9fense", "oneway": "yes", "operator": "DIRIF", "ref": "A 14", "source": "extrapolation", "surface": "asphalt", "toll": "no", "tunnel": "yes", "length": 749.1764784004342}}, {"type": "Feature", "geometry": {"type": "LineString", "coordinates": [[2.272891, 48.870843], [2.2745819, 48.8727576]]}, "properties": {"bicycle": "no", "foot": "no", "hazmat:E": "no", "highway": "trunk", "horse": "no", "lanes": "4", "layer": "-1", "lit": "yes", "maxspeed": "70", "motorroad": "no", "name": "Boulevard P\u00e9riph\u00e9rique Int\u00e9rieur", "official_ref": "75000C01", "oneway": "yes", "operator": "VILLE DE PARIS", "smoothness": "excellent", "start_date": "1973-04-25", "surface": "asphalt", "toll": "no", "tunnel": "yes", "zone:traffic": "FR:urban", "length": 246.41548616958465}}, {"type": "Feature", "geometry": {"type": "LineString", "coordinates": [[2.2917022, 48.8609267], [2.2904848, 48.8599507]]}, "properties": {"bicycle": "no", "dual_carriageway": "yes", "foot": "no", "hazmat": "no", "highway": "primary", "lanes": "1", "layer": "-1", "lit": "yes", "maxheight": "3.9", "maxspeed": "50", "moped": "no", "name": "Avenue de New York", "oneway": "yes", "surface": "asphalt", "tunnel": "yes", "length": 140.5702519190821}}, {"type": "Feature", "geometry": {"type": "LineString", "coordinates": [[2.33055, 48.8616238], [2.3309105, 48.8621439]]}, "properties": {"bicycle": "no", "cycleway": "no", "hazmat": "no", "highway": "secondary", "lanes": "3", "layer": "-1", "lit": "24/7", "maxspeed": "30", "name": "Avenue du G\u00e9n\u00e9ral Lemonnier", "name:ru": "\u043f\u0440\u043e\u0441\u043f\u0435\u043a\u0442 \u0416\u0435\u043d\u0435\u0440\u0430\u043b\u044c \u041b\u0435\u043c\u043e\u043d\u044c\u0435", "oneway": "yes", "ref:FR:FANTOIR": "751014064T", "surface": "asphalt", "tunnel": "yes", "wikidata": "Q2874152", "length": 63.60028884505879}}, {"type": "Feature", "geometry": {"type": "LineString", "coordinates": [[2.2930985, 48.8273631], [2.2927338, 48.8274672]]}, "properties": {"bicycle": "no", "foot": "no", "hazmat:E": "no", "highway": "trunk", "horse": "no", "int_ref": "E 05", "lanes": "3", "layer": "-1", "lit": "yes", "maxheight": "4.75", "maxspeed": "70", "motorroad": "no", "name": "Boulevard P\u00e9riph\u00e9rique Int\u00e9rieur", "official_ref": "75000C01", "oneway": "yes", "operator": "VILLE DE PARIS", "sidewalk": "no", "smoothness": "excellent", "source": "bing", "start_date": "1964-09-30", "surface": "asphalt", "toll": "no", "tunnel": "yes", "zone:traffic": "FR:urban", "length": 29.17309788490465}}, {"type": "Feature", "geometry": {"type": "LineString", "coordinates": [[2.2994726, 48.8258189], [2.3007882, 48.8255324]]}, "properties": {"bicycle": "no", "foot": "no", "hazmat:E": "no", "highway": "trunk", "horse": "no", "int_ref": "E 05", "lanes": "3", "layer": "-1", "lit": "yes", "maxheight": "4.75", "maxspeed": "70", "motorroad": "no", "name": "Boulevard P\u00e9riph\u00e9rique Ext\u00e9rieur", "official_ref": "75000C02", "oneway": "yes", "operator": "VILLE DE PARIS", "sidewalk": "no", "smoothness": "excellent", "start_date": "1963-11", "surface": "asphalt", "toll": "no", "tunnel": "yes", "zone:traffic": "FR:urban", "length": 101.71883057922197}}, {"type": "Feature", "geometry": {"type": "LineString", "coordinates": [[2.3047878, 48.8247459], [2.3035983, 48.825017], [2.3025678, 48.8252365], [2.3008359, 48.8256365]]}, "properties": {"bicycle": "no", "dual_carriageway": "yes", "foot": "no", "hazmat:E": "no", "highway": "trunk", "horse": "no", "int_ref": "E 05", "lanes": "3", "layer": "-1", "lit": "yes", "maxheight": "4.75", "maxspeed": "70", "motorroad": "no", "name": "Boulevard P\u00e9riph\u00e9rique Int\u00e9rieur", "official_ref": "75000C01", "oneway": "yes", "operator": "VILLE DE PARIS", "sidewalk": "no", "smoothness": "excellent", "start_date": "1963-11", "surface": "asphalt", "toll": "no", "tunnel": "yes", "zone:traffic": "FR:urban", "length": 306.6301424114651}}, {"type": "Feature", "geometry": {"type": "LineString", "coordinates": [[2.3008053, 48.8252954], [2.301334, 48.8251754]]}, "properties": {"cycleway:right": "no", "highway": "tertiary", "lane_markings": "no", "lit": "yes", "maxheight": "4", "maxspeed": "30", "name": "Rue Louis Vicat", "oneway": "yes", "sidewalk": "both", "surface": "asphalt", "tunnel": "yes", "length": 41.050703236290005}}, {"type": "Feature", "geometry": {"type": "LineString", "coordinates": [[2.3017655, 48.8255789], [2.3012591, 48.8256806]]}, "properties": {"cycleway:right": "no", "highway": "tertiary", "maxheight": "4", "maxspeed": "30", "maxspeed:type": "sign", "name": "Rue Claude Garamond", "oneway": "yes", "surface": "asphalt", "tunnel": "yes", "length": 38.86530876032183}}, {"type": "Feature", "geometry": {"type": "LineString", "coordinates": [[2.3018758, 48.8251605], [2.3025957, 48.8250003], [2.3037463, 48.8247477], [2.3038059, 48.8247347], [2.3047449, 48.8246385]]}, "properties": {"bicycle": "no", "cycleway:both": "no", "foot": "no", "hazmat:E": "no", "highway": "trunk_link", "horse": "no", "layer": "-1", "lit": "yes", "motorroad": "no", "official_name": "Voie AP/14", "oneway": "yes", "sidewalk": "no", "smoothness": "excellent", "start_date": "1962-09", "surface": "asphalt", "tunnel": "yes", "length": 219.1987913924415}}, {"type": "Feature", "geometry": {"type": "LineString", "coordinates": [[2.3047878, 48.8247459], [2.3039038, 48.8250567], [2.3038418, 48.8250712], [2.3025614, 48.8253732]]}, "properties": {"bicycle": "no", "destination": "Porte de Vanves;Porte de Brancion", "foot": "no", "hazmat:E": "no", "highway": "trunk_link", "horse": "no", "lanes": "2", "layer": "-1", "lit": "yes", "maxheight": "4.75", "motorroad": "no", "official_name": "Voie AO/14", "oneway": "yes", "sidewalk": "no", "smoothness": "excellent", "start_date": "1962-09", "surface": "asphalt", "tunnel": "yes", "length": 178.2033226127865}}, {"type": "Feature", "geometry": {"type": "LineString", "coordinates": [[2.3563495, 48.8154974], [2.3565833, 48.8158077], [2.3566319, 48.8158679], [2.3567203, 48.8159348], [2.3568363, 48.8159857]]}, "properties": {"hazmat:E": "no", "highway": "motorway", "int_ref": "E 15;E 50", "lanes": "2", "layer": "-1", "lit": "yes", "maxspeed": "50", "name": "Tunnel d'Italie", "oneway": "yes", "operator": "DIRIF", "ref": "A 6b", "sidewalk": "no", "source:maxspeed": "sign", "start_date": "1972", "tunnel": "yes", "length": 66.23218722183766}}, {"type": "Feature", "geometry": {"type": "LineString", "coordinates": [[2.3612003, 48.8162773], [2.3595554, 48.8163822], [2.3587775, 48.8164264], [2.3581284, 48.8164688], [2.3578227, 48.8164847], [2.3576108, 48.8164882], [2.3574659, 48.8164688], [2.3573157, 48.8164423], [2.3571548, 48.8163928], [2.3570475, 48.8163469], [2.3569161, 48.8162833], [2.3567739, 48.8161827], [2.3565606, 48.8159754]]}, "properties": {"foot": "no", "hazmat:E": "no", "highway": "motorway", "int_ref": "E 15;E 50", "lanes": "2", "layer": "-1", "lit": "yes", "maxheight": "default", "maxspeed": "50", "name": "Tunnel d'Italie", "official_name": "Voie DH/13", "oneway": "yes", "operator": "DIRIF", "ref": "A 6b", "sidewalk": "no", "source:maxspeed": "sign", "start_date": "1972", "tunnel": "yes", "length": 364.53489395496433}}, {"type": "Feature", "geometry": {"type": "LineString", "coordinates": [[2.3344079, 48.8172647], [2.334698, 48.8171028], [2.3348737, 48.8170172], [2.3350802, 48.8169377], [2.3354048, 48.8168626], [2.3357641, 48.8168017], [2.3360425, 48.8167554]]}, "properties": {"hazmat:E": "no", "highway": "motorway", "int_ref": "E 05", "lanes": "2", "layer": "-1", "lit": "yes", "maxspeed": "50", "name": "Tunnel d'Orl\u00e9ans", "official_name": "Voie BB/14", "oneway": "yes", "operator": "DIRIF", "ref": "A 6a", "sidewalk": "no", "start_date": "1960", "tunnel": "yes", "length": 135.06752191741657}}, {"type": "Feature", "geometry": {"type": "LineString", "coordinates": [[2.4035815, 48.8311047], [2.4058281, 48.8323742]]}, "properties": {"bicycle": "no", "foot": "no", "hazmat:E": "no", "highway": "trunk", "horse": "no", "int_ref": "E 15", "lanes": "4", "layer": "-1", "lit": "yes", "maxspeed": "70", "motorroad": "no", "name": "Boulevard P\u00e9riph\u00e9rique Ext\u00e9rieur", "official_ref": "75000C02", "oneway": "yes", "operator": "VILLE DE PARIS", "smoothness": "excellent", "start_date": "1970-03-05", "surface": "asphalt", "toll": "no", "tunnel": "yes", "zone:traffic": "FR:urban", "length": 217.1089563539623}}, {"type": "Feature", "geometry": {"type": "LineString", "coordinates": [[2.405605, 48.8324308], [2.4035526, 48.8312931]]}, "properties": {"bicycle": "no", "foot": "no", "hazmat:E": "no", "highway": "trunk", "horse": "no", "int_ref": "E 15", "lanes": "4", "layer": "-1", "lit": "yes", "maxspeed": "70", "motorroad": "no", "name": "Boulevard P\u00e9riph\u00e9rique Int\u00e9rieur", "official_ref": "75000C01", "oneway": "yes", "operator": "VILLE DE PARIS", "smoothness": "excellent", "start_date": "1970-03-05", "surface": "asphalt", "toll": "no", "tunnel": "yes", "zone:traffic": "FR:urban", "length": 196.75485049000002}}, {"type": "Feature", "geometry": {"type": "LineString", "coordinates": [[2.3048409, 48.8941975], [2.3037603, 48.8935491]]}, "properties": {"bicycle": "no", "foot": "no", "highway": "trunk", "horse": "no", "lanes": "4", "layer": "-1", "lit": "yes", "maxheight": "default", "maxspeed": "70", "motorroad": "no", "name": "Boulevard P\u00e9riph\u00e9rique Ext\u00e9rieur", "official_ref": "75000C02", "oneway": "yes", "operator": "VILLE DE PARIS", "smoothness": "excellent", "start_date": "1969-09-02", "surface": "asphalt", "toll": "no", "tunnel": "yes", "zone:traffic": "FR:urban", "length": 107.135321765129}}, {"type": "Feature", "geometry": {"type": "LineString", "coordinates": [[2.3040553, 48.8934872], [2.3050082, 48.8940776]]}, "properties": {"bicycle": "no", "foot": "no", "highway": "trunk", "horse": "no", "lanes": "4", "layer": "-1", "lit": "yes", "maxheight": "default", "maxspeed": "70", "motorroad": "no", "name": "Boulevard P\u00e9riph\u00e9rique Int\u00e9rieur", "official_ref": "75000C01", "oneway": "yes", "operator": "VILLE DE PARIS", "smoothness": "excellent", "start_date": "1969-10-01", "surface": "asphalt", "toll": "no", "tunnel": "yes", "zone:traffic": "FR:urban", "length": 95.88094786655496}}, {"type": "Feature", "geometry": {"type": "LineString", "coordinates": [[2.3219514, 48.8399014], [2.3218976, 48.8400315], [2.3208886, 48.8424723]]}, "properties": {"bicycle": "no", "dual_carriageway": "yes", "foot": "no", "highway": "primary", "lanes": "2", "layer": "-1", "level": "-1", "lit": "24/7", "maxheight": "4.1", "maxspeed": "30", "name": "Avenue du Maine", "name:fr": "Avenue du Maine", "oneway": "yes", "source:maxspeed": "sign", "surface": "asphalt", "tunnel": "yes", "length": 296.3539620963655}}, {"type": "Feature", "geometry": {"type": "LineString", "coordinates": [[2.256971, 48.8359989], [2.2575958, 48.8355109], [2.2579949, 48.8352971]]}, "properties": {"bicycle": "no", "destination": "Paris centre", "foot": "no", "hazmat:E": "no", "highway": "trunk_link", "horse": "no", "layer": "-1", "lit": "yes", "maxheight": "default", "maxspeed": "30", "motorroad": "no", "official_name": "Voie CD/16", "oneway": "yes", "smoothness": "excellent", "source:maxspeed": "sign", "start_date": "1970-04", "surface": "asphalt", "tunnel": "yes", "length": 108.78835602379493}}, {"type": "Feature", "geometry": {"type": "LineString", "coordinates": [[2.2579006, 48.8357846], [2.2574269, 48.8360413], [2.2573962, 48.8360588]]}, "properties": {"bicycle": "no", "destination": "Boulogne", "destination:ref": "D 910", "foot": "no", "hazmat:E": "no", "highway": "trunk_link", "horse": "no", "lanes": "2", "layer": "-1", "lit": "yes", "maxheight": "4.75", "maxspeed": "70", "motorroad": "no", "official_name": "Voie CB/16", "oneway": "yes", "smoothness": "excellent", "source:maxspeed": "sign", "start_date": "1970-04", "surface": "asphalt", "tunnel": "yes", "length": 47.96914051831737}}, {"type": "Feature", "geometry": {"type": "LineString", "coordinates": [[2.2540884, 48.8403604], [2.2541127, 48.8413165], [2.2541526, 48.8420135], [2.2542839, 48.8426664], [2.2544875, 48.8431432], [2.2547731, 48.8437114]]}, "properties": {"bicycle": "no", "foot": "no", "hazmat:E": "no", "highway": "trunk", "horse": "no", "int_ref": "E 05", "lanes": "4", "layer": "-1", "lit": "24/7", "maxheight": "4.75", "maxspeed": "70", "motorroad": "no", "name": "Boulevard P\u00e9riph\u00e9rique Int\u00e9rieur", "official_ref": "75000C01", "oneway": "yes", "operator": "VILLE DE PARIS", "smoothness": "excellent", "start_date": "1971-01", "surface": "asphalt", "toll": "no", "tunnel": "yes", "zone:traffic": "FR:urban", "length": 378.81317808462666}}, {"type": "Feature", "geometry": {"type": "LineString", "coordinates": [[2.2548646, 48.8455272], [2.254816, 48.8452591], [2.2548124, 48.8450998], [2.2548074, 48.844875], [2.2547258, 48.8443186], [2.2545156, 48.8437679], [2.254222, 48.8431857], [2.2540178, 48.8426382], [2.2538813, 48.8420366], [2.253796, 48.8411665], [2.2537949, 48.8403689]]}, "properties": {"bicycle": "no", "foot": "no", "hazmat:E": "no", "highway": "trunk", "horse": "no", "int_ref": "E 05", "lanes": "4", "layer": "-1", "lit": "24/7", "maxheight": "4.75", "maxspeed": "70", "motorroad": "no", "name": "Boulevard P\u00e9riph\u00e9rique Ext\u00e9rieur", "official_ref": "75000C02", "oneway": "yes", "operator": "VILLE DE PARIS", "smoothness": "excellent", "start_date": "1972-06", "surface": "asphalt", "toll": "no", "tunnel": "yes", "zone:traffic": "FR:urban", "length": 582.3162727669705}}, {"type": "Feature", "geometry": {"type": "LineString", "coordinates": [[2.2546396, 48.8469978], [2.2544936, 48.8472201], [2.2543019, 48.8474377], [2.253549, 48.8481772]]}, "properties": {"bicycle": "no", "foot": "no", "hazmat:E": "no", "highway": "trunk", "horse": "no", "lanes": "4", "layer": "-1", "lit": "24/7", "maxspeed": "70", "motorroad": "no", "name": "Boulevard P\u00e9riph\u00e9rique Int\u00e9rieur", "official_ref": "75000C01", "oneway": "yes", "operator": "VILLE DE PARIS", "smoothness": "excellent", "start_date": "1972-01-20", "surface": "asphalt", "toll": "no", "tunnel": "yes", "zone:traffic": "FR:urban", "length": 154.01379102252847}}, {"type": "Feature", "geometry": {"type": "LineString", "coordinates": [[2.2532533, 48.8481761], [2.2541131, 48.8473599], [2.2542927, 48.8471572], [2.2544301, 48.8469384]]}, "properties": {"bicycle": "no", "foot": "no", "hazmat:E": "no", "highway": "trunk", "horse": "no", "lanes": "4", "layer": "-1", "lit": "24/7", "maxspeed": "70", "motorroad": "no", "name": "Boulevard P\u00e9riph\u00e9rique Ext\u00e9rieur", "official_ref": "75000C02", "oneway": "yes", "operator": "VILLE DE PARIS", "smoothness": "excellent", "start_date": "1972-06", "surface": "asphalt", "toll": "no", "tunnel": "yes", "zone:traffic": "FR:urban", "length": 162.99987391509592}}, {"type": "Feature", "geometry": {"type": "LineString", "coordinates": [[2.3718176, 48.9007749], [2.3701238, 48.9007941]]}, "properties": {"bicycle": "no", "foot": "no", "hazmat:E": "no", "highway": "trunk", "horse": "no", "lanes": "4", "layer": "-1", "lit": "yes", "maxspeed": "70", "motorroad": "no", "name": "Boulevard P\u00e9riph\u00e9rique Ext\u00e9rieur", "official_ref": "75000C02", "oneway": "yes", "operator": "VILLE DE PARIS", "smoothness": "excellent", "start_date": "1967-02-10", "surface": "asphalt", "toll": "no", "tunnel": "yes", "zone:traffic": "FR:urban", "length": 124.20272433754536}}, {"type": "Feature", "geometry": {"type": "LineString", "coordinates": [[2.3701194, 48.9006473], [2.3718076, 48.9006276]]}, "properties": {"bicycle": "no", "foot": "no", "hazmat:E": "no", "highway": "trunk", "horse": "no", "lanes": "4", "layer": "-1", "lit": "yes", "maxspeed": "70", "motorroad": "no", "name": "Boulevard P\u00e9riph\u00e9rique Int\u00e9rieur", "official_ref": "75000C01", "oneway": "yes", "operator": "VILLE DE PARIS", "smoothness": "excellent", "start_date": "1967-02-10", "surface": "asphalt", "toll": "no", "tunnel": "yes", "zone:traffic": "FR:urban", "length": 123.79354448904068}}, {"type": "Feature", "geometry": {"type": "LineString", "coordinates": [[2.2939317, 48.8886836], [2.2956462, 48.8890332], [2.2960231, 48.8891512], [2.2967216, 48.8893691], [2.2976475, 48.8897763], [2.2986031, 48.890233], [2.2994655, 48.8907591]]}, "properties": {"bicycle": "no", "foot": "no", "hazmat:E": "no", "highway": "trunk", "horse": "no", "lanes": "4", "layer": "-1", "lit": "yes", "maxspeed": "70", "motorroad": "no", "name": "Boulevard P\u00e9riph\u00e9rique Int\u00e9rieur", "official_ref": "75000C01", "oneway": "yes", "operator": "VILLE DE PARIS", "smoothness": "excellent", "start_date": "1973-04-25", "surface": "asphalt", "toll": "no", "tunnel": "yes", "zone:traffic": "FR:urban", "length": 473.18301508527725}}, {"type": "Feature", "geometry": {"type": "LineString", "coordinates": [[2.2993169, 48.8908621], [2.2984308, 48.8903498], [2.2975301, 48.8899324], [2.2966014, 48.8895271], [2.2958102, 48.8892822], [2.2955206, 48.8891936], [2.293683, 48.8887639], [2.2932566, 48.8886549]]}, "properties": {"bicycle": "no", "foot": "no", "hazmat:E": "no", "highway": "trunk", "horse": "no", "lanes": "4", "layer": "-1", "lit": "yes", "maxspeed": "70", "motorroad": "no", "name": "Boulevard P\u00e9riph\u00e9rique Ext\u00e9rieur", "official_ref": "75000C02", "oneway": "yes", "operator": "VILLE DE PARIS", "smoothness": "excellent", "start_date": "1973-04-25", "surface": "asphalt", "survey:date": "2023-05-13", "toll": "no", "tunnel": "yes", "zone:traffic": "FR:urban", "length": 512.8419107497001}}, {"type": "Feature", "geometry": {"type": "LineString", "coordinates": [[2.2884406, 48.8859058], [2.2915032, 48.8877967]]}, "properties": {"bicycle": "no", "foot": "no", "hazmat:E": "no", "highway": "trunk", "horse": "no", "lanes": "4", "layer": "-1", "lit": "yes", "maxspeed": "70", "motorroad": "no", "name": "Boulevard P\u00e9riph\u00e9rique Int\u00e9rieur", "official_ref": "75000C01", "oneway": "yes", "operator": "VILLE DE PARIS", "smoothness": "excellent", "start_date": "1973-04-25", "surface": "asphalt", "toll": "no", "tunnel": "yes", "zone:traffic": "FR:urban", "length": 307.67714368427727}}, {"type": "Feature", "geometry": {"type": "LineString", "coordinates": [[2.2901077, 48.8871887], [2.2881627, 48.885941]]}, "properties": {"bicycle": "no", "foot": "no", "hazmat:E": "no", "highway": "trunk", "horse": "no", "lanes": "4", "layer": "-1", "lit": "yes", "maxspeed": "70", "motorroad": "no", "name": "Boulevard P\u00e9riph\u00e9rique Ext\u00e9rieur", "official_ref": "75000C02", "oneway": "yes", "operator": "VILLE DE PARIS", "smoothness": "excellent", "start_date": "1973-04-25", "surface": "asphalt", "toll": "no", "tunnel": "yes", "zone:traffic": "FR:urban", "length": 198.99580411381413}}, {"type": "Feature", "geometry": {"type": "LineString", "coordinates": [[2.2006335, 48.8259138], [2.2003671, 48.8259243], [2.2003237, 48.8259259]]}, "properties": {"cycleway:both": "shared_lane", "cycleway:both:lane": "pictogram", "highway": "secondary", "lanes": "2", "layer": "-1", "lit": "no", "maxheight": "4.50", "maxspeed": "50", "name": "Rue de S\u00e8vres / Rue de Ville-d'Avray", "name:left": "Rue de S\u00e8vres", "name:right": "Rue de Ville-d'Avray", "ref": "D 407", "shoulder": "no", "sidewalk": "both", "sidewalk:both:surface": "asphalt", "source": "opendata.hauts-de-seine.net 2012", "surface": "asphalt", "tunnel": "yes", "length": 22.787300560804187}}, {"type": "Feature", "geometry": {"type": "LineString", "coordinates": [[2.2206235, 48.8411203], [2.2205755, 48.8409263], [2.2206184, 48.8407116], [2.2207109, 48.8405801], [2.2208053, 48.8404827]]}, "properties": {"foot": "no", "highway": "secondary", "lanes": "2", "layer": "-1", "lit": "24/7", "maxspeed": "50", "oneway": "yes", "ref": "D 907", "source": "survey", "tunnel": "yes", "length": 74.92431395107724}}, {"type": "Feature", "geometry": {"type": "LineString", "coordinates": [[2.2057626, 48.8394394], [2.2112152, 48.839221], [2.2145948, 48.8392493]]}, "properties": {"destination:lanes": "Paris;Bois de Boulogne|Paris;Bois de Boulogne|Suresnes;Boulogne;S\u00e8vres", "hazmat:E": "no", "highway": "motorway", "int_ref": "E 05", "lanes": "3", "layer": "-1", "lit": "24/7", "maxheight": "default", "maxspeed": "70", "name": "Tunnel de Saint-Cloud", "oneway": "yes", "operator": "DIRIF", "ref": "A 13", "smoothness": "good", "surface": "asphalt", "toll": "no", "tunnel": "yes", "turn:lanes": "through|through|right", "length": 649.1007347552609}}, {"type": "Feature", "geometry": {"type": "LineString", "coordinates": [[2.2179933, 48.8393769], [2.2174684, 48.8393785], [2.2161601, 48.8393649], [2.2159863, 48.8393381]]}, "properties": {"hazmat:E": "no", "highway": "motorway_link", "lanes": "1", "layer": "-1", "lit": "24/7", "maxspeed": "70", "nat_ref": "92A901303_1D", "oneway": "yes", "operator": "DIRIF", "source": "survey", "tunnel": "yes", "length": 147.683257965247}}, {"type": "Feature", "geometry": {"type": "LineString", "coordinates": [[2.2179846, 48.8393122], [2.2159863, 48.8393381]]}, "properties": {"hazmat:E": "no", "highway": "motorway", "int_ref": "E 05", "lanes": "3", "layer": "-1", "lit": "24/7", "maxspeed": "70", "name": "Tunnel de Saint-Cloud", "oneway": "yes", "operator": "DIRIF", "ref": "A 13", "smoothness": "good", "source:maxspeed": "sign", "surface": "asphalt", "toll": "no", "tunnel": "yes", "length": 146.71722491605954}}, {"type": "Feature", "geometry": {"type": "LineString", "coordinates": [[2.2133968, 48.8593924], [2.2138753, 48.8595349]]}, "properties": {"bicycle": "no", "cycleway:both": "no", "foot": "no", "highway": "primary", "lanes": "1", "layer": "-1", "lit": "24/7", "maxheight": "2.6", "maxspeed": "50", "name": "Boulevard Henri Sellier", "oneway": "yes", "sidewalk": "no", "surface": "asphalt", "tunnel": "yes", "length": 38.52164405704082}}, {"type": "Feature", "geometry": {"type": "LineString", "coordinates": [[2.2138563, 48.8595612], [2.2133853, 48.8594167]]}, "properties": {"bicycle": "no", "cycleway:both": "no", "foot": "no", "highway": "primary", "lanes": "1", "layer": "-1", "lit": "24/7", "maxheight": "2.6", "maxspeed": "50", "name": "Boulevard Henri Sellier", "oneway": "yes", "shoulder": "no", "sidewalk": "no", "surface": "asphalt", "tunnel": "yes", "length": 38.11393363380001}}, {"type": "Feature", "geometry": {"type": "LineString", "coordinates": [[2.2288952, 48.8288429], [2.2285754, 48.8292239]]}, "properties": {"destination:lanes": "A 13|A 13|Bordeaux;Nantes|Bordeaux;Nantes", "foot": "no", "highway": "primary_link", "lanes": "4", "layer": "-1", "lit": "24/7", "maxheight": "4.73", "maxspeed": "50", "oneway": "yes", "parking:both:restriction": "no_parking", "sidewalk": "no", "source": "survey", "surface": "asphalt", "tunnel": "yes", "length": 48.44081721722575}}, {"type": "Feature", "geometry": {"type": "LineString", "coordinates": [[2.2283327, 48.8290896], [2.2285368, 48.8288091]]}, "properties": {"foot": "no", "highway": "primary", "lanes": "2", "layer": "-1", "lit": "yes", "maxheight": "5.88", "maxspeed": "50", "name": "Quai Alphonse Le Gallo", "oneway": "yes", "parking:both:restriction": "no_parking", "ref": "D 1", "sidewalk": "right", "source": "Bing", "surface": "asphalt", "tunnel": "yes", "length": 34.606236613656144}}, {"type": "Feature", "geometry": {"type": "LineString", "coordinates": [[2.2248875, 48.8413889], [2.2247347, 48.8410219]]}, "properties": {"foot": "no", "highway": "primary", "layer": "-1", "maxspeed": "50", "oneway": "yes", "parking:lane:both": "no_parking", "ref": "D 1", "sidewalk": "no", "source": "Bing", "source:maxspeed": "FR:urban", "surface": "asphalt", "tunnel": "yes", "length": 42.32600010607151}}, {"type": "Feature", "geometry": {"type": "LineString", "coordinates": [[2.2251017, 48.840917], [2.2253348, 48.8414037]]}, "properties": {"bicycle": "no", "cycleway:right": "no", "foot": "no", "highway": "primary", "lanes": "2", "layer": "-1", "lit": "yes", "maxheight": "3.8", "name": "Quai du Quatre Septembre", "oneway": "yes", "parking:lane:both": "no_parking", "ref": "D 1", "sidewalk": "no", "source": "opendata.hauts-de-seine.net 2012", "surface": "asphalt", "tunnel": "yes", "length": 56.76449229937366}}, {"type": "Feature", "geometry": {"type": "LineString", "coordinates": [[2.2262506, 48.8954643], [2.2266142, 48.8952473], [2.2268725, 48.8950167], [2.2268919, 48.8949863], [2.227055, 48.8947305], [2.227136, 48.8944913], [2.2271831, 48.8941807], [2.2271835, 48.8939443]]}, "properties": {"destination": "La D\u00e9fense centre", "highway": "motorway_link", "junction:ref": "4", "layer": "-4", "lit": "24/7", "maxspeed": "50", "nat_ref": "92A901401_2D", "oneway": "yes", "operator": "DIRIF", "source": "guesswork", "tunnel": "yes", "length": 190.62618093245874}}, {"type": "Feature", "geometry": {"type": "LineString", "coordinates": [[2.229974, 48.8911508], [2.2301891, 48.8911439], [2.230374, 48.891146], [2.2306101, 48.891161], [2.2312251, 48.8912042], [2.2326669, 48.8913247]]}, "properties": {"bicycle": "no", "cycleway:both": "no", "foot": "no", "highway": "primary", "lanes": "2", "layer": "-1", "maxspeed": "80", "name": "Boulevard Frank Kupka", "old_ref": "N 314", "oneway": "yes", "ref": "D 914", "surface": "asphalt", "tunnel": "yes", "length": 198.6749192048287}}, {"type": "Feature", "geometry": {"type": "LineString", "coordinates": [[2.3190226, 48.8651838], [2.3190211, 48.8651237], [2.3190257, 48.8650637], [2.3190429, 48.8649809], [2.3190849, 48.8649026], [2.3191487, 48.8648106], [2.3192179, 48.8647353], [2.3193301, 48.8646475], [2.3195435, 48.8645286], [2.3199746, 48.864315], [2.3202645, 48.8641512]]}, "properties": {"bicycle": "no", "foot": "no", "highway": "primary_link", "lanes": "1", "layer": "-1", "lit": "24/7", "maxheight": "2.7", "maxspeed": "30", "moped": "no", "oneway": "yes", "surface": "asphalt", "tunnel": "yes", "length": 153.76496978380825}}, {"type": "Feature", "geometry": {"type": "LineString", "coordinates": [[2.3895477, 48.8275861], [2.3903534, 48.8271234], [2.3910426, 48.826749], [2.3911964, 48.8266393], [2.3914895, 48.8263576]]}, "properties": {"highway": "motorway_link", "lanes": "2", "layer": "-2", "lit": "24/7", "maxheight": "default", "maxspeed": "50", "motorway": "no", "official_name": "Voie CU/12", "oneway": "yes", "tunnel": "yes", "length": 198.56675368630616}}, {"type": "Feature", "geometry": {"type": "LineString", "coordinates": [[2.3916193, 48.8263816], [2.3912809, 48.8266892], [2.3911248, 48.8268031], [2.3904067, 48.8271874], [2.3896196, 48.8276475]]}, "properties": {"alt_name": "Voie Georges Pompidou", "bicycle": "no", "foot": "no", "hazmat:E": "no", "highway": "motorway_link", "horse": "no", "lanes": "2", "layer": "-2", "lit": "24/7", "maxspeed": "50", "motorway": "no", "official_name": "Voie CT/12", "oneway": "yes", "surface": "asphalt", "tunnel": "yes", "zone:traffic": "FR:urban", "length": 204.4199623140472}}, {"type": "Feature", "geometry": {"type": "LineString", "coordinates": [[2.3906012, 48.8272744], [2.3905563, 48.8271233], [2.3905563, 48.8269798], [2.390605, 48.8268304], [2.3907133, 48.8266832], [2.3908623, 48.8265498], [2.3911651, 48.8263438]]}, "properties": {"bicycle": "no", "foot": "no", "hazmat:E": "no", "highway": "motorway_link", "horse": "no", "lanes": "2", "layer": "-1", "lit": "yes", "maxspeed": "50", "motorroad": "no", "nat_ref": "75Periph_Paris_05_1D", "official_name": "Voie CS/12", "oneway": "yes", "operator": "VILLE DE PARIS", "smoothness": "excellent", "start_date": "1970-03-05", "surface": "asphalt", "tunnel": "yes", "length": 118.63167443400198}}, {"type": "Feature", "geometry": {"type": "LineString", "coordinates": [[2.4393897, 48.7739163], [2.439335, 48.7741845]]}, "properties": {"bicycle": "no", "foot": "no", "highway": "primary", "horse": "no", "lanes": "4", "lanes:backward": "2", "lanes:forward": "2", "layer": "-1", "lit": "no", "maxheight": "3.9", "maxspeed": "50", "motorroad": "no", "name": "Avenue du Mar\u00e9chal Foch", "operator": "DIRIF", "ref": "N 6", "source:maxspeed": "FR:urban", "surface": "asphalt", "tunnel": "yes", "length": 30.095051731181957}}, {"type": "Feature", "geometry": {"type": "LineString", "coordinates": [[2.3959999, 48.772157], [2.3945143, 48.7718705], [2.3923111, 48.7715423], [2.3885284, 48.7710709]]}, "properties": {"access:explosives": "no", "hazmat:E": "no", "highway": "motorway", "lanes": "3", "layer": "-1", "lit": "24/7", "maxspeed": "90", "name": "Tunnel Guy M\u00f4quet", "oneway": "yes", "operator": "DIRIF", "ref": "A 86", "toll": "no", "tunnel": "yes", "length": 562.7120184338293}}, {"type": "Feature", "geometry": {"type": "LineString", "coordinates": [[2.3879508, 48.7708412], [2.3923301, 48.771371], [2.3945626, 48.7717191], [2.3960697, 48.7720135]]}, "properties": {"access:explosives": "no", "hazmat:E": "no", "highway": "motorway", "lanes": "3", "layer": "-1", "lit": "24/7", "maxspeed": "90", "name": "Tunnel Guy M\u00f4quet", "oneway": "yes", "operator": "DIRIF", "ref": "A 86", "toll": "no", "tunnel": "yes", "length": 611.3763894396379}}, {"type": "Feature", "geometry": {"type": "LineString", "coordinates": [[2.4649918, 48.8841879], [2.465052, 48.8839384]]}, "properties": {"cycleway:both": "no", "highway": "tertiary", "lanes": "2", "layer": "-1", "lit": "yes", "maxheight": "default", "maxspeed": "50", "name": "Rue de Neuilly", "sidewalk": "both", "source:maxspeed": "FR:urban", "surface": "asphalt", "tunnel": "yes", "length": 28.09535647579031}}, {"type": "Feature", "geometry": {"type": "LineString", "coordinates": [[2.3450942, 48.7718594], [2.3461773, 48.7716886]]}, "properties": {"highway": "secondary", "lanes": "1", "layer": "-1", "maxheight": "4.2", "name": "Avenue du G\u00e9n\u00e9ral de Gaulle", "old_ref": "D 60", "oneway": "yes", "ref": "D 160", "surface": "asphalt", "tunnel": "yes", "length": 81.84821508442774}}, {"type": "Feature", "geometry": {"type": "LineString", "coordinates": [[2.3326685, 48.818129], [2.3329323, 48.8186296]]}, "properties": {"cycleway:both": "lane", "cycleway:both:lane": "exclusive", "highway": "tertiary", "lanes": "2", "layer": "-1", "lit": "yes", "maxheight": "3.8", "maxspeed": "30", "name": "Avenue Andr\u00e9 Rivoire", "name:etymology:wikidata": "Q2848545", "sidewalk": "separate", "source:maxspeed": "sign", "surface": "sett", "tunnel": "yes", "length": 58.944345387749934}}, {"type": "Feature", "geometry": {"type": "LineString", "coordinates": [[2.4358701, 48.9130835], [2.434307, 48.9137323]]}, "properties": {"destination": "Paris - Pte de Pantin;H\u00f4pital Avicenne", "destination:ref": "N 186", "highway": "motorway_link", "junction:ref": "13", "layer": "-2", "lit": "24/7", "nat_ref": "93A908613_3D", "oneway": "yes", "operator": "DIRIF", "tunnel": "yes", "length": 135.39884278376474}}, {"type": "Feature", "geometry": {"type": "LineString", "coordinates": [[2.4330469, 48.913749], [2.4344062, 48.9133253], [2.4348647, 48.9132096]]}, "properties": {"highway": "motorway_link", "layer": "-2", "lit": "24/7", "nat_ref": "93A908613_2D", "oneway": "yes", "operator": "DIRIF", "tunnel": "yes", "length": 146.2007405881935}}, {"type": "Feature", "geometry": {"type": "LineString", "coordinates": [[2.2653548, 48.8406867], [2.2636585, 48.8414625]]}, "properties": {"bicycle": "no", "cycleway:both": "no", "foot": "no", "hazmat:E": "no", "highway": "primary", "lanes": "4", "layer": "-1", "lit": "24/7", "maxheight": "4", "maxspeed": "50", "mofa": "no", "moped": "no", "name": "Boulevard Exelmans", "name:etymology:wikidata": "Q116260", "source:maxspeed": "FR:urban", "surface": "asphalt", "tunnel": "yes", "length": 151.48397254360205}}, {"type": "Feature", "geometry": {"type": "LineString", "coordinates": [[2.2679065, 48.8938261], [2.2671178, 48.8934232]]}, "properties": {"bicycle": "no", "foot": "no", "highway": "primary", "layer": "-1", "oneway": "yes", "ref": "D 1", "tunnel": "yes", "length": 73.15900998852257}}, {"type": "Feature", "geometry": {"type": "LineString", "coordinates": [[2.287942, 48.9052231], [2.2873674, 48.9049457]]}, "properties": {"access:explosives": "no", "bicycle": "no", "foot": "no", "highway": "primary", "lanes": "2", "layer": "-1", "maxspeed": "50", "oneway": "yes", "ref": "D 7", "sidewalk": "no", "tunnel": "yes", "length": 52.21231399269411}}, {"type": "Feature", "geometry": {"type": "LineString", "coordinates": [[2.3860066, 48.8306093], [2.3864111, 48.8302862]]}, "properties": {"alt_name": "Voie Georges Pompidou", "bicycle": "no", "cycleway:right": "no", "dual_carriageway": "yes", "foot": "no", "hazmat:E": "no", "highway": "primary", "lanes": "3", "layer": "-1", "lit": "yes", "maxspeed": "50", "name": "Quai de Bercy", "name:etymology:wikidata": "Q773318", "oneway": "yes", "surface": "asphalt", "tunnel": "yes", "turn:lanes": "through|through|slight_right", "length": 46.615590719808054}}, {"type": "Feature", "geometry": {"type": "LineString", "coordinates": [[2.3865158, 48.830346], [2.38612, 48.8306746]]}, "properties": {"alt_name": "Voie Georges Pompidou", "bicycle": "no", "cycleway:right": "no", "dual_carriageway": "yes", "foot": "no", "highway": "primary", "lanes": "3", "layer": "-1", "lit": "yes", "maxspeed": "50", "name": "Quai de Bercy", "name:etymology:wikidata": "Q773318", "oneway": "yes", "surface": "asphalt", "tunnel": "yes", "length": 46.688399738967284}}, {"type": "Feature", "geometry": {"type": "LineString", "coordinates": [[2.3763872, 48.8384648], [2.3758032, 48.8389241]]}, "properties": {"alt_name": "Voie Georges Pompidou", "bicycle": "no", "dual_carriageway": "yes", "highway": "primary", "lanes": "3", "layer": "-1", "lit": "yes", "maxspeed": "50", "name": "Quai de Bercy", "name:etymology:wikidata": "Q16532200", "oneway": "yes", "smoothness": "good", "surface": "asphalt", "tunnel": "yes", "length": 66.68380514860256}}, {"type": "Feature", "geometry": {"type": "LineString", "coordinates": [[2.3756757, 48.8388558], [2.3762448, 48.8383904]]}, "properties": {"alt_name": "Voie Georges Pompidou", "bicycle": "no", "dual_carriageway": "yes", "highway": "primary", "lanes": "3", "layer": "-1", "lit": "yes", "maxspeed": "50", "name": "Quai de Bercy", "name:etymology:wikidata": "Q16532200", "oneway": "yes", "smoothness": "good", "surface": "asphalt", "tunnel": "yes", "length": 66.51246554417295}}, {"type": "Feature", "geometry": {"type": "LineString", "coordinates": [[2.3709711, 48.8430172], [2.3703277, 48.8434882]]}, "properties": {"alt_name": "Voie Georges Pompidou", "dual_carriageway": "yes", "highway": "primary", "lanes": "3", "layer": "-1", "lit": "yes", "maxspeed": "50", "name": "Quai de la Rap\u00e9e", "name:etymology:wikidata": "Q19060423", "oneway": "yes", "smoothness": "good", "surface": "asphalt", "tunnel": "yes", "length": 70.52527521777034}}, {"type": "Feature", "geometry": {"type": "LineString", "coordinates": [[2.2976475, 48.8897763], [2.2987071, 48.8901626], [2.2995915, 48.8906717]]}, "properties": {"bicycle": "no", "destination": "Porte d'Asni\u00e8res", "foot": "no", "hazmat:E": "no", "highway": "trunk_link", "horse": "no", "layer": "-1", "lit": "yes", "motorroad": "no", "official_name": "Voie AY/17", "oneway": "yes", "smoothness": "excellent", "start_date": "1973-04-25", "surface": "asphalt", "tunnel": "yes", "length": 174.87839195718362}}, {"type": "Feature", "geometry": {"type": "LineString", "coordinates": [[2.2991775, 48.8909588], [2.2983374, 48.8904131], [2.2975301, 48.8899324]]}, "properties": {"bicycle": "no", "foot": "no", "hazmat:E": "no", "highway": "trunk_link", "horse": "no", "layer": "-1", "lit": "yes", "motorroad": "no", "official_name": "Voie AX/17", "oneway": "yes", "smoothness": "excellent", "start_date": "1973-04-25", "surface": "asphalt", "tunnel": "yes", "length": 166.24128710729408}}, {"type": "Feature", "geometry": {"type": "LineString", "coordinates": [[2.2860081, 48.8846043], [2.2854009, 48.8842459], [2.284976, 48.8839897], [2.2844696, 48.8836949]]}, "properties": {"bicycle": "no", "foot": "no", "hazmat:E": "no", "highway": "trunk", "horse": "no", "lanes": "4", "layer": "-1", "lit": "yes", "maxspeed": "70", "motorroad": "no", "name": "Boulevard P\u00e9riph\u00e9rique Ext\u00e9rieur", "official_ref": "75000C02", "oneway": "yes", "operator": "VILLE DE PARIS", "smoothness": "excellent", "start_date": "1973-04-25", "surface": "asphalt", "toll": "no", "tunnel": "yes", "zone:traffic": "FR:urban", "length": 151.52771949620157}}, {"type": "Feature", "geometry": {"type": "LineString", "coordinates": [[2.2840989, 48.8831878], [2.2846187, 48.8835879], [2.2851544, 48.8839005], [2.2855554, 48.8841515]]}, "properties": {"bicycle": "no", "foot": "no", "hazmat:E": "no", "highway": "trunk", "horse": "no", "lanes": "4", "layer": "-1", "lit": "yes", "maxheight": "default", "maxspeed": "70", "motorroad": "no", "name": "Boulevard P\u00e9riph\u00e9rique Int\u00e9rieur", "official_ref": "75000C01", "oneway": "yes", "operator": "VILLE DE PARIS", "smoothness": "excellent", "start_date": "1973-04-25", "surface": "asphalt", "toll": "no", "tunnel": "yes", "zone:traffic": "FR:urban", "length": 151.60105475835408}}, {"type": "Feature", "geometry": {"type": "LineString", "coordinates": [[2.2855554, 48.8841515], [2.2861502, 48.884503]]}, "properties": {"bicycle": "no", "foot": "no", "hazmat:E": "no", "highway": "trunk", "horse": "no", "lanes": "4", "layer": "-1", "lit": "yes", "maxspeed": "70", "motorroad": "no", "name": "Boulevard P\u00e9riph\u00e9rique Int\u00e9rieur", "official_ref": "75000C01", "oneway": "yes", "operator": "VILLE DE PARIS", "smoothness": "excellent", "start_date": "1973-04-25", "surface": "asphalt", "toll": "no", "tunnel": "yes", "zone:traffic": "FR:urban", "length": 58.57452045843195}}, {"type": "Feature", "geometry": {"type": "LineString", "coordinates": [[2.2844696, 48.8836949], [2.2837535, 48.8833824]]}, "properties": {"bicycle": "no", "destination": "Porte des Ternes", "foot": "no", "hazmat:E": "no", "highway": "trunk_link", "horse": "no", "layer": "-1", "lit": "yes", "motorroad": "no", "official_name": "Voie BO/17", "oneway": "yes", "smoothness": "excellent", "start_date": "1973-04-25", "surface": "asphalt", "tunnel": "yes", "zone:traffic": "FR:urban", "length": 62.97710090591298}}, {"type": "Feature", "geometry": {"type": "LineString", "coordinates": [[2.2576145, 48.8307165], [2.2583295, 48.8311793]]}, "properties": {"access:explosives": "no", "bicycle": "no", "foot": "no", "highway": "primary", "layer": "-1", "maxheight": "3.8", "maxspeed": "50", "name": "Quai du Point du Jour", "parking:lane:both": "no_stopping", "ref": "D 1", "sidewalk": "no", "source": "Bing", "source:maxspeed": "FR:urban", "surface": "asphalt", "tunnel": "yes", "length": 73.51513486886367}}, {"type": "Feature", "geometry": {"type": "LineString", "coordinates": [[2.2422994, 48.8482671], [2.2434062, 48.8482366]]}, "properties": {"destination": "Paris Porte d'Auteuil", "hazmat:E": "no", "highway": "motorway_link", "junction:ref": "1", "layer": "-1", "lit": "24/7", "maxspeed": "70", "nat_ref": "75A901301_1D", "official_name": "Voie CM/16", "oneway": "yes", "operator": "DIRIF", "source:maxspeed": "sign", "tunnel": "yes", "length": 81.30306733705594}}, {"type": "Feature", "geometry": {"type": "LineString", "coordinates": [[2.243705, 48.8484901], [2.2433262, 48.8484798], [2.2416322, 48.8484435], [2.2333529, 48.8483729]]}, "properties": {"hazmat:E": "no", "highway": "motorway", "int_ref": "E 05", "lanes": "3", "layer": "-1", "lit": "24/7", "maxheight": "default", "maxspeed": "70", "name": "Tunnel Ambroise Par\u00e9", "oneway": "yes", "operator": "DIRIF", "ref": "A 13", "smoothness": "good", "source:maxspeed": "sign", "surface": "asphalt", "toll": "no", "tunnel": "yes", "length": 759.9175095104005}}, {"type": "Feature", "geometry": {"type": "LineString", "coordinates": [[2.3198477, 48.8642773], [2.3202645, 48.8641512], [2.3204757, 48.8640862]]}, "properties": {"bicycle": "no", "foot": "no", "hazmat": "no", "highway": "primary", "lanes": "2", "layer": "-1", "lit": "yes", "maxheight": "2.7", "maxspeed": "50", "maxweight": "3.5", "moped": "no", "name": "Voie Georges Pompidou", "name:ru": "\u0434\u043e\u0440\u043e\u0433\u0430 \u0416\u043e\u0440\u0436 \u041f\u043e\u043c\u043f\u0438\u0434\u0443", "oneway": "yes", "surface": "asphalt", "tunnel": "yes", "length": 50.741704446187626}}, {"type": "Feature", "geometry": {"type": "LineString", "coordinates": [[2.3008265, 48.8641432], [2.3027272, 48.8644158]]}, "properties": {"alt_name": "Tunnel du pont de l'Alma", "bicycle": "no", "foot": "no", "hazmat:E": "no", "highway": "primary", "lanes": "2", "layer": "-1", "lit": "24/7", "maxheight": "3.9", "maxspeed": "50", "moped": "no", "name": "Voie Georges Pompidou", "oneway": "yes", "source": "Bing", "surface": "asphalt", "tunnel": "yes", "length": 142.71206227164814}}, {"type": "Feature", "geometry": {"type": "LineString", "coordinates": [[2.2650056, 48.8970228], [2.2638778, 48.8965411]]}, "properties": {"access:explosives": "no", "foot": "no", "highway": "primary", "layer": "-1", "maxheight": "4.60", "maxspeed": "50", "oneway": "yes", "ref": "D 7", "sidewalk": "no", "source": "opendata.hauts-de-seine.net 2012", "surface": "asphalt", "tunnel": "yes", "length": 98.52834160847551}}, {"type": "Feature", "geometry": {"type": "LineString", "coordinates": [[2.3856155, 48.8983885], [2.3861226, 48.8982742], [2.3867047, 48.8982424], [2.3871151, 48.8981895], [2.3875013, 48.8980555], [2.3879573, 48.8979039], [2.388593, 48.8976923], [2.3890811, 48.8975283], [2.3894048, 48.8975066]]}, "properties": {"bicycle": "no", "foot": "no", "highway": "primary", "lanes": "4", "layer": "-1", "lit": "24/7", "maxheight": "3.8", "maxspeed": "50", "name": "Boulevard Macdonald", "name:etymology:wikidata": "Q298784", "surface": "asphalt", "tunnel": "yes", "length": 298.4609850304779}}, {"type": "Feature", "geometry": {"type": "LineString", "coordinates": [[2.2417432, 48.8904003], [2.2415182, 48.8900998], [2.2414993, 48.8900795], [2.2414785, 48.8900623], [2.24145, 48.8900482], [2.2414227, 48.890036], [2.2413187, 48.8899999], [2.2412989, 48.8899934]]}, "properties": {"covered": "yes", "cycleway:right": "lane", "cycleway:temporary": "yes", "description:covid19": "piste cyclable temporaire", "highway": "secondary", "lanes": "3", "layer": "-1", "maxheight": "4.10", "oneway": "yes", "ref": "D 9", "surface": "asphalt", "tunnel": "yes", "length": 57.636659920249464}}, {"type": "Feature", "geometry": {"type": "LineString", "coordinates": [[2.2905485, 48.8599161], [2.2916646, 48.8608203], [2.2917572, 48.8608953]]}, "properties": {"alt_name": "Voie Georges Pompidou", "bicycle": "no", "dual_carriageway": "yes", "foot": "no", "hazmat": "no", "highway": "primary", "lanes": "1", "layer": "-1", "lit": "yes", "maxheight": "3.9", "maxspeed": "50", "moped": "no", "name": "Avenue de New York", "oneway": "yes", "surface": "asphalt", "tunnel": "yes", "length": 140.441235200262}}, {"type": "Feature", "geometry": {"type": "LineString", "coordinates": [[2.2436075, 48.8901501], [2.2427908, 48.8903705], [2.2419472, 48.8905513], [2.2411787, 48.8905866], [2.2408086, 48.8905601], [2.2402024, 48.8904693], [2.2394855, 48.8902501], [2.2387929, 48.8899684]]}, "properties": {"cycleway:right": "no", "destination": "Rueil-Malmaison", "destination:ref": "D 913", "highway": "primary", "junction:ref": "3", "layer": "-4", "lit": "24/7", "maxspeed": "70", "oneway": "yes", "operator": "DIRIF", "ref": "N 1013", "source": "DIRIF", "surface": "asphalt", "tunnel": "yes", "length": 376.76134771173383}}, {"type": "Feature", "geometry": {"type": "LineString", "coordinates": [[2.2547731, 48.8437114], [2.2549729, 48.8439939]]}, "properties": {"bicycle": "no", "destination": "Porte Molitor", "hazmat:E": "no", "highway": "trunk_link", "lanes": "2", "layer": "-1", "lit": "24/7", "maxheight": "4.75", "maxspeed": "70", "motorroad": "no", "official_name": "Voie CJ/16", "oneway": "yes", "smoothness": "excellent", "source:maxspeed": "sign", "start_date": "1971-01", "surface": "asphalt", "tunnel": "yes", "length": 34.67032779348984}}, {"type": "Feature", "geometry": {"type": "LineString", "coordinates": [[2.2874461, 48.9048632], [2.2880384, 48.9051445]]}, "properties": {"access:explosives": "no", "bicycle": "no", "foot": "no", "highway": "primary", "lanes": "2", "layer": "-1", "maxspeed": "70", "oneway": "yes", "ref": "D 7", "sidewalk": "no", "surface": "asphalt", "tunnel": "yes", "length": 53.517136374704585}}, {"type": "Feature", "geometry": {"type": "LineString", "coordinates": [[2.2560929, 48.8864015], [2.2558109, 48.8859968]]}, "properties": {"highway": "primary", "layer": "-1", "maxheight": "4.00", "oneway": "yes", "ref": "D 1", "source": "opendata.hauts-de-seine.net 2012", "surface": "asphalt", "tunnel": "yes", "length": 49.53012136812031}}, {"type": "Feature", "geometry": {"type": "LineString", "coordinates": [[2.2558886, 48.8859747], [2.25618, 48.8863746]]}, "properties": {"highway": "primary", "layer": "-1", "maxheight": "4.00", "oneway": "yes", "ref": "D 1", "source": "opendata.hauts-de-seine.net 2012", "surface": "asphalt", "tunnel": "yes", "length": 49.34025271323763}}, {"type": "Feature", "geometry": {"type": "LineString", "coordinates": [[2.2522155, 48.8512019], [2.2524802, 48.8520772], [2.2528274, 48.8527976], [2.2535236, 48.8535024], [2.2542261, 48.8540865]]}, "properties": {"bicycle": "no", "foot": "no", "hazmat:E": "no", "highway": "trunk", "horse": "no", "lanes": "4", "layer": "-1", "lit": "24/7", "maxspeed": "70", "motorroad": "no", "name": "Boulevard P\u00e9riph\u00e9rique Int\u00e9rieur", "official_ref": "75000C01", "oneway": "yes", "operator": "VILLE DE PARIS", "smoothness": "excellent", "start_date": "1972-01-20", "surface": "asphalt", "toll": "no", "tunnel": "yes", "zone:traffic": "FR:urban", "length": 359.81518520812}}, {"type": "Feature", "geometry": {"type": "LineString", "coordinates": [[2.2531771, 48.849004], [2.2528808, 48.8492604], [2.2527326, 48.8493573], [2.2525367, 48.8493859], [2.2521716, 48.8493338], [2.251832, 48.8492604], [2.2512736, 48.8490668]]}, "properties": {"hazmat:E": "no", "highway": "motorway", "int_ref": "E 05", "lanes": "2", "layer": "-1", "lit": "24/7", "maxspeed": "50", "motorway": "yes", "official_name": "Voie BS/16", "oneway": "yes", "operator": "DIRIF", "ref": "A 13", "source:maxspeed": "sign", "tunnel": "yes", "length": 165.8304137243502}}, {"type": "Feature", "geometry": {"type": "LineString", "coordinates": [[2.2515029, 48.8483359], [2.2518828, 48.8483317], [2.2522258, 48.8482865], [2.2524955, 48.8482348], [2.2527287, 48.8481635], [2.2528618, 48.8481079], [2.2530341, 48.8480296], [2.2533012, 48.8478669], [2.2536062, 48.8475892], [2.2544301, 48.8469384]]}, "properties": {"hazmat:E": "no", "highway": "motorway_link", "horse": "no", "int_ref": "E 05", "layer": "-1", "lit": "24/7", "maxspeed": "30", "motorway": "no", "nat_ref": "75A9013B1_3D", "official_name": "Voie BW/16", "oneway": "yes", "operator": "DIRIF", "tunnel": "yes", "zone:traffic": "FR:urban", "length": 279.0773981046559}}, {"type": "Feature", "geometry": {"type": "LineString", "coordinates": [[2.2515699, 48.8497157], [2.2513818, 48.8494599], [2.2511606, 48.8492418]]}, "properties": {"hazmat:E": "no", "highway": "motorway_link", "lanes": "2", "layer": "-1", "lit": "24/7", "maxspeed": "50", "motorway": "yes", "nat_ref": "75A9013B1_2D", "official_name": "Voie BQ/16", "oneway": "yes", "operator": "DIRIF", "tunnel": "yes", "length": 60.80548171304453}}, {"type": "Feature", "geometry": {"type": "LineString", "coordinates": [[2.2548548, 48.847048], [2.2546963, 48.8472754], [2.2545167, 48.8474982], [2.2541847, 48.8478383], [2.2538633, 48.8481834]]}, "properties": {"hazmat:E": "no", "highway": "trunk", "int_ref": "E 05", "lanes": "2", "layer": "-1", "lit": "24/7", "maxspeed": "50", "motorway": "no", "official_name": "Voie BT/16", "oneway": "yes", "operator": "DIRIF", "ref": "A 13", "source:maxspeed": "sign", "tunnel": "yes", "length": 145.93961744868432}}, {"type": "Feature", "geometry": {"type": "LineString", "coordinates": [[2.2024486, 48.9013821], [2.2025129, 48.901424], [2.203172, 48.9018532]]}, "properties": {"hazmat:E": "no", "highway": "motorway", "lanes": "2", "layer": "-1", "lit": "yes", "maxspeed": "70", "oneway": "yes", "operator": "DIRIF", "ref": "A 86", "surface": "asphalt", "toll": "no", "tunnel": "yes", "length": 74.5493092749777}}, {"type": "Feature", "geometry": {"type": "LineString", "coordinates": [[2.2025976, 48.9017396], [2.2023179, 48.9015517], [2.2021576, 48.901444]]}, "properties": {"hazmat:E": "no", "highway": "motorway", "lanes": "2", "layer": "-1", "lit": "yes", "maxspeed": "70", "oneway": "yes", "operator": "DIRIF", "ref": "A 86", "surface": "asphalt", "toll": "no", "tunnel": "yes", "length": 46.05732882955985}}, {"type": "Feature", "geometry": {"type": "LineString", "coordinates": [[2.3080388, 48.917032], [2.3076616, 48.9176457]]}, "properties": {"hazmat:E": "no", "highway": "trunk", "lanes": "1", "layer": "-1", "maxspeed": "70", "motorroad": "yes", "oneway": "yes", "operator": "DIRIF", "ref": "N 315", "smoothness": "excellent", "surface": "asphalt", "tunnel": "yes", "wikidata": "Q2169701", "length": 73.63526657454548}}, {"type": "Feature", "geometry": {"type": "LineString", "coordinates": [[2.3075977, 48.9176265], [2.3077652, 48.9173184]]}, "properties": {"hazmat:E": "no", "highway": "trunk", "lanes": "1", "layer": "-1", "maxspeed": "70", "motorroad": "yes", "oneway": "yes", "operator": "DIRIF", "ref": "N 315", "smoothness": "excellent", "surface": "asphalt", "tunnel": "yes", "wikidata": "Q2169701", "length": 36.396174384838034}}, {"type": "Feature", "geometry": {"type": "LineString", "coordinates": [[2.2496756, 48.8874293], [2.2497645, 48.8874611], [2.2498409, 48.8874923], [2.2499187, 48.8875293], [2.2499906, 48.8875706], [2.250118, 48.8876551], [2.250254, 48.8877962], [2.2503657, 48.8879847], [2.2504285, 48.8881644], [2.2504636, 48.8882798], [2.2504914, 48.8884323], [2.2505053, 48.888561], [2.2505105, 48.8887018], [2.2505047, 48.8888268], [2.2504964, 48.8888847], [2.250486, 48.8889456], [2.2504703, 48.8890048], [2.2504528, 48.8890483]]}, "properties": {"bicycle": "no", "highway": "primary", "lanes": "1", "layer": "-1", "loc_name": "Liaison Basse", "maxheight": "4", "maxweight": "19", "name": "Boulevard Patrick Devedjian", "old_name": "Boulevard Circulaire", "oneway": "yes", "ref": "D 993", "source": "Yahoo", "surface": "asphalt", "tunnel": "yes", "length": 201.95295602184748}}, {"type": "Feature", "geometry": {"type": "LineString", "coordinates": [[2.277498, 48.8755096], [2.2779752, 48.8758365]]}, "properties": {"bicycle": "no", "destination": "A14 Rouen;A15 Cergy-Pontoise;La D\u00e9fense", "foot": "no", "hazmat:E": "no", "highway": "trunk_link", "horse": "no", "layer": "-1", "lit": "yes", "maxspeed": "50", "nat_ref": "75Periph_Paris_03_1D", "official_name": "Voie AY/16", "oneway": "yes", "operator": "VILLE DE PARIS", "tunnel": "yes", "zone:traffic": "FR:urban", "length": 50.46680272132902}}, {"type": "Feature", "geometry": {"type": "LineString", "coordinates": [[2.2794985, 48.8775503], [2.278621, 48.8770055]]}, "properties": {"destination": "vers A13 - p\u00e9riph\u00e9rique ext\u00e9rieur;Pte Dauphine;Pte d'Auteuil", "highway": "trunk_link", "layer": "-1", "lit": "yes", "maxspeed": "30", "nat_ref": "75Periph_Paris_03_2D", "official_name": "Voie AU/16", "oneway": "yes", "operator": "VILLE DE PARIS", "start_date": "1973-04-25", "tunnel": "yes", "zone:traffic": "FR:urban", "length": 88.39455946478348}}, {"type": "Feature", "geometry": {"type": "LineString", "coordinates": [[2.2010679, 48.8871529], [2.2006401, 48.8871554], [2.2001538, 48.8871926], [2.1996236, 48.8872704]]}, "properties": {"bicycle": "no", "cycleway:both": "no", "foot": "no", "highway": "primary_link", "lanes": "1", "layer": "-1", "maxheight": "2.6", "name": "Tunnel Place la Boule", "oneway": "yes", "source": "knowledge", "start_date": "08/2000", "surface": "asphalt", "tunnel": "yes", "length": 107.11180652280265}}, {"type": "Feature", "geometry": {"type": "LineString", "coordinates": [[2.1997697, 48.8867248], [2.200281, 48.8869416], [2.2004616, 48.8869917], [2.200693, 48.8870206], [2.2010557, 48.8870314]]}, "properties": {"bicycle": "no", "cycleway:both": "no", "foot": "no", "highway": "primary_link", "layer": "-1", "maxheight": "2.6", "oneway": "yes", "ref": "D 913", "source": "knowledge;opendata.hauts-de-seine.net 2012", "start_date": "2001", "surface": "asphalt", "tunnel": "yes", "length": 102.84678396680856}}, {"type": "Feature", "geometry": {"type": "LineString", "coordinates": [[2.2010217, 48.8870829], [2.2006584, 48.8870716], [2.2004266, 48.887049], [2.2002124, 48.8869868], [2.1997381, 48.8867641]]}, "properties": {"bicycle": "no", "cycleway:both": "no", "foot": "no", "highway": "primary_link", "layer": "-1", "maxheight": "2.6", "oneway": "yes", "ref": "D 913", "source": "knowledge;opendata.hauts-de-seine.net 2012", "start_date": "2001", "surface": "asphalt", "tunnel": "yes", "length": 103.72138344435345}}, {"type": "Feature", "geometry": {"type": "LineString", "coordinates": [[2.3046756, 48.8943237], [2.3037021, 48.8936999]]}, "properties": {"highway": "secondary", "layer": "-1", "maxheight": "default", "maxspeed": "30", "name": "Boulevard du Fort-de-Vaux", "name:etymology:wikidata": "Q1438801", "oneway": "yes", "source:maxspeed": "sign", "surface": "asphalt", "tunnel": "yes", "wikidata": "Q2922061", "wikipedia": "fr:Boulevard du Fort-de-Vaux", "length": 99.5390689067319}}, {"type": "Feature", "geometry": {"type": "LineString", "coordinates": [[2.2608853, 48.8294646], [2.261065, 48.8299739]]}, "properties": {"bicycle": "no", "foot": "no", "highway": "primary", "lanes": "2", "layer": "-1", "maxheight": "3.5", "maxspeed": "50", "name": "Quai de la Bataille de Stalingrad", "ref": "D 7", "sidewalk": "no", "surface": "asphalt", "tunnel": "yes", "length": 58.15388339070053}}, {"type": "Feature", "geometry": {"type": "LineString", "coordinates": [[2.3968828, 48.8863824], [2.3969722, 48.886577], [2.39705, 48.8867939], [2.3970902, 48.887002], [2.3971028, 48.8872219], [2.3966951, 48.8888409]]}, "properties": {"bicycle": "no", "highway": "primary", "lanes": "2", "layer": "-1", "lit": "24/7", "maxspeed": "30", "motorcycle": "no", "name": "Voie CX/19", "oneway": "yes", "surface": "asphalt", "tunnel": "yes", "length": 277.71096319885834}}, {"type": "Feature", "geometry": {"type": "LineString", "coordinates": [[2.3968502, 48.8865921], [2.3969346, 48.8868062], [2.3969668, 48.8870179], [2.3969687, 48.8872325], [2.3956786, 48.8918125], [2.3956094, 48.8919951], [2.3955295, 48.8921001], [2.3951713, 48.8923965]]}, "properties": {"bicycle": "no", "highway": "primary", "lanes": "2", "layer": "-1", "lit": "24/7", "maxheight": "default", "maxspeed": "50", "motorcycle": "no", "official_name": "Voie CY/19", "oneway": "yes", "surface": "asphalt", "tunnel": "yes", "length": 666.3130828281821}}, {"type": "Feature", "geometry": {"type": "LineString", "coordinates": [[2.3952365, 48.8921859], [2.3954344, 48.8920083], [2.3959231, 48.8902626], [2.3962981, 48.8888744], [2.396042, 48.888045]]}, "properties": {"bicycle": "no", "highway": "primary", "lanes": "2", "layer": "-1", "lit": "24/7", "maxheight": "default", "maxspeed": "50", "official_name": "Voie CZ/19", "oneway": "yes", "surface": "asphalt", "tunnel": "yes", "length": 472.8607567498547}}, {"type": "Feature", "geometry": {"type": "LineString", "coordinates": [[2.3754589, 48.8449683], [2.3758877, 48.8449044], [2.3770733, 48.8442398], [2.3787912, 48.8432289]]}, "properties": {"highway": "tertiary", "layer": "-2", "level": "-1", "maxspeed": "30", "name": "Rue de Chalon", "oneway": "yes", "surface": "asphalt", "tunnel": "yes", "length": 315.36904083964976}}, {"type": "Feature", "geometry": {"type": "LineString", "coordinates": [[2.238948, 48.8899193], [2.239607, 48.890158], [2.2403513, 48.8902594], [2.2408609, 48.8902823], [2.2411841, 48.8902744], [2.2415838, 48.890233], [2.2418641, 48.8901968], [2.2445896, 48.8894465]]}, "properties": {"bicycle": "no", "foot": "no", "highway": "primary", "layer": "-2", "lit": "24/7", "maxspeed": "70", "mofa": "no", "moped": "no", "oneway": "yes", "operator": "DIRIF", "ref": "N 1013", "source": "DIRIF", "surface": "asphalt", "tunnel": "yes", "length": 439.2477648959597}}, {"type": "Feature", "geometry": {"type": "LineString", "coordinates": [[2.2188182, 48.8210299], [2.2189943, 48.820854]]}, "properties": {"cycleway:both": "shared_lane", "cycleway:both:lane": "pictogram", "highway": "tertiary", "lanes": "2", "layer": "-1", "lit": "yes", "maxheight": "4", "maxspeed": "30", "name": "Rue des Bruy\u00e8res", "sidewalk": "both", "surface": "asphalt", "tunnel": "yes", "zone:maxspeed": "FR:30", "length": 23.449268680349945}}, {"type": "Feature", "geometry": {"type": "LineString", "coordinates": [[2.4423677, 48.8985709], [2.4415313, 48.898409]]}, "properties": {"bicycle": "no", "foot": "no", "highway": "primary", "lane_markings": "no", "layer": "-1", "maxheight": "2.5", "old_ref": "N 3", "oneway": "yes", "ref": "D 933", "surface": "asphalt", "tunnel": "yes", "length": 63.91352774817488}}, {"type": "Feature", "geometry": {"type": "LineString", "coordinates": [[2.4415428, 48.8983825], [2.4423817, 48.8985414]]}, "properties": {"bicycle": "no", "foot": "no", "highway": "primary", "lane_markings": "no", "layer": "-1", "maxheight": "2.5", "old_ref": "N 3", "oneway": "yes", "ref": "D 933", "surface": "asphalt", "tunnel": "yes", "length": 63.996535916012704}}, {"type": "Feature", "geometry": {"type": "LineString", "coordinates": [[2.463474, 48.9053937], [2.4643403, 48.9055101]]}, "properties": {"cycleway:right": "lane", "description:covid19": "coronapistes", "highway": "primary", "lanes": "3", "layer": "-1", "maxspeed": "50", "name": "Avenue Paul Vaillant-Couturier", "oneway": "yes", "operator": "DIRIF", "ref": "N 186", "tunnel": "yes", "length": 64.81440890411606}}, {"type": "Feature", "geometry": {"type": "LineString", "coordinates": [[2.4439922, 48.9104539], [2.4431289, 48.910645]]}, "properties": {"hazmat:E": "no", "highway": "motorway_link", "layer": "-2", "lit": "24/7", "nat_ref": "93A908614_2D", "oneway": "yes", "operator": "DIRIF", "tunnel": "yes", "length": 66.75540914002934}}, {"type": "Feature", "geometry": {"type": "LineString", "coordinates": [[2.4430345, 48.910425], [2.4437719, 48.9101173]]}, "properties": {"destination": "Bobigny Centre", "highway": "motorway_link", "junction:ref": "14", "layer": "-2", "lit": "24/7", "nat_ref": "93A908614_1D", "oneway": "yes", "operator": "DIRIF", "tunnel": "yes", "length": 63.97441809573341}}, {"type": "Feature", "geometry": {"type": "LineString", "coordinates": [[2.3858094, 48.8976948], [2.3860915, 48.8980019], [2.3861034, 48.898015]]}, "properties": {"cycleway:right": "track", "dual_carriageway": "yes", "highway": "primary", "lanes": "3", "layer": "-1", "lit": "yes", "maxspeed": "30", "name": "Avenue Corentin Cariou", "oneway": "yes", "surface": "asphalt", "tunnel": "yes", "length": 41.62528114856686}}, {"type": "Feature", "geometry": {"type": "LineString", "coordinates": [[2.3819647, 48.8337902], [2.3824963, 48.8333716]]}, "properties": {"alt_name": "Voie Georges Pompidou", "cycleway:right": "no", "dual_carriageway": "yes", "hazmat:E": "no", "highway": "primary", "lanes": "3", "layer": "-1", "lit": "yes", "maxspeed": "50", "name": "Quai de Bercy", "name:etymology:wikidata": "Q16532200", "oneway": "yes", "sidewalk": "no", "surface": "asphalt", "tunnel": "yes", "length": 60.74660416787961}}, {"type": "Feature", "geometry": {"type": "LineString", "coordinates": [[2.3826292, 48.8334452], [2.3820973, 48.8338651]]}, "properties": {"alt_name": "Voie Georges Pompidou", "cycleway:right": "no", "dual_carriageway": "yes", "highway": "primary", "lanes": "3", "layer": "-1", "lit": "yes", "maxspeed": "50", "name": "Quai de Bercy", "name:etymology:wikidata": "Q16532200", "oneway": "yes", "sidewalk": "no", "surface": "asphalt", "tunnel": "yes", "length": 60.87155008989491}}, {"type": "Feature", "geometry": {"type": "LineString", "coordinates": [[2.2254011, 48.8271841], [2.2254557, 48.8270481], [2.2255751, 48.8268847], [2.2258021, 48.826709], [2.2261235, 48.8265606], [2.2263068, 48.8264657]]}, "properties": {"foot": "no", "highway": "primary", "layer": "-1", "maxheight": "5.20", "maxspeed": "50", "oneway": "yes", "ref": "D 7", "sidewalk": "no", "source": "opendata.hauts-de-seine.net 2012", "surface": "asphalt", "tunnel": "yes", "length": 107.40410217458604}}, {"type": "Feature", "geometry": {"type": "LineString", "coordinates": [[2.4015701, 48.8299737], [2.4008973, 48.8295384]]}, "properties": {"bicycle": "no", "foot": "no", "hazmat:E": "no", "highway": "trunk", "horse": "no", "int_ref": "E 15", "lanes": "4", "layer": "-1", "lit": "yes", "maxheight": "default", "maxspeed": "70", "motorroad": "no", "name": "Boulevard P\u00e9riph\u00e9rique Int\u00e9rieur", "official_ref": "75000C01", "oneway": "yes", "operator": "VILLE DE PARIS", "smoothness": "excellent", "start_date": "1970-03-05", "surface": "asphalt", "toll": "no", "tunnel": "yes", "zone:traffic": "FR:urban", "length": 69.16262100068}}, {"type": "Feature", "geometry": {"type": "LineString", "coordinates": [[2.4010626, 48.8294314], [2.4017265, 48.8298712]]}, "properties": {"bicycle": "no", "foot": "no", "hazmat:E": "no", "highway": "trunk", "horse": "no", "int_ref": "E 15", "lanes": "4", "layer": "-1", "lit": "yes", "maxspeed": "70", "motorroad": "no", "name": "Boulevard P\u00e9riph\u00e9rique Ext\u00e9rieur", "official_ref": "75000C02", "oneway": "yes", "operator": "VILLE DE PARIS", "smoothness": "excellent", "start_date": "1970-03-05", "surface": "asphalt", "toll": "no", "tunnel": "yes", "zone:traffic": "FR:urban", "length": 69.05105251639871}}, {"type": "Feature", "geometry": {"type": "LineString", "coordinates": [[2.246557, 48.8763882], [2.2462388, 48.8759952]]}, "properties": {"highway": "primary", "lanes": "2", "layer": "-1", "maxheight": "3.8", "ref": "D 1", "source": "opendata.hauts-de-seine.net 2012", "surface": "asphalt", "tunnel": "yes", "length": 49.546750209752986}}, {"type": "Feature", "geometry": {"type": "LineString", "coordinates": [[2.2989896, 48.9113035], [2.2972479, 48.9107471]]}, "properties": {"bicycle": "no", "foot": "no", "highway": "primary", "lanes": "2", "layer": "-1", "maxheight": "6.00", "maxspeed": "50", "oneway": "yes", "ref": "D 7", "source": "opendata.hauts-de-seine.net 2012", "surface": "asphalt", "tunnel": "yes", "length": 141.87433711949478}}, {"type": "Feature", "geometry": {"type": "LineString", "coordinates": [[2.2983719, 48.9108833], [2.2990032, 48.9110821]]}, "properties": {"bicycle": "no", "foot": "no", "highway": "primary", "lanes": "2", "layer": "-1", "maxheight": "6.00", "maxspeed": "70", "oneway": "yes", "ref": "D 7", "source": "opendata.hauts-de-seine.net 2012", "surface": "asphalt", "tunnel": "yes", "length": 51.285507034147614}}, {"type": "Feature", "geometry": {"type": "LineString", "coordinates": [[2.2601017, 48.8578033], [2.260423, 48.8579182]]}, "properties": {"bicycle": "no", "destination": "Porte de Passy", "foot": "no", "hazmat:E": "no", "highway": "trunk_link", "horse": "no", "layer": "-1", "lit": "yes", "maxspeed": "70", "motorroad": "no", "official_name": "Voie BP/16", "oneway": "yes", "smoothness": "excellent", "source:maxspeed": "sign", "start_date": "1972-01-20", "surface": "asphalt", "tunnel": "yes", "length": 26.816795307503163}}, {"type": "Feature", "geometry": {"type": "LineString", "coordinates": [[2.2648066, 48.8622814], [2.2653817, 48.8629071], [2.2659482, 48.8634379], [2.2666024, 48.863921], [2.2670766, 48.8643794]]}, "properties": {"bicycle": "no", "foot": "no", "hazmat:E": "no", "highway": "trunk", "horse": "no", "lanes": "4", "layer": "-1", "lit": "24/7", "maxspeed": "70", "motorroad": "no", "name": "Boulevard P\u00e9riph\u00e9rique Int\u00e9rieur", "official_ref": "75000C01", "oneway": "yes", "operator": "VILLE DE PARIS", "smoothness": "excellent", "start_date": "1972-07", "surface": "asphalt", "toll": "no", "tunnel": "yes", "zone:traffic": "FR:urban", "length": 287.3338075271028}}, {"type": "Feature", "geometry": {"type": "LineString", "coordinates": [[2.2612153, 48.8586151], [2.2580484, 48.856946], [2.2554561, 48.8551297]]}, "properties": {"bicycle": "no", "foot": "no", "hazmat:E": "no", "highway": "trunk", "horse": "no", "lanes": "4", "layer": "-1", "lit": "24/7", "maxheight": "default", "maxspeed": "70", "motorroad": "no", "name": "Boulevard P\u00e9riph\u00e9rique Ext\u00e9rieur", "official_ref": "75000C02", "oneway": "yes", "operator": "VILLE DE PARIS", "smoothness": "excellent", "start_date": "1972-06", "surface": "asphalt", "toll": "no", "tunnel": "yes", "zone:traffic": "FR:urban", "length": 574.8789030418811}}, {"type": "Feature", "geometry": {"type": "LineString", "coordinates": [[2.2637027, 48.8609188], [2.2633623, 48.860367]]}, "properties": {"bicycle": "no", "hazmat:E": "no", "highway": "trunk", "lanes": "5", "layer": "-1", "lit": "yes", "maxheight": "default", "maxspeed": "70", "motorroad": "no", "name": "Boulevard P\u00e9riph\u00e9rique Ext\u00e9rieur", "official_ref": "75000C02", "oneway": "yes", "operator": "VILLE DE PARIS", "smoothness": "excellent", "start_date": "1972-06", "surface": "asphalt", "toll": "no", "tunnel": "yes", "zone:traffic": "FR:urban", "length": 66.25255455929552}}, {"type": "Feature", "geometry": {"type": "LineString", "coordinates": [[2.2432294, 48.8335376], [2.2435987, 48.8336524]]}, "properties": {"bicycle": "no", "hazmat": "no", "highway": "primary", "layer": "-1", "lit": "24/7", "maxheight": "2.60", "maxspeed": "50", "name": "Avenue du G\u00e9n\u00e9ral Leclerc", "parking:both:restriction": "no_stopping", "ref": "D 910", "shoulder": "no", "sidewalk": "no", "source": "opendata.hauts-de-seine.net 2012", "source:maxspeed": "FR:urban", "surface": "asphalt", "tunnel": "yes", "zone:traffic": "FR:urban", "length": 29.967612463128223}}, {"type": "Feature", "geometry": {"type": "LineString", "coordinates": [[2.2489563, 48.8252847], [2.2477338, 48.8248905]]}, "properties": {"access:explosives": "no", "cycleway": "track", "description:covid19": "Piste cyclable temporaire", "foot": "no", "hazmat:water": "no", "highway": "primary", "lanes": "2", "layer": "-1", "maxheight": "default", "maxspeed": "50", "oneway": "yes", "parking:lane:both": "no_stopping", "ref": "D 1", "sidewalk": "no", "source": "Bing", "source:maxspeed": "FR:urban", "surface": "asphalt", "tunnel": "yes", "length": 99.89767141351331}}, {"type": "Feature", "geometry": {"type": "LineString", "coordinates": [[2.3097565, 48.8647383], [2.3107779, 48.8647571], [2.3109765, 48.8647607], [2.3119429, 48.8647824], [2.3121431, 48.8647869], [2.3130458, 48.8648072], [2.313246, 48.8648117], [2.3140995, 48.8648308]]}, "properties": {"bicycle": "no", "foot": "no", "hazmat:E": "no", "highway": "primary", "lanes": "4", "layer": "-1", "lit": "yes", "maxheight:backward": "3.9", "maxheight:forward": "2.7", "maxspeed": "50", "maxweight:forward": "3.5", "moped": "no", "name": "Voie Georges Pompidou", "name:ru": "\u0443\u043b\u0438\u0446\u0430 \u0416\u043e\u0440\u0436\u0430 \u041f\u043e\u043c\u043f\u0438\u0434\u0443", "oneway": "no", "surface": "asphalt", "tunnel": "yes", "length": 318.81168025719217}}, {"type": "Feature", "geometry": {"type": "LineString", "coordinates": [[2.3077652, 48.9173184], [2.3079391, 48.9170012]]}, "properties": {"destination": "Asni\u00e8res", "destination:ref": "D 7", "highway": "trunk_link", "layer": "-1", "motorroad": "yes", "nat_ref": "92N931501_2D", "oneway": "yes", "operator": "DIRIF", "smoothness": "excellent", "surface": "asphalt", "tunnel": "yes", "wikidata": "Q2169701", "length": 37.50724039580584}}, {"type": "Feature", "geometry": {"type": "LineString", "coordinates": [[2.2070719, 48.9008638], [2.2053499, 48.9013096]]}, "properties": {"hazmat:E": "no", "highway": "motorway_link", "layer": "-4", "lit": "yes", "loc_name": "B1", "maxspeed": "50", "nat_ref": "92A901402_2D", "oneway": "yes", "operator": "DIRIF", "source": "extrapolation", "surface": "paved", "tunnel": "yes", "length": 135.63619204125138}}, {"type": "Feature", "geometry": {"type": "LineString", "coordinates": [[2.2097531, 48.9002431], [2.2074205, 48.9006329]]}, "properties": {"destination": "Colombes;Cergy-Pontoise", "destination:ref": "A 86", "hazmat:E": "no", "highway": "motorway_link", "lanes": "1", "layer": "-4", "lit": "24/7", "maxspeed": "50", "nat_ref": "92A901402_1D", "oneway": "yes", "operator": "DIRIF", "source": "extrapolation", "tunnel": "yes", "length": 176.4287906543536}}, {"type": "Feature", "geometry": {"type": "LineString", "coordinates": [[2.2044792, 48.9012805], [2.2043001, 48.9014376], [2.2042457, 48.9014944], [2.2042152, 48.9015481], [2.2041864, 48.9016512], [2.2041608, 48.9018017], [2.2041672, 48.9019301], [2.2042889, 48.9021312], [2.2044837, 48.9022833]]}, "properties": {"hazmat": "no", "highway": "motorway_link", "lanes": "1", "layer": "-1", "lit": "yes", "maxspeed": "50", "nat_ref": "92A901402_1D", "oneway": "yes", "operator": "DIRIF", "source": "extrapolation", "surface": "asphalt", "tunnel": "yes", "length": 124.70490502882996}}, {"type": "Feature", "geometry": {"type": "LineString", "coordinates": [[2.2540115, 48.8541768], [2.2534106, 48.8536957], [2.2533067, 48.8536126], [2.2525783, 48.8528752], [2.2522131, 48.8521173], [2.2519666, 48.8512079]]}, "properties": {"bicycle": "no", "foot": "no", "hazmat:E": "no", "highway": "trunk", "horse": "no", "lanes": "4", "layer": "-1", "lit": "24/7", "maxspeed": "70", "motorroad": "no", "name": "Boulevard P\u00e9riph\u00e9rique Ext\u00e9rieur", "official_ref": "75000C02", "oneway": "yes", "operator": "VILLE DE PARIS", "smoothness": "excellent", "start_date": "1972-06", "surface": "asphalt", "toll": "no", "tunnel": "yes", "zone:traffic": "FR:urban", "length": 370.38042119906083}}, {"type": "Feature", "geometry": {"type": "LineString", "coordinates": [[2.2555736, 48.8550013], [2.2582345, 48.8568139], [2.2601017, 48.8578033], [2.2613558, 48.8584749]]}, "properties": {"bicycle": "no", "foot": "no", "hazmat:E": "no", "highway": "trunk", "horse": "no", "lanes": "4", "layer": "-1", "lit": "24/7", "maxspeed": "70", "motorroad": "no", "name": "Boulevard P\u00e9riph\u00e9rique Int\u00e9rieur", "official_ref": "75000C01", "oneway": "yes", "operator": "VILLE DE PARIS", "smoothness": "excellent", "start_date": "1972-01-20", "surface": "asphalt", "toll": "no", "tunnel": "yes", "zone:traffic": "FR:urban", "length": 574.8868608552962}}, {"type": "Feature", "geometry": {"type": "LineString", "coordinates": [[2.2618862, 48.8950837], [2.2613328, 48.8946408], [2.2610157, 48.894387], [2.2606305, 48.8940235], [2.2592585, 48.8925701]]}, "properties": {"highway": "primary", "layer": "-1", "maxspeed": "50", "name": "Quai du Pr\u00e9sident Paul Doumer", "oneway": "yes", "ref": "D 7", "source": "Yahoo satellite imagery", "surface": "concrete", "tunnel": "yes", "length": 340.082249327457}}, {"type": "Feature", "geometry": {"type": "LineString", "coordinates": [[2.2540787, 48.8388804], [2.2542298, 48.8384599], [2.2545261, 48.8379375]]}, "properties": {"bicycle": "no", "foot": "no", "hazmat:E": "no", "highway": "trunk", "horse": "no", "int_ref": "E 05", "lanes": "4", "layer": "-1", "lit": "24/7", "maxheight": "4.75", "maxspeed": "70", "motorroad": "no", "name": "Boulevard P\u00e9riph\u00e9rique Ext\u00e9rieur", "official_ref": "75000C02", "oneway": "yes", "operator": "VILLE DE PARIS", "smoothness": "excellent", "start_date": "1972-06", "surface": "asphalt", "toll": "no", "tunnel": "yes", "zone:traffic": "FR:urban", "length": 110.0925579856303}}, {"type": "Feature", "geometry": {"type": "LineString", "coordinates": [[2.2547694, 48.8379834], [2.2544282, 48.8385058], [2.254294, 48.8388566]]}, "properties": {"bicycle": "no", "foot": "no", "hazmat:E": "no", "highway": "trunk", "horse": "no", "int_ref": "E 05", "lanes": "4", "layer": "-1", "lit": "24/7", "maxheight": "4.75", "maxspeed": "70", "motorroad": "no", "name": "Boulevard P\u00e9riph\u00e9rique Int\u00e9rieur", "official_ref": "75000C01", "oneway": "yes", "operator": "VILLE DE PARIS", "smoothness": "excellent", "start_date": "1971-01", "surface": "asphalt", "toll": "no", "tunnel": "yes", "zone:traffic": "FR:urban", "length": 103.49965686515013}}, {"type": "Feature", "geometry": {"type": "LineString", "coordinates": [[2.2579006, 48.8357846], [2.257053, 48.836123], [2.2566593, 48.8363324], [2.2558434, 48.8368721]]}, "properties": {"bicycle": "no", "foot": "no", "hazmat:E": "no", "highway": "trunk", "horse": "no", "int_ref": "E 05", "lanes": "4", "layer": "-1", "lit": "yes", "maxheight": "4.75", "maxspeed": "70", "motorroad": "no", "name": "Boulevard P\u00e9riph\u00e9rique Int\u00e9rieur", "official_ref": "75000C01", "oneway": "yes", "operator": "VILLE DE PARIS", "smoothness": "excellent", "start_date": "1971-01", "surface": "asphalt", "toll": "no", "tunnel": "yes", "zone:traffic": "FR:urban", "length": 194.6267300502102}}, {"type": "Feature", "geometry": {"type": "LineString", "coordinates": [[2.2556906, 48.8367875], [2.256528, 48.8362364], [2.256971, 48.8359989], [2.2577805, 48.8356533]]}, "properties": {"bicycle": "no", "foot": "no", "hazmat:E": "no", "highway": "trunk", "horse": "no", "int_ref": "E 05", "lanes": "4", "layer": "-1", "lit": "yes", "maxheight": "4.75", "maxspeed": "70", "motorroad": "no", "name": "Boulevard P\u00e9riph\u00e9rique Ext\u00e9rieur", "official_ref": "75000C02", "oneway": "yes", "operator": "VILLE DE PARIS", "smoothness": "excellent", "start_date": "1970-04", "surface": "asphalt", "toll": "no", "tunnel": "yes", "zone:traffic": "FR:urban", "length": 199.47183450025648}}, {"type": "Feature", "geometry": {"type": "LineString", "coordinates": [[2.3903934, 48.9021049], [2.3908777, 48.9025551], [2.3918721, 48.9034754], [2.3922447, 48.9038196], [2.3929904, 48.9044983], [2.3934577, 48.9049235]]}, "properties": {"bicycle": "no", "foot": "no", "highway": "primary", "lanes": "2", "layer": "-1", "maxspeed": "50", "name": "Avenue Jean Jaur\u00e8s", "operator": "CG93", "ref": "D 932", "source": "cadastre-dgi-fr source : Direction G\u00e9n\u00e9rale des Imp\u00f4ts - Cadastre. Mise \u00e0 jour : 2010", "source:maxspeed": "FR:urban", "surface": "asphalt", "tunnel": "yes", "length": 385.645930969725}}, {"type": "Feature", "geometry": {"type": "LineString", "coordinates": [[2.2797818, 48.8774092], [2.2794056, 48.8771253], [2.2792567, 48.8770177], [2.2791138, 48.876918]]}, "properties": {"bicycle": "no", "foot": "no", "hazmat:E": "no", "highway": "trunk", "horse": "no", "lanes": "4", "layer": "-1", "lit": "yes", "maxspeed": "70", "motorroad": "no", "name": "Boulevard P\u00e9riph\u00e9rique Ext\u00e9rieur", "official_ref": "75000C02", "oneway": "yes", "operator": "VILLE DE PARIS", "smoothness": "excellent", "start_date": "1973-04-25", "surface": "asphalt", "toll": "no", "tunnel": "yes", "zone:traffic": "FR:urban", "length": 73.39039746524863}}, {"type": "Feature", "geometry": {"type": "LineString", "coordinates": [[2.2794252, 48.8769076], [2.2799934, 48.8773371]]}, "properties": {"hazmat:E": "no", "highway": "trunk", "lanes": "4", "layer": "-1", "lit": "yes", "maxspeed": "70", "motorroad": "no", "name": "Boulevard P\u00e9riph\u00e9rique Int\u00e9rieur", "official_ref": "75000C01", "oneway": "yes", "operator": "VILLE DE PARIS", "smoothness": "excellent", "start_date": "1973-04-25", "surface": "asphalt", "toll": "no", "tunnel": "yes", "zone:traffic": "FR:urban", "length": 63.39121421687202}}, {"type": "Feature", "geometry": {"type": "LineString", "coordinates": [[2.2777135, 48.8760661], [2.2772036, 48.8757282]]}, "properties": {"bicycle": "no", "foot": "no", "hazmat:E": "no", "highway": "trunk", "horse": "no", "lanes": "4", "layer": "-1", "lit": "yes", "maxspeed": "70", "motorroad": "no", "name": "Boulevard P\u00e9riph\u00e9rique Ext\u00e9rieur", "official_ref": "75000C02", "oneway": "yes", "operator": "VILLE DE PARIS", "smoothness": "excellent", "start_date": "1973-04-25", "surface": "asphalt", "toll": "no", "tunnel": "yes", "zone:traffic": "FR:urban", "length": 53.018913207815956}}, {"type": "Feature", "geometry": {"type": "LineString", "coordinates": [[2.2773014, 48.875648], [2.2778482, 48.8759138]]}, "properties": {"bicycle": "no", "foot": "no", "hazmat:E": "no", "highway": "trunk", "horse": "no", "lanes": "4", "layer": "-1", "lit": "yes", "maxspeed": "70", "motorroad": "no", "name": "Boulevard P\u00e9riph\u00e9rique Int\u00e9rieur", "official_ref": "75000C01", "oneway": "yes", "operator": "VILLE DE PARIS", "smoothness": "excellent", "start_date": "1973-04-25", "surface": "asphalt", "toll": "no", "tunnel": "yes", "zone:traffic": "FR:urban", "length": 49.824896748748394}}, {"type": "Feature", "geometry": {"type": "LineString", "coordinates": [[2.2808661, 48.8786456], [2.2804227, 48.8780719]]}, "properties": {"bicycle": "no", "foot": "no", "hazmat:E": "no", "highway": "trunk", "horse": "no", "lanes": "4", "layer": "-1", "lit": "yes", "maxspeed": "70", "motorroad": "no", "name": "Boulevard P\u00e9riph\u00e9rique Ext\u00e9rieur", "official_ref": "75000C02", "oneway": "yes", "operator": "VILLE DE PARIS", "smoothness": "excellent", "start_date": "1973-04-25", "surface": "asphalt", "toll": "no", "tunnel": "yes", "zone:traffic": "FR:urban", "length": 71.61120039107156}}, {"type": "Feature", "geometry": {"type": "LineString", "coordinates": [[2.2805371, 48.8778947], [2.2807038, 48.878085], [2.2808942, 48.8783178], [2.2811386, 48.8786395]]}, "properties": {"bicycle": "no", "foot": "no", "hazmat:E": "no", "highway": "trunk", "horse": "no", "lanes": "4", "layer": "-1", "lit": "yes", "maxspeed": "70", "motorroad": "no", "name": "Boulevard P\u00e9riph\u00e9rique Int\u00e9rieur", "official_ref": "75000C01", "oneway": "yes", "operator": "VILLE DE PARIS", "smoothness": "excellent", "start_date": "1973-04-25", "surface": "asphalt", "toll": "no", "tunnel": "yes", "zone:traffic": "FR:urban", "length": 93.8726052503913}}, {"type": "Feature", "geometry": {"type": "LineString", "coordinates": [[2.2815496, 48.8798865], [2.2813992, 48.879534]]}, "properties": {"bicycle": "no", "foot": "no", "hazmat:E": "no", "highway": "trunk", "horse": "no", "lanes": "4", "layer": "-1", "lit": "yes", "maxspeed": "70", "motorroad": "no", "name": "Boulevard P\u00e9riph\u00e9rique Ext\u00e9rieur", "official_ref": "75000C02", "oneway": "yes", "operator": "VILLE DE PARIS", "smoothness": "excellent", "start_date": "1973-04-25", "surface": "asphalt", "toll": "no", "tunnel": "yes", "zone:traffic": "FR:urban", "length": 40.72323931075284}}, {"type": "Feature", "geometry": {"type": "LineString", "coordinates": [[2.2816208, 48.8794976], [2.2817469, 48.8798515]]}, "properties": {"bicycle": "no", "foot": "no", "hazmat:E": "no", "highway": "trunk", "horse": "no", "lanes": "4", "layer": "-1", "lit": "yes", "maxspeed": "70", "motorroad": "no", "name": "Boulevard P\u00e9riph\u00e9rique Int\u00e9rieur", "official_ref": "75000C01", "oneway": "yes", "operator": "VILLE DE PARIS", "smoothness": "excellent", "start_date": "1973-04-25", "surface": "asphalt", "toll": "no", "tunnel": "yes", "zone:traffic": "FR:urban", "length": 40.42852409346686}}, {"type": "Feature", "geometry": {"type": "LineString", "coordinates": [[2.2642382, 48.8964895], [2.2645757, 48.8966422], [2.2649258, 48.8967845]]}, "properties": {"access:explosives": "no", "foot": "no", "highway": "primary", "layer": "-1", "maxheight": "4.60", "maxspeed": "70", "oneway": "yes", "ref": "D 7", "sidewalk": "no", "source": "opendata.hauts-de-seine.net 2012", "surface": "asphalt", "tunnel": "yes", "length": 60.168858029084234}}, {"type": "Feature", "geometry": {"type": "LineString", "coordinates": [[2.2529024, 48.8876762], [2.2527263, 48.8875439], [2.2526673, 48.8874954], [2.2525921, 48.8874233], [2.2525056, 48.8873193], [2.2524012, 48.8871528], [2.2523021, 48.8869585]]}, "properties": {"highway": "primary", "layer": "-1", "maxheight": "4.40", "maxspeed": "50", "oneway": "yes", "ref": "D 7", "source": "opendata.hauts-de-seine.net 2012", "surface": "asphalt", "tunnel": "yes", "length": 92.24775745739765}}, {"type": "Feature", "geometry": {"type": "LineString", "coordinates": [[2.277498, 48.8755096], [2.2778828, 48.8756647], [2.2780169, 48.8757247], [2.2781323, 48.875778]]}, "properties": {"bicycle": "no", "destination": "Porte Maillot", "foot": "no", "hazmat:E": "no", "highway": "primary_link", "horse": "no", "lanes": "2", "layer": "-1", "lit": "yes", "maxspeed": "50", "motorroad": "no", "official_name": "Voie AX/16", "oneway": "yes", "smoothness": "excellent", "start_date": "1973-04-25", "surface": "asphalt", "tunnel": "yes", "length": 55.299482007689335}}, {"type": "Feature", "geometry": {"type": "LineString", "coordinates": [[2.2776742, 48.8761922], [2.2770902, 48.8758138]]}, "properties": {"bicycle": "no", "foot": "no", "hazmat:E": "no", "highway": "trunk_link", "horse": "no", "lanes": "1", "layer": "-1", "lit": "yes", "maxspeed": "70", "motorroad": "no", "official_name": "Voie AZ/16", "oneway": "yes", "smoothness": "excellent", "start_date": "1973-04-25", "surface": "asphalt", "tunnel": "yes", "length": 60.04930218135837}}, {"type": "Feature", "geometry": {"type": "LineString", "coordinates": [[2.4270091, 48.8673233], [2.4272407, 48.8674237], [2.4275822, 48.8676191], [2.4281453, 48.8680199]]}, "properties": {"highway": "motorway", "int_ref": "E 15", "lanes": "4", "layer": "-1", "lit": "24/7", "maxspeed": "90", "oneway": "yes", "operator": "DIRIF", "ref": "A 3", "toll": "no", "tunnel": "yes", "length": 114.26922674917759}}, {"type": "Feature", "geometry": {"type": "LineString", "coordinates": [[2.4671859, 48.820006], [2.4669935, 48.8203348]]}, "properties": {"highway": "primary", "lanes": "1", "layer": "-1", "lit": "yes", "maxheight": "4.1", "maxspeed": "50", "name": "Quai Pierre Brossolette", "old_ref": "N 186", "oneway": "yes", "surface": "asphalt", "toll:hgv": "yes", "tunnel": "yes", "length": 39.19943873370366}}, {"type": "Feature", "geometry": {"type": "LineString", "coordinates": [[2.2671805, 48.893361], [2.2679741, 48.8937621]]}, "properties": {"bicycle": "no", "foot": "no", "highway": "primary", "layer": "-1", "oneway": "yes", "ref": "D 1", "surface": "asphalt", "tunnel": "yes", "length": 73.32148531033478}}, {"type": "Feature", "geometry": {"type": "LineString", "coordinates": [[2.4461958, 48.8780238], [2.4465379, 48.8781841], [2.446625, 48.8782205], [2.4490468, 48.8792473]]}, "properties": {"highway": "motorway", "int_ref": "E 15", "lanes": "3", "layer": "-1", "lit": "yes", "maxspeed": "90", "oneway": "yes", "operator": "DIRIF", "ref": "A 3", "toll": "no", "tunnel": "yes", "length": 249.51642424223428}}, {"type": "Feature", "geometry": {"type": "LineString", "coordinates": [[2.2412191, 48.8899677], [2.241165, 48.8899504], [2.2411378, 48.8899457], [2.241111, 48.8899437], [2.2410829, 48.8899453], [2.2410587, 48.8899504], [2.2405629, 48.8900998], [2.2402662, 48.8901928], [2.2397284, 48.8903203]]}, "properties": {"highway": "secondary", "layer": "-4", "lit": "24/7", "maxheight": "4.10", "oneway": "yes", "ref": "D 9", "surface": "asphalt", "tunnel": "yes", "length": 118.35540150907033}}, {"type": "Feature", "geometry": {"type": "LineString", "coordinates": [[2.4489087, 48.8793785], [2.448137, 48.8790532], [2.4478671, 48.8789394], [2.4476529, 48.8788491], [2.4464012, 48.8783215], [2.4462307, 48.878239], [2.445949, 48.8781155]]}, "properties": {"construction": "minor", "highway": "motorway", "int_ref": "E 15", "lanes": "3", "layer": "-1", "lit": "yes", "maxspeed": "70", "oneway": "yes", "operator": "DIRIF", "ref": "A 3", "toll": "no", "tunnel": "yes", "length": 258.59805187085516}}, {"type": "Feature", "geometry": {"type": "LineString", "coordinates": [[2.2797976, 48.8768525], [2.2801406, 48.8772847]]}, "properties": {"highway": "trunk_link", "lanes": "1", "layer": "-1", "lit": "yes", "nat_ref": "75Periph_Paris_03_2D", "official_name": "Voie AV/16", "oneway": "yes", "operator": "VILLE DE PARIS", "start_date": "1973-04-25", "tunnel": "yes", "zone:traffic": "FR:urban", "length": 54.25069475716327}}, {"type": "Feature", "geometry": {"type": "LineString", "coordinates": [[2.2806892, 48.8787166], [2.2802572, 48.8781223]]}, "properties": {"bicycle": "no", "foot": "no", "hazmat:E": "no", "highway": "trunk_link", "horse": "no", "lanes": "1", "layer": "-1", "lit": "yes", "maxspeed": "30", "motorroad": "no", "official_name": "Voie BG/17", "oneway": "yes", "smoothness": "excellent", "source:maxspeed": "sign", "start_date": "1973-04-25", "surface": "asphalt", "tunnel": "yes", "zone:traffic": "FR:urban", "length": 73.29414420480431}}, {"type": "Feature", "geometry": {"type": "LineString", "coordinates": [[2.2812528, 48.8799402], [2.2806475, 48.8790296], [2.2800893, 48.8781282]]}, "properties": {"hazmat:E": "no", "highway": "trunk_link", "lanes": "2", "layer": "-1", "lit": "yes", "maxspeed": "30", "motorroad": "no", "official_name": "Voie BI/17", "oneway": "yes", "smoothness": "excellent", "source:maxspeed": "sign", "start_date": "1973-04-25", "surface": "asphalt", "tunnel": "yes", "zone:traffic": "FR:urban", "length": 218.8521721833017}}, {"type": "Feature", "geometry": {"type": "LineString", "coordinates": [[2.2811016, 48.8799656], [2.280972, 48.8796611], [2.280677, 48.879228], [2.2805724, 48.8790984], [2.2804731, 48.8789943], [2.2803564, 48.8788981], [2.2802424, 48.8788373], [2.2801164, 48.8787914], [2.2799487, 48.8787729], [2.2798173, 48.8787667], [2.2796872, 48.8787905], [2.2795612, 48.8788417], [2.2794592, 48.8788709]]}, "properties": {"hazmat:E": "no", "highway": "trunk_link", "lanes": "1", "layer": "-1", "lit": "24/7", "maxspeed": "30", "nat_ref": "75Periph_Paris_03_3D", "official_name": "Voie BJ/17", "oneway": "yes", "operator": "VILLE DE PARIS", "tunnel": "yes", "zone:traffic": "FR:urban", "length": 204.03815055604935}}, {"type": "Feature", "geometry": {"type": "LineString", "coordinates": [[2.3720068, 48.8442577], [2.3724994, 48.8446137], [2.3736207, 48.8454815], [2.3739714, 48.8457134]]}, "properties": {"bicycle": "no", "foot": "no", "hazmat": "no", "highway": "secondary", "layer": "-1", "lit": "24/7", "maxheight": "3.5", "maxspeed": "30", "moped": "no", "name": "Rue Van Gogh", "oneway": "yes", "surface": "asphalt", "tunnel": "yes", "length": 216.8862864564561}}, {"type": "Feature", "geometry": {"type": "LineString", "coordinates": [[2.2412138, 48.8894131], [2.2412391, 48.8893909], [2.2412646, 48.8893749], [2.2412901, 48.8893648], [2.2413303, 48.8893573], [2.2414104, 48.8893507], [2.2414347, 48.8893497], [2.2414617, 48.8893494], [2.2414731, 48.8893495]]}, "properties": {"covered": "yes", "cycleway:right": "lane", "highway": "secondary", "layer": "-1", "maxheight": "4.10", "oneway": "yes", "ref": "D 9", "source": "guesswork", "surface": "asphalt", "tunnel": "yes", "length": 21.436205607652262}}, {"type": "Feature", "geometry": {"type": "LineString", "coordinates": [[2.2425609, 48.8781135], [2.2428348, 48.8783385]]}, "properties": {"foot": "no", "highway": "primary", "lanes": "2", "layer": "-1", "lit": "24/7", "maxheight": "4.50", "maxspeed": "50", "name": "D 7 Quai Gallieni", "oneway": "yes", "ref": "D 7", "source": "opendata.hauts-de-seine.net 2012", "surface": "asphalt", "tunnel": "yes", "length": 32.08916303096645}}, {"type": "Feature", "geometry": {"type": "LineString", "coordinates": [[2.2425146, 48.8906552], [2.2426252, 48.8908071], [2.2428205, 48.8910758]]}, "properties": {"covered": "yes", "cycleway:left": "no", "cycleway:right": "lane", "cycleway:right:lane": "exclusive", "cycleway:temporary": "yes", "description:covid19": "piste cyclable temporaire", "highway": "secondary", "lanes": "1", "layer": "-1", "maxheight": "4.10", "maxspeed": "20", "name": "Avenue Jean Moulin", "oneway": "yes", "ref": "D 9", "surface": "asphalt", "tunnel": "yes", "length": 51.874851541475735}}, {"type": "Feature", "geometry": {"type": "LineString", "coordinates": [[2.2410866, 48.8921379], [2.2411063, 48.891709], [2.2411707, 48.8914216], [2.2412887, 48.8912153], [2.2415248, 48.8908661], [2.2419083, 48.8904975], [2.2421779, 48.8903361], [2.2429423, 48.8899922], [2.244101, 48.8896439], [2.2445896, 48.8894465]]}, "properties": {"foot": "no", "highway": "primary", "layer": "-3", "oneway": "yes", "operator": "DIRIF", "ref": "N 192", "source": "guesswork", "surface": "asphalt", "tunnel": "yes", "length": 426.7410706914827}}, {"type": "Feature", "geometry": {"type": "LineString", "coordinates": [[2.2408449, 48.8920734], [2.2408176, 48.8920234], [2.2408167, 48.8919969], [2.2408227, 48.8919749], [2.2408334, 48.8919559], [2.2408408, 48.891948], [2.2408555, 48.8919401], [2.2408804, 48.8919343], [2.2409679, 48.8919171]]}, "properties": {"highway": "secondary", "layer": "-1", "noname": "yes", "oneway": "yes", "source": "guesswork", "surface": "asphalt", "tunnel": "yes", "length": 24.652393033401744}}, {"type": "Feature", "geometry": {"type": "LineString", "coordinates": [[2.239813, 48.8900836], [2.2398853, 48.8901073], [2.2399691, 48.8901263], [2.2400368, 48.8901373], [2.2401095, 48.8901424], [2.2401796, 48.8901439], [2.2402453, 48.8901404], [2.2403144, 48.8901271], [2.240909, 48.889939], [2.2410229, 48.8898957], [2.2410416, 48.8898862], [2.2410584, 48.8898732], [2.241078, 48.889853], [2.2410882, 48.8898367]]}, "properties": {"cycleway:right": "lane", "highway": "secondary", "layer": "-4", "lit": "24/7", "maxheight": "4.10", "oneway": "yes", "ref": "D 913", "surface": "asphalt", "tunnel": "yes", "length": 104.41065288179907}}, {"type": "Feature", "geometry": {"type": "LineString", "coordinates": [[2.2466625, 48.8892123], [2.2460027, 48.8895293], [2.2443062, 48.8900601], [2.2437376, 48.8902435], [2.242831, 48.8906439], [2.2424313, 48.8908626], [2.241978, 48.8911482], [2.2416307, 48.8914551], [2.2414197, 48.8916473], [2.2412775, 48.8919229], [2.2412149, 48.8921394]]}, "properties": {"destination": "La Garenne Colombes", "destination:ref": "D 992", "highway": "primary", "junction:ref": "2", "layer": "-3", "maxspeed": "70", "maxspeed:type": "sign", "oneway": "yes", "operator": "DIRIF", "ref": "N 192", "source": "guesswork", "surface": "asphalt", "tunnel": "yes", "length": 533.9215094312287}}, {"type": "Feature", "geometry": {"type": "LineString", "coordinates": [[2.2424027, 48.8913217], [2.2421353, 48.8909459]]}, "properties": {"covered": "yes", "cycleway:right": "lane", "cycleway:temporary": "yes", "description:covid19": "piste cyclable temporaire", "highway": "secondary", "lanes": "2", "layer": "-1", "maxheight": "4.10", "oneway": "yes", "ref": "D 9", "surface": "asphalt", "tunnel": "yes", "length": 46.163401960186214}}, {"type": "Feature", "geometry": {"type": "LineString", "coordinates": [[2.2478886, 48.8247602], [2.2491234, 48.8251669]]}, "properties": {"access:explosives": "no", "cycleway:right": "track", "description:covid19": "Piste cyclable temporaire", "foot": "no", "hazmat:water": "no", "highway": "primary", "lanes": "1", "layer": "-1", "maxheight": "default", "maxspeed": "50", "oneway": "yes", "parking:lane:both": "no_stopping", "ref": "D 1", "sidewalk": "no", "source": "Bing", "source:maxspeed": "FR:urban", "surface": "asphalt", "tunnel": "yes", "length": 101.32301599645511}}, {"type": "Feature", "geometry": {"type": "LineString", "coordinates": [[2.2307779, 48.8965037], [2.2303015, 48.8965403], [2.229523, 48.8965108], [2.2290756, 48.8964344], [2.228494, 48.8961873], [2.2280466, 48.8958932], [2.227814, 48.8957579], [2.2274203, 48.8956402], [2.2269281, 48.8955814], [2.226604, 48.8956075], [2.2263307, 48.8956715]]}, "properties": {"hgv:conditional": "no @ (weight>3.5)", "highway": "motorway_link", "layer": "-4", "lit": "24/7", "nat_ref": "92A901401_1D", "oneway": "yes", "operator": "DIRIF", "source": "guesswork", "tunnel": "yes", "length": 359.6118288850592}}, {"type": "Feature", "geometry": {"type": "LineString", "coordinates": [[2.2917666, 48.8276289], [2.2922965, 48.8274757]]}, "properties": {"bicycle": "no", "foot": "no", "hazmat:E": "no", "highway": "trunk", "horse": "no", "int_ref": "E 05", "lanes": "3", "layer": "-1", "lit": "yes", "maxheight": "4.75", "maxspeed": "70", "motorroad": "no", "name": "Boulevard P\u00e9riph\u00e9rique Ext\u00e9rieur", "official_ref": "75000C02", "oneway": "yes", "operator": "VILLE DE PARIS", "sidewalk": "no", "smoothness": "excellent", "source": "bing", "start_date": "1964-09-30", "surface": "asphalt", "toll": "no", "tunnel": "yes", "zone:traffic": "FR:urban", "length": 42.473995104680654}}, {"type": "Feature", "geometry": {"type": "LineString", "coordinates": [[2.2937373, 48.8194862], [2.2940759, 48.8194323]]}, "properties": {"cycleway:right": "lane", "highway": "secondary", "lanes": "1", "layer": "-1", "lit": "yes", "maxheight": "4.90", "maxspeed": "50", "name": "Rue Ernest Laval", "oneway": "yes", "ref": "D 50", "shoulder": "no", "sidewalk": "right", "source": "opendata.hauts-de-seine.net 2012", "surface": "asphalt", "tunnel": "yes", "length": 25.577647793883095}}, {"type": "Feature", "geometry": {"type": "LineString", "coordinates": [[2.2942228, 48.8195389], [2.2938646, 48.8196021]]}, "properties": {"cycleway:right": "lane", "highway": "secondary", "lanes": "2", "layer": "-1", "lit": "yes", "maxheight": "4.90", "maxspeed": "50", "name": "Rue Ernest Laval", "oneway": "yes", "ref": "D 50", "shoulder": "no", "sidewalk:left": "no", "sidewalk:right": "yes", "source": "opendata.hauts-de-seine.net 2012", "surface": "asphalt", "tunnel": "yes", "length": 27.227417294164493}}, {"type": "Feature", "geometry": {"type": "LineString", "coordinates": [[2.2145948, 48.8392493], [2.2153317, 48.839219]]}, "properties": {"destination:lanes": "Paris;Bois de Boulogne|Paris;Bois de Boulogne|Suresnes;Boulogne;S\u00e8vres", "hazmat:E": "no", "highway": "motorway", "int_ref": "E 05", "lanes": "3", "layer": "-1", "lit": "24/7", "maxspeed": "70", "name": "Tunnel de Saint-Cloud", "oneway": "yes", "operator": "DIRIF", "ref": "A 13", "smoothness": "good", "source:maxspeed": "sign", "surface": "asphalt", "toll": "no", "tunnel": "yes", "turn:lanes": "through|through|right", "length": 54.19846685364416}}, {"type": "Feature", "geometry": {"type": "LineString", "coordinates": [[2.2333451, 48.8481883], [2.2416391, 48.8482589], [2.2422994, 48.8482671], [2.2433342, 48.8483048], [2.2436969, 48.8483184]]}, "properties": {"destination:lanes": "Lille;Paris porte de Passy;P\u00e9riph\u00e9rique Nord|Lille;Paris porte de Passy;P\u00e9riph\u00e9rique Nord|Lyon;Metz;nancy;Paris Centre;Paris Porte de Saint-Cloud;P\u00e9riph\u00e9rique Sud", "hazmat:E": "no", "highway": "motorway", "int_ref": "E 05", "lanes": "3", "layer": "-1", "lit": "24/7", "maxheight": "default", "maxspeed": "70", "name": "Tunnel Ambroise Par\u00e9", "oneway": "yes", "operator": "DIRIF", "ref": "A 13", "smoothness": "good", "source:maxspeed": "sign", "surface": "asphalt", "toll": "no", "tunnel": "yes", "length": 759.9762236029055}}, {"type": "Feature", "geometry": {"type": "LineString", "coordinates": [[2.2549077, 48.8380181], [2.2544205, 48.8388363]]}, "properties": {"bicycle": "no", "foot": "no", "hazmat:E": "no", "highway": "trunk_link", "horse": "no", "layer": "-1", "lit": "24/7", "maxspeed": "70", "motorroad": "no", "official_name": "Voie CH/16", "oneway": "yes", "smoothness": "excellent", "source:maxspeed": "sign", "start_date": "1971-01", "surface": "asphalt", "tunnel": "yes", "zone:traffic": "FR:urban", "length": 97.76573974412757}}, {"type": "Feature", "geometry": {"type": "LineString", "coordinates": [[2.3787912, 48.8432289], [2.3791121, 48.8433681]]}, "properties": {"bicycle:backward": "use_sidepath", "highway": "tertiary", "layer": "-2", "maxheight": "4", "maxspeed": "30", "maxspeed:type": "sign", "name": "Rue de Rambouillet", "oneway": "yes", "surface": "asphalt", "tunnel": "yes", "length": 28.18580134464865}}, {"type": "Feature", "geometry": {"type": "LineString", "coordinates": [[2.4139924, 48.8536846], [2.4141218, 48.8533372]]}, "properties": {"bicycle": "no", "foot": "no", "highway": "trunk", "horse": "no", "int_ref": "E 15", "lanes": "4", "layer": "-1", "lit": "yes", "maxspeed": "70", "motorroad": "no", "name": "Boulevard P\u00e9riph\u00e9rique Int\u00e9rieur", "official_ref": "75000C01", "oneway": "yes", "operator": "VILLE DE PARIS", "smoothness": "excellent", "start_date": "1970-03-05", "surface": "asphalt", "toll": "no", "tunnel": "yes", "zone:traffic": "FR:urban", "length": 39.78325331770458}}, {"type": "Feature", "geometry": {"type": "LineString", "coordinates": [[2.4143377, 48.8533893], [2.4142043, 48.8537619]]}, "properties": {"bicycle": "no", "foot": "no", "highway": "trunk", "horse": "no", "int_ref": "E 15", "lanes": "4", "layer": "-1", "lit": "yes", "maxspeed": "70", "motorroad": "no", "name": "Boulevard P\u00e9riph\u00e9rique Ext\u00e9rieur", "official_ref": "75000C02", "oneway": "yes", "operator": "VILLE DE PARIS", "smoothness": "excellent", "start_date": "1970-03-05", "surface": "asphalt", "toll": "no", "tunnel": "yes", "zone:traffic": "FR:urban", "length": 42.5764569152235}}, {"type": "Feature", "geometry": {"type": "LineString", "coordinates": [[2.4137629, 48.8547968], [2.4137688, 48.8545592], [2.4137922, 48.8544525]]}, "properties": {"bicycle": "no", "foot": "no", "highway": "trunk", "horse": "no", "int_ref": "E 15", "lanes": "4", "layer": "-1", "lit": "yes", "maxspeed": "70", "motorroad": "no", "name": "Boulevard P\u00e9riph\u00e9rique Int\u00e9rieur", "official_ref": "75000C01", "oneway": "yes", "operator": "VILLE DE PARIS", "smoothness": "excellent", "start_date": "1970-03-05", "surface": "asphalt", "toll": "no", "tunnel": "yes", "zone:traffic": "FR:urban", "length": 38.41570167924822}}, {"type": "Feature", "geometry": {"type": "LineString", "coordinates": [[2.414026, 48.8544213], [2.4140108, 48.8547797]]}, "properties": {"bicycle": "no", "foot": "no", "highway": "trunk", "horse": "no", "int_ref": "E 15", "lanes": "4", "layer": "-1", "lit": "yes", "maxspeed": "70", "motorroad": "no", "name": "Boulevard P\u00e9riph\u00e9rique Ext\u00e9rieur", "official_ref": "75000C02", "oneway": "yes", "operator": "VILLE DE PARIS", "smoothness": "excellent", "start_date": "1970-03-05", "surface": "asphalt", "toll": "no", "tunnel": "yes", "zone:traffic": "FR:urban", "length": 39.87216576959192}}, {"type": "Feature", "geometry": {"type": "LineString", "coordinates": [[2.2956416, 48.8177259], [2.2954483, 48.8176291], [2.2949555, 48.8173774]]}, "properties": {"bicycle": "yes", "cycleway:left": "lane", "cycleway:left:oneway": "no", "foot": "yes", "highway": "tertiary", "lane_markings": "no", "maxheight": "default", "maxspeed": "30", "name": "Rue Paul Bert", "oneway": "yes", "oneway:bicycle": "no", "sidewalk": "both", "surface": "asphalt", "tunnel": "yes", "length": 63.56751597283319}}, {"type": "Feature", "geometry": {"type": "LineString", "coordinates": [[2.3290952, 48.9178065], [2.3293793, 48.9179367], [2.3296985, 48.9181475], [2.3299751, 48.9183912]]}, "properties": {"bicycle": "no", "foot": "no", "highway": "primary", "horse": "no", "layer": "-1", "name": "Quai de Seine", "name:etymology:wikidata": "Q1471", "ref": "D 1", "surface": "asphalt", "tunnel": "yes", "length": 92.32540643351078}}, {"type": "Feature", "geometry": {"type": "LineString", "coordinates": [[2.2939067, 48.9167468], [2.2945192, 48.916327], [2.295028, 48.9159308], [2.2953979, 48.9156415], [2.2956039, 48.9154757]]}, "properties": {"access:explosives": "no", "bicycle": "no", "foot": "no", "highway": "primary", "lanes": "2", "layer": "-1", "maxheight": "4.3", "maxspeed": "50", "name": "Rue des Bas", "oneway": "yes", "ref": "D 19", "sidewalk": "no", "surface": "asphalt", "tunnel": "yes", "length": 188.39604703669536}}, {"type": "Feature", "geometry": {"type": "LineString", "coordinates": [[2.2958332, 48.915582], [2.2953194, 48.9160147], [2.2947769, 48.9164599], [2.29414, 48.9169128]]}, "properties": {"access:explosives": "no", "bicycle": "no", "foot": "no", "highway": "primary", "lanes": "2", "layer": "-1", "maxheight": "4.3", "maxspeed": "50", "name": "Rue des Bas", "oneway": "yes", "ref": "D 19", "sidewalk": "no", "surface": "asphalt", "tunnel": "yes", "length": 193.27619402117148}}, {"type": "Feature", "geometry": {"type": "LineString", "coordinates": [[2.407468, 48.8790457], [2.4076467, 48.8788477], [2.4078139, 48.8785981]]}, "properties": {"bicycle": "no", "foot": "no", "highway": "trunk_link", "horse": "no", "lanes": "2", "layer": "-1", "lit": "yes", "motorroad": "no", "official_name": "Voie CR/19", "oneway": "yes", "sidewalk": "no", "smoothness": "excellent", "start_date": "1969-12-01", "surface": "asphalt", "tunnel": "yes", "length": 55.971032655320435}}, {"type": "Feature", "geometry": {"type": "LineString", "coordinates": [[2.239199, 48.8898367], [2.239813, 48.8900836]]}, "properties": {"cycleway:right": "lane", "highway": "secondary", "layer": "-1", "lit": "24/7", "maxheight": "4.10", "oneway": "yes", "ref": "D 913", "surface": "asphalt", "tunnel": "yes", "length": 52.7377434857125}}, {"type": "Feature", "geometry": {"type": "LineString", "coordinates": [[2.388355, 48.8283975], [2.3880477, 48.8287143]]}, "properties": {"alt_name": "Voie Georges Pompidou", "cycleway:right": "no", "dual_carriageway": "yes", "foot": "no", "highway": "primary", "lanes": "3", "layer": "-1", "lit": "yes", "maxheight": "3.4", "maxspeed": "50", "motorway": "no", "name": "Quai de Bercy", "name:etymology:wikidata": "Q773318", "oneway": "yes", "surface": "concrete", "tunnel": "yes", "zone:traffic": "FR:urban", "length": 41.835928359800725}}, {"type": "Feature", "geometry": {"type": "LineString", "coordinates": [[2.279347, 48.8992238], [2.2782782, 48.8988519]]}, "properties": {"bicycle": "no", "foot": "no", "hazmat": "no", "highway": "primary", "layer": "-1", "name": "Quai Charles Pasqua", "old_name": "Quai Michelet", "oneway": "yes", "ref": "D 1", "surface": "asphalt", "tunnel": "yes", "length": 88.60817754943216}}, {"type": "Feature", "geometry": {"type": "LineString", "coordinates": [[2.2783211, 48.8987708], [2.2793889, 48.8991545]]}, "properties": {"bicycle": "no", "foot": "no", "hazmat": "no", "highway": "primary", "layer": "-1", "name": "Quai Charles Pasqua", "old_name": "Quai Michelet", "oneway": "yes", "ref": "D 1", "tunnel": "yes", "length": 89.16394060702825}}, {"type": "Feature", "geometry": {"type": "LineString", "coordinates": [[2.2696852, 48.8677634], [2.2700264, 48.8681613], [2.2705575, 48.8687541], [2.2707247, 48.8689445], [2.2712688, 48.8694327]]}, "properties": {"bicycle": "no", "foot": "no", "hazmat:E": "no", "highway": "trunk", "horse": "no", "lanes": "4", "layer": "-1", "lit": "yes", "maxspeed": "70", "motorroad": "no", "name": "Boulevard P\u00e9riph\u00e9rique Int\u00e9rieur", "official_ref": "75000C01", "oneway": "yes", "operator": "VILLE DE PARIS", "smoothness": "excellent", "start_date": "1972-07", "surface": "asphalt", "toll": "no", "tunnel": "yes", "zone:traffic": "FR:urban", "length": 219.27310869393733}}, {"type": "Feature", "geometry": {"type": "LineString", "coordinates": [[2.2540147, 48.8381275], [2.2542792, 48.8379707], [2.2543925, 48.8378543]]}, "properties": {"bicycle": "no", "foot": "no", "hazmat:E": "no", "highway": "trunk_link", "horse": "no", "layer": "-1", "lit": "24/7", "maxspeed": "30", "motorroad": "no", "official_name": "Voie CA/16", "oneway": "yes", "smoothness": "excellent", "source": "cadastre-dgi-fr source : Direction G\u00e9n\u00e9rale des Imp\u00f4ts - Cadastre. Mise \u00e0 jour : 2010", "source:maxspeed": "sign", "start_date": "1970-04", "surface": "asphalt", "tunnel": "yes", "length": 41.48333423643708}}, {"type": "Feature", "geometry": {"type": "LineString", "coordinates": [[2.2542673, 48.8403503], [2.2541127, 48.8413165]]}, "properties": {"bicycle": "no", "foot": "no", "hazmat:E": "no", "highway": "trunk_link", "horse": "no", "layer": "-1", "lit": "24/7", "motorroad": "no", "official_name": "Voie BZ/16", "oneway": "yes", "smoothness": "excellent", "source": "cadastre-dgi-fr source : Direction G\u00e9n\u00e9rale des Imp\u00f4ts - Cadastre. Mise \u00e0 jour : 2010", "start_date": "1971-01", "surface": "asphalt", "tunnel": "yes", "length": 108.04549825619473}}, {"type": "Feature", "geometry": {"type": "LineString", "coordinates": [[2.2528093, 48.8877589], [2.2527449, 48.8877338], [2.2526816, 48.8877134], [2.2526029, 48.8876951], [2.2525162, 48.8876798], [2.2524474, 48.887674], [2.2523819, 48.8876738], [2.2522804, 48.8876779], [2.2521865, 48.8876859], [2.2520647, 48.887698], [2.2519223, 48.8877163], [2.2518276, 48.8877365], [2.2517354, 48.8877605], [2.2513593, 48.8878783]]}, "properties": {"hgv:conditional": "no @ (weight>3.5)", "highway": "motorway_link", "lanes": "1", "layer": "-5", "lit": "yes", "maxheight": "4.30", "name": "Tunnel de La D\u00e9fense - Nanterre", "nat_ref": "92N901401_1D", "oneway": "yes", "operator": "DIRIF", "source": "opendata.hauts-de-seine.net 2012", "surface": "asphalt", "tunnel": "yes", "length": 112.42173847256582}}, {"type": "Feature", "geometry": {"type": "LineString", "coordinates": [[2.3007882, 48.8255324], [2.3025298, 48.8251322], [2.3033695, 48.824935], [2.3047449, 48.8246385]]}, "properties": {"bicycle": "no", "dual_carriageway": "yes", "foot": "no", "hazmat:E": "no", "highway": "trunk", "horse": "no", "int_ref": "E 05", "lanes": "3", "layer": "-1", "lit": "yes", "maxheight": "4.75", "maxspeed": "70", "motorroad": "no", "name": "Boulevard P\u00e9riph\u00e9rique Ext\u00e9rieur", "official_ref": "75000C02", "oneway": "yes", "operator": "VILLE DE PARIS", "sidewalk": "no", "smoothness": "excellent", "start_date": "1963-11", "surface": "asphalt", "toll": "no", "tunnel": "yes", "zone:traffic": "FR:urban", "length": 307.08437432042024}}, {"type": "Feature", "geometry": {"type": "LineString", "coordinates": [[2.3008359, 48.8256365], [2.29954, 48.825918]]}, "properties": {"bicycle": "no", "foot": "no", "hazmat:E": "no", "highway": "trunk", "horse": "no", "int_ref": "E 05", "lanes": "3", "layer": "-1", "lit": "yes", "maxheight": "4.75", "maxspeed": "70", "motorroad": "no", "name": "Boulevard P\u00e9riph\u00e9rique Int\u00e9rieur", "official_ref": "75000C01", "oneway": "yes", "operator": "VILLE DE PARIS", "sidewalk": "no", "smoothness": "excellent", "start_date": "1963-11", "surface": "asphalt", "toll": "no", "tunnel": "yes", "zone:traffic": "FR:urban", "length": 100.17079480628558}}, {"type": "Feature", "geometry": {"type": "LineString", "coordinates": [[2.3920772, 48.8273309], [2.3920942, 48.8274982], [2.3920695, 48.827658], [2.3920295, 48.8277549], [2.3919092, 48.8278449]]}, "properties": {"hazmat:E": "no", "highway": "motorway_link", "int_ref": "E 50", "lanes": "2", "layer": "-1", "lit": "yes", "maxspeed": "50", "motorroad": "no", "nat_ref": "75Periph_Paris_05_2D", "official_name": "Voie CQ/12", "oneway": "yes", "operator": "VILLE DE PARIS", "smoothness": "excellent", "start_date": "1970-03-05", "surface": "asphalt", "tunnel": "yes", "zone:traffic": "FR:urban", "length": 61.02752872699838}}, {"type": "Feature", "geometry": {"type": "LineString", "coordinates": [[2.2970197, 48.8147856], [2.2974563, 48.814996], [2.2975115, 48.8150226]]}, "properties": {"bicycle": "yes", "cycleway:left": "lane", "cycleway:left:lane": "exclusive", "cycleway:left:oneway": "-1", "cycleway:right": "no", "foot": "yes", "highway": "tertiary", "lane_markings": "no", "maxheight": "default", "maxspeed": "30", "name": "Rue Guy M\u00f4quet", "oneway": "yes", "oneway:bicycle": "no", "sidewalk": "both", "source:maxspeed": "FR:zone30", "surface": "asphalt", "tunnel": "yes", "length": 44.712601307734616}}, {"type": "Feature", "geometry": {"type": "LineString", "coordinates": [[2.2445896, 48.8894465], [2.2450096, 48.8893385], [2.2460507, 48.8890839], [2.2468015, 48.8889376]]}, "properties": {"foot": "no", "highway": "primary", "layer": "-2", "oneway": "yes", "operator": "DIRIF", "ref": "N 192", "source": "guesswork", "surface": "asphalt", "tunnel": "yes", "length": 171.90075538076397}}, {"type": "Feature", "geometry": {"type": "LineString", "coordinates": [[2.2528793, 48.8869259], [2.2531872, 48.8873193]]}, "properties": {"highway": "primary", "layer": "-1", "maxheight": "4.40", "maxspeed": "70", "oneway": "yes", "ref": "D 7", "source": "opendata.hauts-de-seine.net 2012", "surface": "asphalt", "tunnel": "yes", "length": 49.23267919237932}}, {"type": "Feature", "geometry": {"type": "LineString", "coordinates": [[2.4296394, 48.8697968], [2.4292877, 48.8693908], [2.4292241, 48.8692454]]}, "properties": {"bicycle": "no", "foot": "no", "highway": "motorway_link", "horse": "no", "layer": "-1", "lit": "24/7", "nat_ref": "93A900301_3D", "oneway": "yes", "operator": "DIRIF", "tunnel": "yes", "length": 68.83175001247652}}, {"type": "Feature", "geometry": {"type": "LineString", "coordinates": [[2.2271835, 48.8939443], [2.2271508, 48.8936259], [2.2271334, 48.893394], [2.2271317, 48.8932376]]}, "properties": {"highway": "motorway_link", "layer": "-4", "lit": "24/7", "maxspeed": "50", "nat_ref": "92A901401_2D", "oneway": "yes", "operator": "DIRIF", "source": "guesswork", "tunnel": "yes", "length": 78.70354877968315}}, {"type": "Feature", "geometry": {"type": "LineString", "coordinates": [[2.2994021, 48.8971557], [2.2985342, 48.8967737], [2.2985112, 48.8967629]]}, "properties": {"highway": "tertiary", "layer": "-1", "maxheight": "4.53", "name": "Rue Aristide Briand", "sidewalk": "separate", "source": "opendata.hauts-de-seine.net 2012", "surface": "asphalt", "tunnel": "yes", "length": 78.58375554633412}}, {"type": "Feature", "geometry": {"type": "LineString", "coordinates": [[2.2859191, 48.8846673], [2.2854009, 48.8842459]]}, "properties": {"bicycle": "no", "foot": "no", "hazmat:E": "no", "highway": "trunk_link", "horse": "no", "layer": "-1", "lit": "yes", "motorroad": "no", "official_name": "Voie BB/17", "oneway": "yes", "smoothness": "excellent", "start_date": "1973-04-25", "surface": "asphalt", "tunnel": "yes", "zone:traffic": "FR:urban", "length": 60.336764227021}}, {"type": "Feature", "geometry": {"type": "LineString", "coordinates": [[2.2934123, 48.8884997], [2.2937085, 48.8886113], [2.2937943, 48.8886422], [2.2938573, 48.8886629], [2.2939317, 48.8886836]]}, "properties": {"bicycle": "no", "foot": "no", "hazmat:E": "no", "highway": "trunk_link", "horse": "no", "layer": "-1", "lit": "yes", "motorroad": "no", "official_name": "Voie BA/17", "oneway": "yes", "smoothness": "excellent", "start_date": "1973-04-25", "surface": "asphalt", "tunnel": "yes", "zone:traffic": "FR:urban", "length": 43.270253917069745}}, {"type": "Feature", "geometry": {"type": "LineString", "coordinates": [[2.2049259, 48.9031964], [2.2045377, 48.9031032], [2.2038608, 48.9028651], [2.203462, 48.9026376]]}, "properties": {"destination:lanes": "Nanterre;Versailles;Poissy par St Germain|Poissy;Rouen;La D\u00e9fense;Paris-Pte Maillot", "destination:ref:lanes": "A\u00a014|A\u00a014", "hazmat": "no", "highway": "motorway_link", "lanes": "2", "layer": "-3", "lit": "yes", "loc_name": "B4", "maxspeed": "50", "nat_ref": "92A901402_3D", "oneway": "yes", "operator": "DIRIF", "source": "DIRIF", "surface": "paved", "tunnel": "yes", "tunnel:name": "Tunnel de Nanterre\u00a0- La D\u00e9fense", "length": 125.20132197339817}}, {"type": "Feature", "geometry": {"type": "LineString", "coordinates": [[2.2159863, 48.8393381], [2.2114292, 48.839653], [2.20646, 48.8398248]]}, "properties": {"hazmat:E": "no", "highway": "motorway", "int_ref": "E 05", "lanes": "3", "layer": "-1", "lit": "24/7", "maxheight": "default", "maxspeed": "70", "name": "Tunnel de Saint-Cloud", "oneway": "yes", "operator": "DIRIF", "ref": "A 13", "smoothness": "good", "source:maxspeed": "sign", "surface": "asphalt", "toll": "no", "tunnel": "yes", "length": 701.6196917435403}}, {"type": "Feature", "geometry": {"type": "LineString", "coordinates": [[2.2435987, 48.8336524], [2.2439681, 48.8337673]]}, "properties": {"bicycle": "no", "foot": "no", "hazmat": "no", "highway": "primary", "lanes": "2", "layer": "-1", "lit": "yes", "maxheight": "2.60", "maxspeed": "50", "name": "Avenue \u00c9douard Vaillant", "parking:both:restriction": "no_stopping", "ref": "D 910", "shoulder": "no", "sidewalk": "no", "source": "opendata.hauts-de-seine.net 2012", "source:maxspeed": "FR:urban", "surface": "asphalt", "tunnel": "yes", "zone:traffic": "FR:urban", "length": 29.97893682078282}}, {"type": "Feature", "geometry": {"type": "LineString", "coordinates": [[2.2153317, 48.839219], [2.2172768, 48.8391084], [2.2179681, 48.8391443]]}, "properties": {"destination:lanes": "Paris;Bois de Boulogne|Paris;Bois de Boulogne|Suresnes;Boulogne;S\u00e8vres", "hazmat:E": "no", "highway": "motorway", "int_ref": "E 05", "lanes": "3", "layer": "-1", "lit": "24/7", "maxspeed": "70", "name": "Tunnel de Saint-Cloud", "oneway": "yes", "operator": "DIRIF", "ref": "A 13", "smoothness": "good", "source:maxspeed": "sign", "surface": "asphalt", "toll": "no", "tunnel": "yes", "turn:lanes": "through|through|right", "length": 194.21609376332586}}, {"type": "Feature", "geometry": {"type": "LineString", "coordinates": [[2.2056097, 48.9032143], [2.2062942, 48.9035669]]}, "properties": {"hazmat:E": "no", "highway": "motorway", "lanes": "2", "layer": "-1", "lit": "yes", "maxspeed": "70", "oneway": "yes", "operator": "DIRIF", "ref": "A 86", "surface": "asphalt", "toll": "no", "tunnel": "yes", "length": 63.68591044623965}}, {"type": "Feature", "geometry": {"type": "LineString", "coordinates": [[2.2057186, 48.9031403], [2.2061038, 48.9033765], [2.2062942, 48.9035669]]}, "properties": {"hazmat": "no", "highway": "motorway_link", "lanes": "2", "lit": "yes", "nat_ref": "92A901402_1D", "oneway": "yes", "operator": "DIRIF", "surface": "paved", "tunnel": "yes", "length": 63.929057195383436}}, {"type": "Feature", "geometry": {"type": "LineString", "coordinates": [[2.4611929, 48.8208643], [2.4604806, 48.8204195]]}, "properties": {"highway": "motorway", "int_ref": "E 50", "lanes": "4", "layer": "-1", "lit": "yes", "maxspeed": "90", "name": "Autoroute de l\u2019Est", "oneway": "yes", "operator": "DIRIF", "ref": "A 4", "smoothness": "good", "surface": "asphalt", "toll": "no", "tunnel": "yes", "length": 71.99152733520873}}, {"type": "Feature", "geometry": {"type": "LineString", "coordinates": [[2.4606079, 48.8203236], [2.4613337, 48.8207494]]}, "properties": {"highway": "motorway", "int_ref": "E 50", "lanes": "4", "layer": "-1", "lit": "yes", "maxheight": "below_default", "maxspeed": "90", "name": "Autoroute de l\u2019Est", "oneway": "yes", "operator": "DIRIF", "ref": "A 4", "smoothness": "good", "surface": "asphalt", "toll": "no", "tunnel": "yes", "length": 71.29460352330292}}, {"type": "Feature", "geometry": {"type": "LineString", "coordinates": [[2.2037182, 48.9021708], [2.2039124, 48.9022845], [2.2041893, 48.9024303]]}, "properties": {"hazmat:E": "no", "highway": "motorway", "lanes": "2", "layer": "-1", "lit": "yes", "maxspeed": "70", "oneway": "yes", "operator": "DIRIF", "ref": "A 86", "surface": "asphalt", "toll": "no", "tunnel": "yes", "length": 45.02304602554548}}, {"type": "Feature", "geometry": {"type": "LineString", "coordinates": [[2.2039198, 48.9019981], [2.2044073, 48.9023196]]}, "properties": {"hazmat": "no", "highway": "motorway_link", "lanes": "1", "layer": "-1", "lit": "yes", "nat_ref": "92A901402_5D", "oneway": "yes", "operator": "DIRIF", "surface": "asphalt", "tunnel": "yes", "length": 50.554167903090246}}, {"type": "Feature", "geometry": {"type": "LineString", "coordinates": [[2.2040125, 48.9025616], [2.2035358, 48.9022956]]}, "properties": {"hazmat:E": "no", "highway": "motorway", "lanes": "2", "layer": "-1", "lit": "yes", "maxspeed": "70", "oneway": "yes", "operator": "DIRIF", "ref": "A 86", "surface": "asphalt", "toll": "no", "tunnel": "yes", "length": 45.7874499813175}}, {"type": "Feature", "geometry": {"type": "LineString", "coordinates": [[2.3496866, 48.8103146], [2.3490447, 48.8095924]]}, "properties": {"cutting": "yes", "hazmat:E": "no", "highway": "motorway", "int_ref": "E 15;E 50", "lanes": "2", "layer": "-1", "lit": "24/7", "maxspeed": "70", "name": "Tunnel de Bic\u00eatre", "oneway": "yes", "operator": "DIRIF", "ref": "A 6b", "source:maxspeed": "sign", "start_date": "1972", "toll": "no", "tunnel": "yes", "length": 93.12925774663343}}, {"type": "Feature", "geometry": {"type": "LineString", "coordinates": [[2.3491248, 48.8095501], [2.3494537, 48.8099164], [2.349781, 48.8103004]]}, "properties": {"cutting": "yes", "hazmat:E": "no", "highway": "motorway", "int_ref": "E 15;E 50", "lanes": "2", "layer": "-1", "lit": "24/7", "maxspeed": "70", "name": "Tunnel de Bic\u00eatre", "oneway": "yes", "operator": "DIRIF", "ref": "A 6b", "source:maxspeed": "sign", "start_date": "1972", "toll": "no", "tunnel": "yes", "length": 96.36436109183119}}, {"type": "Feature", "geometry": {"type": "LineString", "coordinates": [[2.349781, 48.8103004], [2.3500942, 48.8106294], [2.3505832, 48.8110495], [2.351223, 48.8115007]]}, "properties": {"cutting": "yes", "hazmat:E": "no", "highway": "motorway", "int_ref": "E 15;E 50", "lanes": "2", "layer": "-1", "lit": "24/7", "maxspeed": "70", "name": "Tunnel de Bic\u00eatre", "oneway": "yes", "operator": "DIRIF", "ref": "A 6b", "source:maxspeed": "sign", "start_date": "1972", "toll": "no", "tunnel": "yes", "length": 170.89114678338245}}, {"type": "Feature", "geometry": {"type": "LineString", "coordinates": [[2.3490447, 48.8095924], [2.3487757, 48.8093285], [2.3476264, 48.8082073], [2.34674, 48.8073373], [2.3453414, 48.8057934], [2.3449208, 48.8053355], [2.3446976, 48.8051037]]}, "properties": {"cutting": "yes", "hazmat:E": "no", "highway": "motorway", "int_ref": "E 15;E 50", "lanes": "2", "layer": "-1", "lit": "24/7", "maxspeed": "70", "name": "Tunnel de Bic\u00eatre", "oneway": "yes", "operator": "DIRIF", "ref": "A 6b", "source:maxspeed": "sign", "start_date": "1972", "toll": "no", "tunnel": "yes", "length": 592.7606265905569}}, {"type": "Feature", "geometry": {"type": "LineString", "coordinates": [[2.3435665, 48.8018116], [2.3435895, 48.8020142], [2.3436383, 48.8022439], [2.3437931, 48.8028398], [2.3441826, 48.8040805], [2.3443286, 48.8044423], [2.3445775, 48.8048154]]}, "properties": {"cutting": "yes", "hazmat:E": "no", "highway": "motorway", "int_ref": "E 15;E 50", "lanes": "2", "layer": "-1", "lit": "24/7", "maxspeed": "70", "name": "Tunnel de Bic\u00eatre", "oneway": "yes", "operator": "DIRIF", "ref": "A 6b", "source:maxspeed": "sign", "start_date": "1972", "toll": "no", "tunnel": "yes", "length": 343.5128640419413}}, {"type": "Feature", "geometry": {"type": "LineString", "coordinates": [[2.2179856, 48.7849346], [2.2181591, 48.7849901], [2.2182679, 48.7850205], [2.2184198, 48.785053], [2.2185786, 48.7850871], [2.2186963, 48.7851087], [2.2188016, 48.7851269], [2.2189149, 48.7851407], [2.2191671, 48.7851599], [2.2193373, 48.7851682], [2.2194318, 48.7851713], [2.219504, 48.785174], [2.2195388, 48.7851747], [2.2195839, 48.7851732], [2.2196364, 48.7851703]]}, "properties": {"bicycle": "no", "foot": "no", "highway": "secondary", "lanes": "2", "layer": "-1", "maxheight": "4.3", "name": "Avenue Morane Saulnier", "oneway": "yes", "surface": "asphalt", "tunnel": "yes", "length": 125.50301169514047}}, {"type": "Feature", "geometry": {"type": "LineString", "coordinates": [[2.2224653, 48.8412187], [2.222584, 48.841554]]}, "properties": {"cycleway:right": "no", "highway": "primary", "lanes": "2", "layer": "-1", "maxheight": "4.95", "name": "Quai Carnot", "oneway": "yes", "ref": "D 7", "shoulder": "no", "sidewalk": "right", "source": "opendata.hauts-de-seine.net 2012", "surface": "asphalt", "tunnel": "yes", "length": 38.29205827643926}}, {"type": "Feature", "geometry": {"type": "LineString", "coordinates": [[2.2225127, 48.8415952], [2.2223749, 48.8411941]]}, "properties": {"cycleway:right": "no", "foot": "no", "highway": "primary", "lanes": "1", "layer": "-1", "maxheight": "4.95", "name": "Quai Carnot", "oneway": "yes", "ref": "D 7", "shoulder": "no", "sidewalk": "no", "source": "Bing", "surface": "asphalt", "tunnel": "yes", "length": 45.7375079363942}}, {"type": "Feature", "geometry": {"type": "LineString", "coordinates": [[2.203462, 48.9026376], [2.2031605, 48.9024586], [2.2030011, 48.9023854], [2.2027567, 48.9023449], [2.2025278, 48.9023456], [2.2023065, 48.9023977], [2.2018154, 48.9025503], [2.2016198, 48.902585], [2.2013467, 48.9026119], [2.2010099, 48.9025938], [2.2006808, 48.9025402], [2.2004793, 48.9025099], [2.2002438, 48.9024368], [2.2001106, 48.9023673], [2.1999521, 48.9022458], [2.1998596, 48.9021879], [2.1996637, 48.9019324]]}, "properties": {"destination": "La D\u00e9fense;Paris-Pte Maillot", "destination:ref": "A\u00a014", "hazmat:E": "no", "highway": "motorway_link", "layer": "-3", "lit": "yes", "loc_name": "B3", "maxspeed": "50", "nat_ref": "92A901402_4D", "oneway": "yes", "operator": "DIRIF", "source": "DIRIF", "surface": "paved", "tunnel": "yes", "length": 326.7000593913902}}, {"type": "Feature", "geometry": {"type": "LineString", "coordinates": [[2.2011133, 48.8999783], [2.2016296, 48.9002225], [2.2023176, 48.9005082], [2.2027802, 48.9006854], [2.2031383, 48.9008212], [2.2033569, 48.9008864], [2.2035688, 48.9009234], [2.2038008, 48.9009604], [2.2040476, 48.9009772], [2.2042756, 48.9009899]]}, "properties": {"hazmat:E": "no", "highway": "motorway_link", "lanes": "1", "layer": "-1", "lit": "yes", "maxspeed": "50", "nat_ref": "92A901402_7D", "oneway": "yes", "operator": "DIRIF", "source": "DIRIF", "surface": "paved", "tunnel": "yes", "length": 261.8458607968913}}, {"type": "Feature", "geometry": {"type": "LineString", "coordinates": [[2.1997721, 48.9018314], [2.1997172, 48.9017354], [2.199685, 48.9015943], [2.1996823, 48.9014656], [2.199693, 48.9012893], [2.1997574, 48.9010548], [2.1998003, 48.9007841], [2.1998082, 48.9005341], [2.1997366, 48.9002338]]}, "properties": {"hazmat:E": "no", "highway": "motorway_link", "layer": "-2", "lit": "yes", "loc_name": "B1", "maxspeed": "50", "nat_ref": "92A901402_2D", "oneway": "yes", "operator": "DIRIF", "source": "DIRIF", "surface": "asphalt", "tunnel": "yes", "length": 179.5967750226782}}, {"type": "Feature", "geometry": {"type": "LineString", "coordinates": [[2.1996637, 48.9019324], [2.1995866, 48.901787], [2.1995415, 48.9016741], [2.1995096, 48.9015367], [2.1995162, 48.9014375], [2.1995272, 48.9013232], [2.19959, 48.9011781], [2.1996439, 48.9010765], [2.1997958, 48.9009071], [2.2000038, 48.9007494], [2.2002295, 48.9006257], [2.200476, 48.9005381], [2.2007082, 48.9004764], [2.2009818, 48.9004244], [2.2012125, 48.9004191], [2.2014177, 48.9004253], [2.2015961, 48.9004394], [2.2019193, 48.9004994], [2.2022545, 48.9006096], [2.20263, 48.9007638], [2.2031169, 48.9009366], [2.2035145, 48.9010114], [2.2038589, 48.9010397], [2.2042705, 48.9010484]]}, "properties": {"hazmat:E": "no", "highway": "motorway_link", "layer": "-1", "lit": "yes", "loc_name": "B3", "maxspeed": "50", "nat_ref": "92A901402_4D", "oneway": "yes", "operator": "DIRIF", "source": "DIRIF", "surface": "asphalt", "tunnel": "yes", "length": 480.67350581855}}, {"type": "Feature", "geometry": {"type": "LineString", "coordinates": [[2.2113144, 48.8998803], [2.2097531, 48.9002431]]}, "properties": {"hazmat:E": "no", "hgv:conditional": "no @ (weight>3.5)", "highway": "motorway", "lanes": "3", "layer": "-2", "lit": "24/7", "maxspeed": "70", "name": "Tunnel de la D\u00e9fense", "oneway": "yes", "operator": "DIRIF", "ref": "A 14", "source": "extrapolation", "surface": "asphalt", "toll": "no", "tunnel": "yes", "length": 121.37356732428825}}, {"type": "Feature", "geometry": {"type": "LineString", "coordinates": [[2.1992744, 48.8987846], [2.1994487, 48.8989135], [2.2000606, 48.8993217], [2.2007204, 48.8997343], [2.2011133, 48.8999783]]}, "properties": {"destination": "La D\u00e9fense;Paris Pte Maillot", "destination:ref": "A 14", "hazmat:E": "no", "highway": "motorway_link", "layer": "-4", "lit": "yes", "maxspeed": "50", "nat_ref": "92A901402_7D", "oneway": "yes", "operator": "DIRIF", "source": "extrapolation;bing", "surface": "paved", "tunnel": "yes", "length": 189.27774749345616}}, {"type": "Feature", "geometry": {"type": "LineString", "coordinates": [[2.211224, 48.8997322], [2.2134239, 48.8992489], [2.2147659, 48.8989046], [2.2156188, 48.8986698], [2.2175689, 48.8980973], [2.2182401, 48.8978949], [2.2202465, 48.8972899], [2.222992, 48.896462], [2.2262506, 48.8954643]]}, "properties": {"hazmat:E": "no", "hgv:conditional": "no @ (weight>3.5)", "highway": "motorway", "lanes": "2", "layer": "-5", "lit": "24/7", "location": "underground", "maxspeed": "70", "name": "Tunnel de la D\u00e9fense", "oneway": "yes", "operator": "DIRIF", "ref": "A 14", "source": "yahoo;extrapolation;guess", "toll": "no", "tunnel": "yes", "length": 1200.5638512907985}}, {"type": "Feature", "geometry": {"type": "LineString", "coordinates": [[2.2053499, 48.9013096], [2.2046974, 48.9014763], [2.2043037, 48.9015784], [2.2037619, 48.9017389], [2.2033301, 48.901894], [2.2027615, 48.9021215], [2.2017583, 48.9024582], [2.2012916, 48.9025182], [2.2011226, 48.9025164], [2.2008893, 48.9024962], [2.2006345, 48.9024424], [2.20044, 48.9023886], [2.2002804, 48.9023207], [2.2001088, 48.9022233], [2.1999881, 48.9021219], [2.1998982, 48.9020064], [2.1997721, 48.9018314]]}, "properties": {"hazmat:E": "no", "highway": "motorway_link", "layer": "-3", "lit": "yes", "loc_name": "B1", "maxspeed": "50", "nat_ref": "92A901402_2D", "oneway": "yes", "operator": "DIRIF", "source": "DIRIF", "surface": "paved", "tunnel": "yes", "length": 473.6445049765216}}, {"type": "Feature", "geometry": {"type": "LineString", "coordinates": [[2.1996412, 48.8999521], [2.199581, 48.8998258], [2.1991292, 48.899204], [2.1986942, 48.8987791], [2.1978118, 48.8979886]]}, "properties": {"hazmat:E": "no", "highway": "motorway_link", "layer": "-2", "lit": "yes", "loc_name": "B1", "maxspeed": "50", "nat_ref": "92A901402_2D", "oneway": "yes", "operator": "DIRIF", "source": "extrapolation", "surface": "asphalt", "tunnel": "yes", "length": 257.55643538596604}}, {"type": "Feature", "geometry": {"type": "LineString", "coordinates": [[2.239813, 48.8900836], [2.2398316, 48.890102], [2.2398437, 48.8901245], [2.2398457, 48.8901465], [2.2398457, 48.8901704], [2.239841, 48.8901955], [2.2398309, 48.8902171], [2.2397994, 48.8902533], [2.2397284, 48.8903203]]}, "properties": {"highway": "secondary", "layer": "-4", "lit": "24/7", "oneway": "yes", "ref": "D 913", "surface": "asphalt", "tunnel": "yes", "length": 29.28020701540433}}, {"type": "Feature", "geometry": {"type": "LineString", "coordinates": [[2.3549804, 48.8139417], [2.3547507, 48.8137007], [2.3544686, 48.8134336], [2.3541446, 48.8131875], [2.3537583, 48.8129501], [2.3529929, 48.812539]]}, "properties": {"cutting": "yes", "hazmat:E": "no", "highway": "motorway", "int_ref": "E 15;E 50", "lanes": "2", "layer": "-1", "lit": "24/7", "maxspeed": "70", "name": "Tunnel de Bic\u00eatre", "oneway": "yes", "operator": "DIRIF", "ref": "A 6b", "source:maxspeed": "sign", "start_date": "1972", "toll": "no", "tunnel": "yes", "length": 215.36299515791407}}, {"type": "Feature", "geometry": {"type": "LineString", "coordinates": [[2.3898293, 48.827025], [2.3902682, 48.8267277]]}, "properties": {"class:bicycle": "-3", "foot": "no", "highway": "primary", "lanes": "2", "layer": "-1", "lit": "yes", "maxspeed": "50", "name": "Quai de Bercy", "name:etymology:wikidata": "Q773318", "oneway": "yes", "surface": "asphalt", "tunnel": "yes", "length": 46.16930759528293}}, {"type": "Feature", "geometry": {"type": "LineString", "coordinates": [[2.3879599, 48.8286684], [2.3882557, 48.8283476]]}, "properties": {"highway": "primary", "lanes": "2", "layer": "-1", "lit": "yes", "maxheight": "3.4", "maxspeed": "50", "motorway": "no", "name": "Quai de Bercy", "name:etymology:wikidata": "Q773318", "oneway": "yes", "surface": "asphalt", "tunnel": "yes", "length": 41.76597880611087}}, {"type": "Feature", "geometry": {"type": "LineString", "coordinates": [[2.3877415, 48.8285573], [2.388078, 48.8282586]]}, "properties": {"bicycle": "yes", "class:bicycle": "-3", "dual_carriageway": "yes", "foot": "no", "highway": "primary", "lanes": "2", "layer": "-1", "lit": "yes", "maxheight": "3.4", "maxspeed": "50", "name": "Quai de Bercy", "name:etymology:wikidata": "Q773318", "oneway": "yes", "sidewalk": "both", "surface": "asphalt", "tunnel": "yes", "length": 41.39828091806425}}, {"type": "Feature", "geometry": {"type": "LineString", "coordinates": [[2.3899844, 48.8271038], [2.3900164, 48.8270216], [2.3901017, 48.8268994], [2.3902682, 48.8267277]]}, "properties": {"class:bicycle": "-3", "foot": "no", "highway": "secondary", "lanes": "3", "layer": "-1", "lit": "yes", "maxspeed": "50", "official_name": "Voie CF/12", "oneway": "yes", "surface": "asphalt", "tunnel": "yes", "length": 47.07409694865211}}, {"type": "Feature", "geometry": {"type": "LineString", "coordinates": [[2.3666986, 48.8454929], [2.3669743, 48.8452824]]}, "properties": {"alt_name": "Voie Georges Pompidou", "bicycle": "no", "busway:right": "lane", "cycleway:left": "no", "cycleway:right": "separate", "foot": "no", "hazmat": "no", "highway": "primary", "lanes": "5", "lit": "yes", "maxheight": "4", "maxspeed": "50", "name": "Voie Mazas", "oneway": "yes", "psv:lanes": "yes|yes|yes|yes|designated", "shoulder": "no", "smoothness": "good", "surface": "asphalt", "tunnel": "yes", "length": 30.943029346721268}}, {"type": "Feature", "geometry": {"type": "LineString", "coordinates": [[2.2999168, 48.8973759], [2.2994433, 48.8971736]]}, "properties": {"highway": "tertiary", "layer": "-1", "maxheight": "4.53", "noname": "yes", "note": "Please add name/ref.", "sidewalk": "separate", "source": "opendata.hauts-de-seine.net 2012", "tunnel": "yes", "length": 41.369941197107536}}, {"type": "Feature", "geometry": {"type": "LineString", "coordinates": [[2.2919574, 48.818487], [2.2922029, 48.8183066]]}, "properties": {"cycleway:both": "no", "highway": "tertiary", "lanes": "2", "maxheight": "default", "name": "Place Albert Culot", "note": "no height restriction", "shoulder": "no", "sidewalk": "both", "surface": "asphalt", "tunnel": "yes", "length": 26.972372225988472}}, {"type": "Feature", "geometry": {"type": "LineString", "coordinates": [[2.3962461, 48.8905539], [2.3961957, 48.8906024], [2.3961635, 48.8906559], [2.3958153, 48.8919185], [2.3957769, 48.8920242], [2.3956238, 48.8922066], [2.3955187, 48.8923052], [2.3951923, 48.8925488]]}, "properties": {"bicycle": "no", "foot": "no", "highway": "primary", "lanes": "2", "layer": "-1", "lit": "24/7", "maxheight": "default", "maxspeed": "30", "official_name": "Voie DC/19", "oneway": "yes", "surface": "asphalt", "tunnel": "yes", "length": 240.47563048920625}}, {"type": "Feature", "geometry": {"type": "LineString", "coordinates": [[2.2790305, 48.876483], [2.2792044, 48.8766111], [2.279364, 48.8767408], [2.2795142, 48.8768757], [2.2796558, 48.8770099], [2.2798026, 48.8771712], [2.2799294, 48.8773345], [2.2800171, 48.8774693], [2.280085, 48.8776062], [2.2801325, 48.8777498], [2.2801594, 48.8778947], [2.28017, 48.8780003], [2.2801655, 48.8781072], [2.2801472, 48.8782023], [2.2801127, 48.8783186], [2.2800708, 48.8783884], [2.280031, 48.8784411], [2.2799858, 48.8784948], [2.2799601, 48.8785242], [2.2799152, 48.8785617], [2.2797903, 48.8786341], [2.2794148, 48.8788019]]}, "properties": {"hazmat:E": "no", "highway": "trunk_link", "lanes": "2", "layer": "-3", "lit": "24/7", "maxspeed": "50", "nat_ref": "75Periph_Paris_03_1D", "official_name": "Voie AY/16", "oneway": "yes", "operator": "VILLE DE PARIS", "tunnel": "yes", "zone:traffic": "FR:urban", "length": 304.51066667949243}}, {"type": "Feature", "geometry": {"type": "LineString", "coordinates": [[2.3461761, 48.7717403], [2.3451183, 48.7718994]]}, "properties": {"highway": "secondary", "lanes": "1", "layer": "-1", "maxheight": "4.2", "name": "Avenue du G\u00e9n\u00e9ral Leclerc", "old_ref": "D 60", "oneway": "yes", "ref": "D 160", "surface": "asphalt", "tunnel": "yes", "length": 79.74164906134395}}, {"type": "Feature", "geometry": {"type": "LineString", "coordinates": [[2.3007087, 48.8119707], [2.3006334, 48.8118926], [2.3003659, 48.81165]]}, "properties": {"cycleway": "track", "description:covid19": "piste cyclable temporaire", "highway": "primary", "lanes": "2", "layer": "-1", "lit": "yes", "maxheight": "6.05", "maxspeed": "50", "name": "Avenue Pierre Brossolette", "name:etymology:wikidata": "Q680881", "old_ref": "N 306", "ref": "D 906", "shoulder": "no", "sidewalk:left": "separate", "sidewalk:right": "yes", "sidewalk:right:surface": "asphalt", "source": "opendata.hauts-de-seine.net 2012", "surface": "asphalt", "tunnel": "yes", "length": 43.67102667965948}}, {"type": "Feature", "geometry": {"type": "LineString", "coordinates": [[2.2394929, 48.8903212], [2.2392515, 48.890233], [2.2389994, 48.8901342], [2.238671, 48.8900071]]}, "properties": {"highway": "secondary", "layer": "-4", "lit": "24/7", "maxheight": "4.10", "oneway": "yes", "ref": "D 913", "surface": "asphalt", "tunnel": "yes", "length": 69.66783394799866}}, {"type": "Feature", "geometry": {"type": "LineString", "coordinates": [[2.2097531, 48.9002431], [2.2083283, 48.9005736], [2.2070719, 48.9008638], [2.2057099, 48.9011452], [2.2048682, 48.9013234], [2.2036209, 48.9016176], [2.202637, 48.9018733], [2.2021056, 48.9020416], [2.2013403, 48.9022824], [2.2006338, 48.9025428], [2.2003228, 48.9026627]]}, "properties": {"destination": "Rouen p\u00e9age;Saint Germain en Laye", "destination:ref": "A 14;A 86", "hazmat:E": "no", "hgv:conditional": "no @ (weight>3.5)", "highway": "motorway", "lanes": "2", "layer": "-2", "lit": "24/7", "maxspeed": "70", "name": "Tunnel de la D\u00e9fense", "oneway": "yes", "operator": "DIRIF", "ref": "A 14", "source": "extrapolation", "toll": "no", "tunnel": "yes", "length": 743.6156954962901}}, {"type": "Feature", "geometry": {"type": "LineString", "coordinates": [[2.2263307, 48.8956715], [2.2235405, 48.8965814], [2.221722, 48.8971527], [2.2205955, 48.8975001], [2.2183773, 48.8981119], [2.2157682, 48.8987828], [2.214709, 48.8990677], [2.2134969, 48.8993889], [2.2113144, 48.8998803]]}, "properties": {"hazmat:E": "no", "hgv:conditional": "no @ (weight>3.5)", "highway": "motorway", "lanes": "3", "layer": "-5", "lit": "24/7", "location": "underground", "maxspeed": "70", "name": "Tunnel de la D\u00e9fense", "oneway": "yes", "operator": "DIRIF", "ref": "A 14", "source": "yahoo;extrapolation;guess", "toll": "no", "tunnel": "yes", "length": 1197.5103480550044}}, {"type": "Feature", "geometry": {"type": "LineString", "coordinates": [[2.2062942, 48.9035669], [2.2086797, 48.9048924]]}, "properties": {"hazmat": "no", "highway": "motorway", "lanes": "3", "layer": "-1", "lit": "yes", "maxspeed": "70", "oneway": "yes", "operator": "DIRIF", "ref": "A 86", "surface": "asphalt", "toll": "no", "tunnel": "yes", "length": 228.7215822720231}}, {"type": "Feature", "geometry": {"type": "LineString", "coordinates": [[2.203462, 48.9026376], [2.2031316, 48.9024873], [2.2029653, 48.902453], [2.2027776, 48.90243], [2.2025657, 48.9024441], [2.2023618, 48.9024882], [2.2018817, 48.9026363], [2.2015437, 48.9027174], [2.2010176, 48.9028087], [2.2004695, 48.9029129]]}, "properties": {"destination": "Poissy;Rouen;La D\u00e9fense;Paris-Pte Maillot", "destination:ref": "A\u00a014", "hazmat": "no", "highway": "motorway_link", "lanes": "2", "layer": "-3", "lit": "yes", "loc_name": "B4", "maxspeed": "50", "nat_ref": "92A901402_3D", "oneway": "yes", "operator": "DIRIF", "source": "DIRIF", "surface": "paved", "tunnel": "yes", "length": 234.48582287955355}}, {"type": "Feature", "geometry": {"type": "LineString", "coordinates": [[2.2095841, 48.9000698], [2.211224, 48.8997322]]}, "properties": {"hazmat:E": "no", "hgv:conditional": "no @ (weight>3.5)", "highway": "motorway", "lanes": "4", "layer": "-2", "lit": "24/7", "maxspeed": "70", "name": "Tunnel de la D\u00e9fense", "oneway": "yes", "operator": "DIRIF", "ref": "A 14", "source": "extrapolation", "surface": "asphalt", "toll": "no", "tunnel": "yes", "length": 125.95998097044958}}, {"type": "Feature", "geometry": {"type": "LineString", "coordinates": [[2.2262506, 48.8954643], [2.2271163, 48.8952003], [2.2279716, 48.8949374], [2.2390237, 48.8911161], [2.2434117, 48.8899587], [2.2468015, 48.8889376], [2.2492576, 48.8881757], [2.2501726, 48.8878808]]}, "properties": {"hazmat:E": "no", "hgv:conditional": "no @ (weight>3.5)", "highway": "motorway", "lanes": "2", "layer": "-5", "lit": "24/7", "maxspeed": "70", "name": "Tunnel de la D\u00e9fense", "oneway": "yes", "operator": "DIRIF", "ref": "N 1014", "source": "yahoo;extrapolation;guess", "toll": "no", "tunnel": "yes", "length": 1947.8245529454766}}, {"type": "Feature", "geometry": {"type": "LineString", "coordinates": [[2.2419362, 48.889867], [2.2421084, 48.8901038], [2.2421521, 48.8901638], [2.2422154, 48.8902488]]}, "properties": {"covered": "yes", "cycleway:right": "lane", "cycleway:temporary": "yes", "description:covid19": "piste cyclable temporaire", "highway": "secondary", "layer": "-1", "maxheight": "4.10", "name": "Avenue Jean Moulin", "oneway": "yes", "ref": "D 9", "surface": "asphalt", "tunnel": "yes", "length": 47.13819954028412}}, {"type": "Feature", "geometry": {"type": "LineString", "coordinates": [[2.4292241, 48.8692454], [2.4284356, 48.8685497], [2.4279188, 48.8681173], [2.4273362, 48.8677475], [2.4269276, 48.8675208], [2.426477, 48.8673133]]}, "properties": {"busway:right": "lane", "highway": "motorway", "int_ref": "E 15", "lanes": "4", "layer": "-1", "lit": "24/7", "maxspeed": "70", "oneway": "yes", "operator": "DIRIF", "ref": "A 3", "toll": "no", "tunnel": "yes", "length": 296.63595048585717}}, {"type": "Feature", "geometry": {"type": "LineString", "coordinates": [[2.1982826, 48.8981019], [2.1991673, 48.8987502], [2.1996072, 48.8991241], [2.2016367, 48.9008103]]}, "properties": {"hazmat:E": "no", "highway": "motorway", "lanes": "2", "layer": "-4", "lit": "24/7", "maxspeed": "70", "name": "Tunnel de Nanterre", "oneway": "yes", "operator": "DIRIF", "ref": "A 86", "surface": "asphalt", "toll": "no", "tunnel": "yes", "length": 388.98892782770736}}, {"type": "Feature", "geometry": {"type": "LineString", "coordinates": [[2.2844696, 48.8836949], [2.2839514, 48.8832709]]}, "properties": {"bicycle": "no", "foot": "no", "hazmat:E": "no", "highway": "trunk", "horse": "no", "lanes": "4", "layer": "-1", "lit": "yes", "maxspeed": "70", "motorroad": "no", "name": "Boulevard P\u00e9riph\u00e9rique Ext\u00e9rieur", "official_ref": "75000C02", "oneway": "yes", "operator": "VILLE DE PARIS", "smoothness": "excellent", "start_date": "1973-04-25", "surface": "asphalt", "toll": "no", "tunnel": "yes", "zone:traffic": "FR:urban", "length": 60.5620660379229}}, {"type": "Feature", "geometry": {"type": "LineString", "coordinates": [[2.249725, 48.8873624], [2.2500033, 48.8874662], [2.2501161, 48.8875292], [2.2502354, 48.887616], [2.2503354, 48.8877098], [2.2504674, 48.8878609], [2.2505419, 48.8879547], [2.2506036, 48.8881129], [2.2506484, 48.8882753], [2.2506994, 48.8885174], [2.2507399, 48.8887106], [2.2507569, 48.8888715], [2.250773, 48.8893459], [2.2507757, 48.889457], [2.2507918, 48.8895566], [2.2508159, 48.8896228], [2.2508508, 48.8896933], [2.2508964, 48.8897559], [2.250914, 48.8897748], [2.2509332, 48.8897935]]}, "properties": {"bicycle": "no", "foot": "no", "highway": "secondary", "lanes": "1", "layer": "-1", "maxheight": "4", "maxspeed": "30", "maxweight": "19", "name": "Chauss\u00e9e Basse", "oneway": "yes", "ref": "D 106", "surface": "asphalt", "tunnel": "yes", "length": 299.3506808224846}}, {"type": "Feature", "geometry": {"type": "LineString", "coordinates": [[2.2014239, 48.9009229], [2.1978118, 48.8979886]]}, "properties": {"hazmat:E": "no", "highway": "motorway", "lanes": "2", "layer": "-4", "lit": "24/7", "maxspeed": "70", "name": "Tunnel de Nanterre", "oneway": "yes", "operator": "DIRIF", "ref": "A 86", "surface": "asphalt", "toll": "no", "tunnel": "yes", "length": 420.26253789417757}}, {"type": "Feature", "geometry": {"type": "LineString", "coordinates": [[2.3849076, 48.8253059], [2.3848513, 48.8252194], [2.3847906, 48.8250195], [2.3847205, 48.8247041]]}, "properties": {"bicycle": "no", "draft": "yes", "foot": "no", "highway": "trunk_link", "horse": "no", "lanes": "2", "layer": "-1", "lit": "yes", "official_name": "Voie DU/13", "oneway": "yes", "smoothness": "excellent", "surface": "asphalt", "tunnel": "yes", "length": 68.59274954297112}}, {"type": "Feature", "geometry": {"type": "LineString", "coordinates": [[2.300895, 48.8253872], [2.3014009, 48.8252667]]}, "properties": {"bicycle": "no", "foot": "no", "hazmat:E": "no", "highway": "trunk_link", "horse": "no", "layer": "-1", "lit": "yes", "maxheight": "default", "motorroad": "no", "official_name": "Voie AP/14", "oneway": "yes", "sidewalk": "no", "smoothness": "excellent", "start_date": "1962-09", "surface": "asphalt", "tunnel": "yes", "length": 39.490007890050556}}, {"type": "Feature", "geometry": {"type": "LineString", "coordinates": [[2.2547731, 48.8437114], [2.254997, 48.8442889], [2.2550821, 48.8448694], [2.2550934, 48.8450954], [2.2551146, 48.8455167]]}, "properties": {"bicycle": "no", "foot": "no", "hazmat:E": "no", "highway": "trunk", "horse": "no", "int_ref": "E 05", "lanes": "4", "layer": "-1", "lit": "24/7", "maxheight": "4.75", "maxspeed": "70", "motorroad": "no", "name": "Boulevard P\u00e9riph\u00e9rique Int\u00e9rieur", "official_ref": "75000C01", "oneway": "yes", "operator": "VILLE DE PARIS", "smoothness": "excellent", "start_date": "1972-01-20", "surface": "asphalt", "toll": "no", "tunnel": "yes", "zone:traffic": "FR:urban", "length": 203.17191209723086}}, {"type": "Feature", "geometry": {"type": "LineString", "coordinates": [[2.3543526, 48.81321], [2.3551534, 48.8138773]]}, "properties": {"hazmat:E": "no", "highway": "motorway_link", "junction:ref": "1", "layer": "-1", "lit": "24/7", "nat_ref": "94A9006B1_1D", "oneway": "yes", "operator": "DIRIF", "tunnel": "yes", "length": 94.68862864970079}}, {"type": "Feature", "geometry": {"type": "LineString", "coordinates": [[2.3543526, 48.81321], [2.3546898, 48.8135077], [2.3550909, 48.8138987]]}, "properties": {"cutting": "yes", "hazmat:E": "no", "highway": "motorway", "int_ref": "E 15;E 50", "lanes": "2", "layer": "-1", "maxspeed": "50", "name": "Tunnel de Bic\u00eatre", "oneway": "yes", "operator": "DIRIF", "ref": "A 6b", "source:maxspeed": "sign", "start_date": "1972", "toll": "no", "tunnel": "yes", "length": 93.86521132272}}, {"type": "Feature", "geometry": {"type": "LineString", "coordinates": [[2.2291988, 48.7707817], [2.2291747, 48.7702062]]}, "properties": {"highway": "trunk_link", "lanes": "1", "layer": "-1", "maxspeed": "50", "motorroad": "yes", "name": "Route de Paris", "oneway": "yes", "operator": "DIRIF", "ref": "N 306", "source:maxspeed": "sign", "source:ref": "https://www.data.gouv.fr/fr/datasets/liaisons-du-reseau-routier-national/", "surface": "asphalt", "tunnel": "yes", "length": 64.02315776540449}}, {"type": "Feature", "geometry": {"type": "LineString", "coordinates": [[2.2291463, 48.7708436], [2.2291105, 48.7703043]]}, "properties": {"cycleway:right": "no", "highway": "tertiary", "lanes": "1", "layer": "-1", "maxspeed": "50", "name": "Rue de Paris", "oneway": "yes", "ref": "D 533", "source:maxspeed": "sign", "surface": "asphalt", "tunnel": "yes", "length": 60.03072071221092}}, {"type": "Feature", "geometry": {"type": "LineString", "coordinates": [[2.1993457, 48.902505], [2.1994007, 48.9024186], [2.199516, 48.9021779], [2.1995763, 48.9020131], [2.1995978, 48.9018799], [2.19963, 48.9017124], [2.1996796, 48.9015114], [2.1997547, 48.9013184], [2.1998633, 48.9011279], [2.1999217, 48.9010098], [2.1999805, 48.9009032], [2.2001224, 48.9007912], [2.200317, 48.9006753], [2.2004994, 48.9006087], [2.2007305, 48.9005794]]}, "properties": {"highway": "motorway_link", "layer": "-4", "loc_name": "B5", "nat_ref": "92A901402_5D", "oneway": "yes", "operator": "DIRIF", "tunnel": "yes", "length": 252.87850365557583}}, {"type": "Feature", "geometry": {"type": "LineString", "coordinates": [[2.2410455, 48.8896418], [2.2410493, 48.8896254], [2.2410636, 48.8896012], [2.2412138, 48.8894131]]}, "properties": {"covered": "yes", "cycleway:right": "lane", "cycleway:temporary": "yes", "description:covid19": "piste cyclable temporaire", "highway": "secondary", "lanes": "2", "layer": "-1", "maxheight": "4.10", "oneway": "yes", "ref": "D 9", "surface": "asphalt", "tunnel": "yes", "length": 28.374196411787132}}, {"type": "Feature", "geometry": {"type": "LineString", "coordinates": [[2.2512515, 48.8879114], [2.2509053, 48.8880245], [2.2505735, 48.8881329], [2.250525, 48.8881458], [2.2504591, 48.8881611], [2.2503831, 48.8881756], [2.2502557, 48.8881929], [2.2499915, 48.8882194], [2.2499527, 48.8882241], [2.2499038, 48.888232], [2.2498536, 48.8882425]]}, "properties": {"hgv:conditional": "no @ (weight>3.5)", "highway": "motorway_link", "lanes": "1", "layer": "-5", "lit": "yes", "maxheight": "4.30", "nat_ref": "92N901401_1D", "oneway": "yes", "operator": "DIRIF", "source": "opendata.hauts-de-seine.net 2012", "surface": "asphalt", "tunnel": "yes", "length": 109.83390535353604}}, {"type": "Feature", "geometry": {"type": "LineString", "coordinates": [[2.4019933, 48.8012333], [2.4022357, 48.801364]]}, "properties": {"highway": "secondary", "lanes": "2", "maxheight": "default", "name": "Avenue Anatole France", "ref": "D 155", "sidewalk": "separate", "surface": "asphalt", "tunnel": "yes", "length": 22.985962657846358}}, {"type": "Feature", "geometry": {"type": "LineString", "coordinates": [[2.3309105, 48.8621439], [2.3315419, 48.8630051]]}, "properties": {"bicycle": "no", "cycleway": "no", "hazmat": "no", "highway": "secondary", "layer": "-1", "lit": "24/7", "maxspeed": "30", "name": "Avenue du G\u00e9n\u00e9ral Lemonnier", "name:ru": "\u043f\u0440\u043e\u0441\u043f\u0435\u043a\u0442 \u0416\u0435\u043d\u0435\u0440\u0430\u043b\u044c \u041b\u0435\u043c\u043e\u043d\u044c\u0435", "oneway": "yes", "ref:FR:FANTOIR": "751014064T", "surface": "asphalt", "tunnel": "yes", "wikidata": "Q2874152", "length": 106.3881433875488}}, {"type": "Feature", "geometry": {"type": "LineString", "coordinates": [[2.4392311, 48.7745498], [2.4391477, 48.7748279]]}, "properties": {"bicycle": "no", "foot": "no", "highway": "primary", "horse": "no", "lanes": "4", "layer": "-1", "lit": "no", "maxheight": "3.9", "maxspeed": "50", "motorroad": "no", "name": "Avenue du Mar\u00e9chal Foch", "operator": "DIRIF", "ref": "N 6", "source:maxspeed": "FR:urban", "surface": "asphalt", "tunnel": "yes", "length": 31.52788701540203}}, {"type": "Feature", "geometry": {"type": "LineString", "coordinates": [[2.2636284, 48.8602937], [2.2639384, 48.8608612]]}, "properties": {"bicycle": "no", "foot": "no", "hazmat:E": "no", "highway": "trunk", "horse": "no", "lanes": "5", "layer": "-1", "lit": "yes", "maxspeed": "70", "motorroad": "no", "name": "Boulevard P\u00e9riph\u00e9rique Int\u00e9rieur", "official_ref": "75000C01", "oneway": "yes", "operator": "VILLE DE PARIS", "smoothness": "excellent", "start_date": "1972-01-20", "surface": "asphalt", "toll": "no", "tunnel": "yes", "zone:traffic": "FR:urban", "length": 67.0840854880446}}, {"type": "Feature", "geometry": {"type": "LineString", "coordinates": [[2.3077652, 48.9173184], [2.3079741, 48.9170124]]}, "properties": {"hazmat:E": "no", "highway": "trunk", "lanes": "1", "layer": "-1", "maxspeed": "70", "motorroad": "yes", "oneway": "yes", "operator": "DIRIF", "ref": "N 315", "smoothness": "excellent", "surface": "asphalt", "tunnel": "yes", "wikidata": "Q2169701", "length": 37.315465652906994}}, {"type": "Feature", "geometry": {"type": "LineString", "coordinates": [[2.2794985, 48.8775503], [2.278916, 48.8769343]]}, "properties": {"destination": "vers A1 - A\u00e9roport Ch. de Gaulle;p\u00e9riph\u00e9rique int\u00e9rieur;Pte de Champeter;Pte de la Chapelle", "hazmat:E": "no", "highway": "trunk_link", "layer": "-1", "lit": "yes", "maxspeed": "30", "nat_ref": "75Periph_Paris_03_4D", "official_name": "Voie AT/16", "oneway": "yes", "operator": "VILLE DE PARIS", "tunnel": "yes", "zone:traffic": "FR:urban", "length": 80.73646426771656}}, {"type": "Feature", "geometry": {"type": "LineString", "coordinates": [[2.260423, 48.8579182], [2.2605378, 48.8579593], [2.2607, 48.8579963], [2.2608807, 48.8580259]]}, "properties": {"bicycle": "no", "destination": "Porte de Passy", "foot": "no", "hazmat:E": "no", "highway": "trunk_link", "horse": "no", "layer": "-1", "lit": "24/7", "maxspeed": "30", "motorroad": "no", "official_name": "Voie BP/16", "oneway": "yes", "smoothness": "excellent", "source:maxspeed": "sign", "start_date": "1972-01-20", "surface": "asphalt", "tunnel": "yes", "length": 35.83955081889083}}, {"type": "Feature", "geometry": {"type": "LineString", "coordinates": [[2.2434062, 48.8482366], [2.2436944, 48.8482286]]}, "properties": {"hazmat:E": "no", "highway": "motorway_link", "layer": "-1", "lit": "24/7", "maxspeed": "30", "nat_ref": "75A901301_1D", "official_name": "Voie CM/16", "oneway": "yes", "operator": "DIRIF", "source:maxspeed": "sign", "tunnel": "yes", "length": 21.170809876129606}}, {"type": "Feature", "geometry": {"type": "LineString", "coordinates": [[2.2573962, 48.8360588], [2.2567939, 48.8364014], [2.2559564, 48.8371222]]}, "properties": {"bicycle": "no", "foot": "no", "hazmat:E": "no", "highway": "trunk_link", "horse": "no", "layer": "-1", "lit": "yes", "maxspeed": "30", "motorroad": "no", "official_name": "Voie CB/16", "oneway": "yes", "smoothness": "excellent", "source:maxspeed": "sign", "start_date": "1970-04", "surface": "asphalt", "tunnel": "yes", "length": 159.38686712494263}}, {"type": "Feature", "geometry": {"type": "LineString", "coordinates": [[2.3394883, 48.8093862], [2.3391334, 48.8091684]]}, "properties": {"cycleway:right": "track", "highway": "tertiary", "lanes": "1", "layer": "-1", "maxheight": "3.9", "name": "Rue Henri Barbusse", "oneway": "yes", "ref": "D 258b", "sidewalk": "separate", "surface": "asphalt", "tunnel": "yes", "length": 35.58321175933317}}, {"type": "Feature", "geometry": {"type": "LineString", "coordinates": [[2.292364, 48.8275727], [2.2918451, 48.8277207]]}, "properties": {"bicycle": "no", "foot": "no", "hazmat:E": "no", "highway": "trunk", "horse": "no", "int_ref": "E 05", "lanes": "3", "layer": "-1", "lit": "yes", "maxheight": "4.75", "maxspeed": "70", "motorroad": "no", "name": "Boulevard P\u00e9riph\u00e9rique Int\u00e9rieur", "official_ref": "75000C01", "oneway": "yes", "operator": "VILLE DE PARIS", "sidewalk": "no", "smoothness": "excellent", "source": "bing", "start_date": "1964-09-30", "surface": "asphalt", "toll": "no", "tunnel": "yes", "zone:traffic": "FR:urban", "length": 41.50264283867543}}, {"type": "Feature", "geometry": {"type": "LineString", "coordinates": [[2.2926718, 48.8273672], [2.2930504, 48.8272578]]}, "properties": {"bicycle": "no", "foot": "no", "hazmat:E": "no", "highway": "trunk", "horse": "no", "int_ref": "E 05", "lanes": "3", "layer": "-1", "lit": "yes", "maxheight": "4.75", "maxspeed": "70", "motorroad": "no", "name": "Boulevard P\u00e9riph\u00e9rique Ext\u00e9rieur", "official_ref": "75000C02", "oneway": "yes", "operator": "VILLE DE PARIS", "sidewalk": "no", "smoothness": "excellent", "source": "bing", "start_date": "1964-09-30", "surface": "asphalt", "toll": "no", "tunnel": "yes", "zone:traffic": "FR:urban", "length": 30.344141201072684}}, {"type": "Feature", "geometry": {"type": "LineString", "coordinates": [[2.2512441, 48.8878006], [2.2508105, 48.8879384], [2.250521, 48.8880304], [2.2498536, 48.8882425]]}, "properties": {"hazmat:E": "no", "hgv:conditional": "no @ (weight>3.5)", "highway": "motorway", "lanes": "3", "layer": "-4", "lit": "24/7", "maxspeed": "70", "name": "Tunnel de la D\u00e9fense", "oneway": "yes", "operator": "DIRIF", "ref": "N 1014", "source": "yahoo;extrapolation;guess", "toll": "no", "tunnel": "yes", "length": 113.19693348204768}}, {"type": "Feature", "geometry": {"type": "LineString", "coordinates": [[2.2933261, 48.8885374], [2.2935542, 48.8885964], [2.29375, 48.888644], [2.2939317, 48.8886836]]}, "properties": {"bicycle": "no", "foot": "no", "hazmat:E": "no", "highway": "trunk", "horse": "no", "lanes": "4", "layer": "-1", "lit": "yes", "maxspeed": "70", "motorroad": "no", "name": "Boulevard P\u00e9riph\u00e9rique Int\u00e9rieur", "official_ref": "75000C01", "oneway": "yes", "operator": "VILLE DE PARIS", "smoothness": "excellent", "start_date": "1973-04-25", "surface": "asphalt", "toll": "no", "tunnel": "yes", "zone:traffic": "FR:urban", "length": 47.30586000371772}}, {"type": "Feature", "geometry": {"type": "LineString", "coordinates": [[2.2501726, 48.8878808], [2.2511011, 48.8876219]]}, "properties": {"hazmat:E": "no", "hgv:conditional": "no @ (weight>3.5)", "highway": "motorway", "lanes": "2", "layer": "-5", "lit": "24/7", "maxspeed": "70", "name": "Tunnel de la D\u00e9fense", "oneway": "yes", "operator": "DIRIF", "ref": "N 1014", "source": "yahoo;extrapolation;guess", "toll": "no", "tunnel": "yes", "length": 73.92938544211025}}, {"type": "Feature", "geometry": {"type": "LineString", "coordinates": [[2.3858425, 48.8980227], [2.3855278, 48.8976943]]}, "properties": {"cycleway:right": "track", "dual_carriageway": "yes", "highway": "primary", "lanes": "3", "layer": "-1", "lit": "yes", "maxspeed": "30", "name": "Avenue Corentin Cariou", "oneway": "yes", "surface": "asphalt", "tunnel": "yes", "length": 43.199254384332924}}, {"type": "Feature", "geometry": {"type": "LineString", "coordinates": [[2.2277509, 48.8853503], [2.2275196, 48.8852815], [2.2273453, 48.8852427], [2.2271521, 48.8852088], [2.2269429, 48.8851863], [2.2266988, 48.8851836], [2.2264801, 48.8851895]]}, "properties": {"cycleway:left": "no", "cycleway:right": "track", "description:covid19": "Piste cyclable temporaire", "foot": "no", "highway": "primary", "lanes": "2", "lit": "yes", "maxheight": "4.5", "maxspeed": "50", "name": "Avenue du Pr\u00e9sident Wilson", "old_name": "Route Imp\u00e9riale No 15 de Paris \u00e0 Saint Germain;Route Imp\u00e9riale No 13 de Cherbourg \u00e0 Paris", "oneway": "yes", "parking:lane:both": "no", "ref": "D 913", "shoulder": "no", "sidewalk": "no", "source": "survey;bing", "surface": "asphalt", "tunnel": "yes", "length": 96.2659650920674}}, {"type": "Feature", "geometry": {"type": "LineString", "coordinates": [[2.2342175, 48.8924967], [2.2341889, 48.8923898], [2.2341504, 48.8922404], [2.2341333, 48.8921296], [2.2341259, 48.8920398]]}, "properties": {"covered": "yes", "foot": "no", "highway": "primary", "lanes": "2", "layer": "-1", "maxspeed": "50", "name": "Boulevard Patrick Devedjian", "old_name": "Boulevard Circulaire", "old_ref": "N 13", "oneway": "yes", "ref": "D 993", "source": "yahoo", "surface": "asphalt", "tunnel": "yes", "length": 51.31087337158987}}, {"type": "Feature", "geometry": {"type": "LineString", "coordinates": [[2.2343629, 48.8919231], [2.2343622, 48.8920254], [2.234324, 48.8922296]]}, "properties": {"covered": "yes", "highway": "tertiary", "layer": "-1", "name": "Route de la Demi-Lune", "oneway": "yes", "tunnel": "yes", "length": 34.25737623511978}}, {"type": "Feature", "geometry": {"type": "LineString", "coordinates": [[2.2466625, 48.8892123], [2.2456232, 48.889528], [2.2451186, 48.8896849], [2.2449647, 48.8897356], [2.2447977, 48.8897846], [2.2446281, 48.8898344], [2.2445181, 48.8898688], [2.2436075, 48.8901501]]}, "properties": {"destination": "Rouen p\u00e9age;Saint Germain en Laye;Cergy-Pontoise", "hazmat:E": "no", "hgv:conditional": "no @ (weight>3.5)", "highway": "motorway", "layer": "-4", "lit": "24/7", "maxspeed": "70", "name": "Tunnel de la D\u00e9fense", "oneway": "yes", "operator": "DIRIF", "ref": "N 1014", "source": "yahoo;extrapolation;guess", "toll": "no", "tunnel": "yes", "length": 247.1283599190694}}, {"type": "Feature", "geometry": {"type": "LineString", "coordinates": [[2.2498536, 48.8882425], [2.24945, 48.8883609], [2.2491798, 48.8884434], [2.2486494, 48.8886074], [2.2478682, 48.8888446], [2.2473203, 48.8890099], [2.2471923, 48.8890487], [2.2471405, 48.8890671], [2.2470468, 48.8890955], [2.2468161, 48.8891651], [2.2466625, 48.8892123]]}, "properties": {"hazmat:E": "no", "hgv:conditional": "no @ (weight>3.5)", "highway": "motorway", "lanes": "3", "layer": "-4", "lit": "24/7", "maxspeed": "70", "name": "Tunnel de la D\u00e9fense", "oneway": "yes", "operator": "DIRIF", "ref": "N 1014", "source": "yahoo;extrapolation;guess", "toll": "no", "tunnel": "yes", "length": 257.6866816752767}}, {"type": "Feature", "geometry": {"type": "LineString", "coordinates": [[2.2894471, 48.9031895], [2.2900433, 48.9035091]]}, "properties": {"bicycle": "no", "flood_prone": "yes", "foot": "no", "hazmat": "no", "highway": "primary", "lanes": "2", "lit": "yes", "maxspeed": "50", "smoothness": "excellent", "surface": "asphalt", "tunnel": "yes", "length": 56.33600344320609}}, {"type": "Feature", "geometry": {"type": "LineString", "coordinates": [[2.1992744, 48.8987846], [2.1996206, 48.8990985], [2.2001937, 48.8994978], [2.2008736, 48.899964]]}, "properties": {"destination": "A14 Rouen P\u00e9age", "destination:ref": "D 986", "highway": "motorway_link", "lanes": "1", "layer": "-4", "lit": "yes", "maxspeed": "50", "nat_ref": "92A901402_8D", "oneway": "yes", "operator": "DIRIF", "source": "extrapolation;bing;survey", "surface": "paved", "tunnel": "yes", "length": 176.21844495613772}}, {"type": "Feature", "geometry": {"type": "LineString", "coordinates": [[2.4372187, 48.9123679], [2.4403354, 48.9113044], [2.4430345, 48.910425], [2.4455598, 48.909709], [2.4471381, 48.9092756], [2.4494989, 48.9086144], [2.450879, 48.9082278], [2.4518731, 48.9079494], [2.4549154, 48.9071555]]}, "properties": {"hazmat:E": "no", "highway": "motorway", "lanes": "3", "layer": "-2", "lit": "24/7", "maxspeed": "70", "name": "Tunnel de Bobigny", "oneway": "yes", "operator": "DIRIF", "ref": "A 86", "toll": "no", "tunnel": "yes", "length": 1421.7991130694263}}, {"type": "Feature", "geometry": {"type": "LineString", "coordinates": [[2.3885267, 48.8366783], [2.3898862, 48.837016], [2.3899336, 48.8370279], [2.3899413, 48.8370297]]}, "properties": {"alt_name": "Tunnel Prudhon", "cycleway": "track", "highway": "secondary", "lanes": "2", "layer": "-2", "lit": "yes", "maxheight": "3.9", "maxspeed": "30", "name": "Rue Proudhon", "name:etymology:wikidata": "Q5749", "sidewalk": "both", "surface": "asphalt", "tunnel": "yes", "length": 110.9558868751606}}, {"type": "Feature", "geometry": {"type": "LineString", "coordinates": [[2.3881176, 48.8365766], [2.3884353, 48.8366555]]}, "properties": {"alt_name": "Tunnel Prudhon", "cycleway": "track", "highway": "secondary", "lanes": "2", "layer": "-2", "lit": "yes", "maxheight": "3.9", "maxspeed": "30", "name": "Rue Proudhon", "name:etymology:wikidata": "Q5749", "sidewalk": "both", "surface": "asphalt", "tunnel": "yes", "length": 24.9184909520006}}, {"type": "Feature", "geometry": {"type": "LineString", "coordinates": [[2.465052, 48.8839384], [2.4651503, 48.8836952]]}, "properties": {"highway": "tertiary", "layer": "-1", "maxheight": "default", "maxspeed": "50", "name": "Rue de Neuilly", "sidewalk": "both", "source:maxspeed": "FR:urban", "surface": "asphalt", "tunnel": "yes", "length": 27.9900819403938}}, {"type": "Feature", "geometry": {"type": "LineString", "coordinates": [[2.2015737, 48.9005461], [2.2017723, 48.9005927], [2.2019405, 48.9006473], [2.2022466, 48.9007646], [2.2025608, 48.9009898], [2.2031739, 48.9014761], [2.203628, 48.9017752], [2.2039198, 48.9019981]]}, "properties": {"highway": "motorway_link", "layer": "-4", "loc_name": "B5", "nat_ref": "92A901402_5D", "oneway": "yes", "operator": "DIRIF", "tunnel": "yes", "length": 239.31400312490666}}, {"type": "Feature", "geometry": {"type": "LineString", "coordinates": [[2.2007305, 48.9005794], [2.2010183, 48.9005301], [2.2011845, 48.9005194], [2.2014196, 48.9005261], [2.2015737, 48.9005461]]}, "properties": {"highway": "motorway_link", "layer": "-5", "loc_name": "B5", "nat_ref": "92A901402_5D", "oneway": "yes", "operator": "DIRIF", "tunnel": "yes", "length": 62.81274282734944}}, {"type": "Feature", "geometry": {"type": "LineString", "coordinates": [[2.3565606, 48.8159754], [2.3562484, 48.8155347]]}, "properties": {"hazmat:E": "no", "highway": "motorway", "int_ref": "E 15;E 50", "lanes": "2", "layer": "-1", "lit": "yes", "maxspeed": "50", "name": "Tunnel d'Italie", "oneway": "yes", "operator": "DIRIF", "ref": "A 6b", "sidewalk": "no", "source:maxspeed": "sign", "start_date": "1972", "tunnel": "yes", "length": 54.10683095189685}}, {"type": "Feature", "geometry": {"type": "LineString", "coordinates": [[2.3568363, 48.8159857], [2.3569389, 48.8160156], [2.3570676, 48.8160369], [2.3574552, 48.8160414], [2.358583, 48.816044], [2.3591906, 48.8160508]]}, "properties": {"hazmat:E": "no", "highway": "motorway", "int_ref": "E 15;E 50", "lanes": "2", "layer": "-1", "lit": "yes", "maxspeed": "50", "name": "Tunnel d'Italie", "official_name": "Voie DG/13", "oneway": "yes", "operator": "DIRIF", "ref": "A 6b", "sidewalk": "no", "source:maxspeed": "sign", "start_date": "1972", "tunnel": "yes", "length": 173.9065139142437}}, {"type": "Feature", "geometry": {"type": "LineString", "coordinates": [[2.3371884, 48.8164732], [2.3371214, 48.8164008], [2.3370503, 48.8163328], [2.3369296, 48.8161509], [2.3368223, 48.8159283], [2.3366696, 48.8154161]]}, "properties": {"bicycle": "no", "foot": "no", "hazmat:E": "no", "highway": "motorway_link", "horse": "no", "lanes": "2", "layer": "-1", "lit": "yes", "maxheight": "default", "maxspeed": "50", "motorway": "yes", "nat_ref": "94A900601_1D", "oneway": "yes", "operator": "DIRIF", "overtaking:hgv": "no", "sidewalk": "no", "tunnel": "yes", "length": 124.74264318543548}}, {"type": "Feature", "geometry": {"type": "LineString", "coordinates": [[2.3360425, 48.8167554], [2.3362027, 48.8167187], [2.3363523, 48.8166754], [2.3364501, 48.8166291], [2.3365045, 48.8165871], [2.3365447, 48.8165434], [2.3366044, 48.8164617], [2.3366641, 48.8163447], [2.3366952, 48.8162513]]}, "properties": {"hazmat:E": "no", "highway": "motorway", "int_ref": "E 05", "lanes": "2", "layer": "-1", "lit": "yes", "maxspeed": "50", "name": "Tunnel d'Orl\u00e9ans", "oneway": "yes", "operator": "DIRIF", "ref": "A 6a", "sidewalk": "no", "start_date": "1960", "tunnel": "yes", "length": 79.57098817350938}}, {"type": "Feature", "geometry": {"type": "LineString", "coordinates": [[2.2806585, 48.8787409], [2.2800893, 48.8781282]]}, "properties": {"bicycle": "no", "foot": "no", "hazmat:E": "no", "highway": "trunk_link", "horse": "no", "lanes": "2", "layer": "-1", "lit": "yes", "maxspeed": "30", "motorroad": "no", "official_name": "Voie BI/17", "oneway": "yes", "smoothness": "excellent", "source:maxspeed": "sign", "start_date": "1973-04-25", "surface": "asphalt", "tunnel": "yes", "zone:traffic": "FR:urban", "length": 79.91079666888871}}, {"type": "Feature", "geometry": {"type": "LineString", "coordinates": [[2.2800235, 48.8767748], [2.2815052, 48.8786716], [2.2817576, 48.8789888], [2.2818484, 48.8790869], [2.2819453, 48.8791815], [2.2820486, 48.8792748], [2.2821498, 48.8793638], [2.2823458, 48.8795167]]}, "properties": {"bicycle": "no", "dual_carriageway": "yes", "foot": "no", "hazmat:E": "no", "highway": "primary", "lanes": "2", "layer": "-1", "lit": "24/7", "maxheight": "3.6", "maxspeed": "30", "maxweight": "3.5", "name": "Tunnel Grand-Maillot", "oneway": "yes", "surface": "asphalt", "tunnel": "yes", "length": 350.09290550761017}}, {"type": "Feature", "geometry": {"type": "LineString", "coordinates": [[2.2822836, 48.8795517], [2.2820865, 48.8793982], [2.2819852, 48.879314], [2.2818726, 48.8792126], [2.2817767, 48.8791186], [2.2816848, 48.8790199], [2.281434, 48.8786944], [2.2810186, 48.8781604], [2.2799497, 48.8768003]]}, "properties": {"bicycle": "no", "dual_carriageway": "yes", "foot": "no", "hazmat:E": "no", "highway": "primary", "lanes": "2", "layer": "-1", "lit": "24/7", "maxheight": "3.6", "maxspeed": "30", "maxweight": "3.5", "name": "Tunnel Grand-Maillot", "oneway": "yes", "surface": "asphalt", "survey:date": "2022/01/13", "tunnel": "yes", "length": 351.4975064850046}}, {"type": "Feature", "geometry": {"type": "LineString", "coordinates": [[2.321478, 48.820977], [2.3206644, 48.8211308]]}, "properties": {"bicycle": "no", "cycleway:both": "no", "dual_carriageway": "yes", "foot": "no", "hazmat:E": "no", "highway": "trunk", "horse": "no", "int_ref": "E 05", "lanes": "3", "layer": "-1", "lit": "yes", "maxheight": "default", "maxspeed": "70", "motorroad": "no", "name": "Boulevard P\u00e9riph\u00e9rique Int\u00e9rieur", "official_ref": "75000C01", "oneway": "yes", "operator": "VILLE DE PARIS", "sidewalk": "no", "smoothness": "excellent", "source": "Bing/Personal memory (as of 2015-07-29)", "start_date": "1960-04-12", "surface": "asphalt", "toll": "no", "tunnel": "yes", "zone:traffic": "FR:urban", "length": 62.1454844543788}}, {"type": "Feature", "geometry": {"type": "LineString", "coordinates": [[2.3243263, 48.8204154], [2.3239656, 48.8204937]]}, "properties": {"bicycle": "no", "cycleway:both": "no", "dual_carriageway": "yes", "foot": "no", "hazmat:E": "no", "highway": "trunk", "horse": "no", "int_ref": "E 05", "lanes": "3", "layer": "-1", "lit": "yes", "maxheight": "default", "maxspeed": "70", "motorroad": "no", "name": "Boulevard P\u00e9riph\u00e9rique Int\u00e9rieur", "official_ref": "75000C01", "oneway": "yes", "operator": "VILLE DE PARIS", "sidewalk": "no", "smoothness": "excellent", "source": "Bing/Personal memory (as of 2015-07-29)", "start_date": "1960-04-12", "surface": "asphalt", "toll": "no", "tunnel": "yes", "zone:traffic": "FR:urban", "length": 27.88231345706213}}, {"type": "Feature", "geometry": {"type": "LineString", "coordinates": [[2.3258893, 48.8200681], [2.3253083, 48.8201979]]}, "properties": {"bicycle": "no", "dual_carriageway": "yes", "foot": "no", "hazmat:E": "no", "highway": "trunk", "horse": "no", "int_ref": "E 05", "lanes": "3", "layer": "-1", "lit": "yes", "maxheight": "default", "maxspeed": "70", "motorroad": "no", "name": "Boulevard P\u00e9riph\u00e9rique Int\u00e9rieur", "official_ref": "75000C01", "oneway": "yes", "operator": "VILLE DE PARIS", "sidewalk": "no", "smoothness": "excellent", "source": "Bing/Personal memory (as of 2015-07-29)", "start_date": "1960-04-12", "surface": "asphalt", "toll": "no", "tunnel": "yes", "zone:traffic": "FR:urban", "length": 45.0412856842602}}, {"type": "Feature", "geometry": {"type": "LineString", "coordinates": [[2.320599, 48.821051], [2.3214227, 48.8208757]]}, "properties": {"bicycle": "no", "cycleway:both": "no", "dual_carriageway": "yes", "foot": "no", "hazmat:E": "no", "highway": "trunk", "horse": "no", "int_ref": "E 05", "lanes": "3", "layer": "-1", "lit": "yes", "maxheight": "default", "maxspeed": "70", "motorroad": "no", "name": "Boulevard P\u00e9riph\u00e9rique Ext\u00e9rieur", "official_ref": "75000C02", "oneway": "yes", "operator": "VILLE DE PARIS", "sidewalk": "no", "smoothness": "excellent", "source": "Bing/Personal memory (as of 2015-07-29)", "start_date": "1960-04-12", "surface": "asphalt", "toll": "no", "tunnel": "yes", "zone:traffic": "FR:urban", "length": 63.55117566223338}}, {"type": "Feature", "geometry": {"type": "LineString", "coordinates": [[2.323904, 48.8203747], [2.3242549, 48.8202956]]}, "properties": {"cycleway:both": "no", "dual_carriageway": "yes", "foot": "no", "hazmat:E": "no", "highway": "trunk", "horse": "no", "int_ref": "E 05", "lanes": "3", "layer": "-1", "lit": "yes", "maxheight": "default", "maxspeed": "70", "motorroad": "no", "name": "Boulevard P\u00e9riph\u00e9rique Ext\u00e9rieur", "official_ref": "75000C02", "oneway": "yes", "operator": "VILLE DE PARIS", "sidewalk": "no", "smoothness": "excellent", "source": "Bing/Personal memory (as of 2015-07-29)", "start_date": "1960-04-12", "surface": "asphalt", "toll": "no", "tunnel": "yes", "zone:traffic": "FR:urban", "length": 27.228246345105077}}, {"type": "Feature", "geometry": {"type": "LineString", "coordinates": [[2.3253173, 48.8200597], [2.3259048, 48.8199366]]}, "properties": {"bicycle": "no", "dual_carriageway": "yes", "foot": "no", "hazmat:E": "no", "highway": "trunk", "horse": "no", "int_ref": "E 05", "lanes": "3", "layer": "-1", "lit": "yes", "maxheight": "default", "maxspeed": "70", "motorroad": "no", "name": "Boulevard P\u00e9riph\u00e9rique Ext\u00e9rieur", "official_ref": "75000C02", "oneway": "yes", "operator": "VILLE DE PARIS", "sidewalk": "no", "smoothness": "excellent", "source": "Bing/Personal memory (as of 2015-07-29)", "start_date": "1960-04-12", "surface": "asphalt", "toll": "no", "tunnel": "yes", "zone:traffic": "FR:urban", "length": 45.26291489923066}}, {"type": "Feature", "geometry": {"type": "LineString", "coordinates": [[2.3141642, 48.8225463], [2.3149153, 48.8223789]]}, "properties": {"bicycle": "no", "dual_carriageway": "yes", "foot": "no", "hazmat:E": "no", "highway": "trunk", "horse": "no", "int_ref": "E 05", "lanes": "3", "layer": "-1", "lit": "yes", "maxheight": "4.75", "maxspeed": "70", "motorroad": "no", "name": "Boulevard P\u00e9riph\u00e9rique Ext\u00e9rieur", "official_ref": "75000C02", "oneway": "yes", "operator": "VILLE DE PARIS", "sidewalk": "no", "smoothness": "excellent", "source": "Bing/Personal memory (as of 2015-07-29)", "start_date": "1962-09", "surface": "asphalt", "toll": "no", "tunnel": "yes", "zone:traffic": "FR:urban", "length": 58.21135201250075}}]}