{"type": "FeatureCollection", "features": [{"type": "Feature", "geometry": {"type": "LineString", "coordinates": [[44.5094168, 48.7112278], [44.5096345, 48.7110287]]}, "properties": {"highway": "secondary", "layer": "-1", "maxspeed": "40", "surface": "asphalt", "tunnel": "yes", "length": 27.329440800329206}}, {"type": "Feature", "geometry": {"type": "LineString", "coordinates": [[44.4560466, 48.7986926], [44.4554365, 48.7986821]]}, "properties": {"highway": "primary", "lanes": "2", "layer": "-1", "maxspeed": "40", "oneway": "no", "surface": "asphalt", "tunnel": "yes", "length": 44.83695673973212}}, {"type": "Feature", "geometry": {"type": "LineString", "coordinates": [[44.5279417, 48.7242434], [44.5284944, 48.7241655]]}, "properties": {"highway": "secondary", "lanes": "3", "maxheight": "4.5 m", "maxheight:source": "sign", "maxspeed": "60", "name": "\u0443\u043b\u0438\u0446\u0430 7-\u0439 \u0413\u0432\u0430\u0440\u0434\u0435\u0439\u0441\u043a\u043e\u0439 \u0414\u0438\u0432\u0438\u0437\u0438\u0438", "oneway": "yes", "surface": "asphalt", "tunnel": "yes", "length": 41.5773519096082}}, {"type": "Feature", "geometry": {"type": "LineString", "coordinates": [[44.5285369, 48.724277], [44.52801, 48.7243395]]}, "properties": {"highway": "secondary", "lanes": "2", "maxheight": "4.5 m", "maxheight:source": "sign", "maxspeed": "60", "name": "\u0443\u043b\u0438\u0446\u0430 7-\u0439 \u0413\u0432\u0430\u0440\u0434\u0435\u0439\u0441\u043a\u043e\u0439 \u0414\u0438\u0432\u0438\u0437\u0438\u0438", "oneway": "yes", "source:turn:lanes": "sign", "surface": "asphalt", "tunnel": "yes", "turn:lanes": "left|through", "length": 39.38467070610599}}, {"type": "Feature", "geometry": {"type": "LineString", "coordinates": [[44.4700612, 48.6802573], [44.4686988, 48.6799674]]}, "properties": {"highway": "primary", "lanes": "3", "layer": "-1", "lit": "yes", "maxheight": "4.3", "maxspeed": "RU:urban", "name": "\u042d\u043b\u0435\u043a\u0442\u0440\u043e\u043b\u0435\u0441\u043e\u0432\u0441\u043a\u0430\u044f \u0443\u043b\u0438\u0446\u0430", "oneway": "yes", "smoothness": "excellent", "surface": "asphalt", "tunnel": "yes", "length": 105.37840284800399}}, {"type": "Feature", "geometry": {"type": "LineString", "coordinates": [[44.4687512, 48.6798677], [44.4701069, 48.6801586]]}, "properties": {"highway": "primary", "lanes": "3", "layer": "-1", "lit": "yes", "maxheight": "4.3 m", "maxspeed": "RU:urban", "name": "\u042d\u043b\u0435\u043a\u0442\u0440\u043e\u043b\u0435\u0441\u043e\u0432\u0441\u043a\u0430\u044f \u0443\u043b\u0438\u0446\u0430", "oneway": "yes", "smoothness": "excellent", "surface": "asphalt", "tunnel": "yes", "length": 104.94319543301407}}, {"type": "Feature", "geometry": {"type": "LineString", "coordinates": [[44.4647617, 48.6785038], [44.4640564, 48.677685]]}, "properties": {"highway": "primary", "lanes": "3", "layer": "-1", "lit": "yes", "maxspeed": "RU:urban", "oneway": "yes", "smoothness": "excellent", "surface": "asphalt", "tunnel": "yes", "length": 104.82591061826263}}, {"type": "Feature", "geometry": {"type": "LineString", "coordinates": [[44.4642298, 48.6776274], [44.4649012, 48.67844]]}, "properties": {"highway": "primary", "lanes": "3", "layer": "-1", "maxheight": "4.3 m", "maxspeed": "RU:urban", "oneway": "yes", "smoothness": "excellent", "surface": "asphalt", "tunnel": "yes", "length": 103.00629516245989}}]}