{"type": "FeatureCollection", "features": [{"type": "Feature", "geometry": {"type": "LineString", "coordinates": [[12.516767, 55.7057295], [12.5166115, 55.7059994], [12.5163626, 55.7062992], [12.5159402, 55.7066808], [12.515465, 55.7069967], [12.5148434, 55.7073341], [12.5148373, 55.7073369], [12.5146641, 55.7074178], [12.5142193, 55.7076256], [12.5136067, 55.7078954], [12.5128973, 55.7081352]]}, "properties": {"bicycle": "no", "foot": "no", "highway": "trunk", "horse": "no", "lanes": "2", "layer": "-1", "lit": "yes", "maxspeed": "70", "motorroad": "yes", "name": "Frederikssundsvejstunnelen", "oneway": "yes", "operator": "Vejdirektoratet", "operator:en": "The Danish Road Directorate", "operator:type": "public", "operator:wikidata": "Q1630101", "operator:wikipedia": "da:Vejdirektoratet", "operator:wikipedia:en": "Vejdirektoratet", "ref": "16", "shoulder": "right", "source:maxspeed": "sign", "surface": "asphalt", "tunnel": "yes", "length": 370.64756809794915}}, {"type": "Feature", "geometry": {"type": "LineString", "coordinates": [[12.6397674, 55.6303383], [12.6377767, 55.6305009]]}, "properties": {"highway": "motorway_link", "lanes": "2", "layer": "-1", "maxheight": "4.46", "oneway": "yes", "surface": "asphalt", "tunnel": "yes", "length": 126.6880488714055}}, {"type": "Feature", "geometry": {"type": "LineString", "coordinates": [[12.5545678, 55.7243098], [12.5544574, 55.7238969], [12.5543777, 55.7234629], [12.5544121, 55.7230242], [12.5544916, 55.7227313]]}, "properties": {"bicycle": "no", "foot": "no", "highway": "tertiary", "lanes": "2", "layer": "-1", "maxspeed": "60", "name": "Bernstorffsvej", "oneway": "yes", "sidewalk": "separate", "surface": "asphalt", "tunnel": "yes", "length": 176.95267644265266}}, {"type": "Feature", "geometry": {"type": "LineString", "coordinates": [[12.5128274, 55.7080656], [12.5135505, 55.7078057], [12.5140801, 55.7075778], [12.5153481, 55.706963], [12.5157852, 55.7066747], [12.5158136, 55.706656], [12.5160173, 55.7064439], [12.5162358, 55.706232], [12.5164257, 55.7059701], [12.5166166, 55.7056926]]}, "properties": {"bicycle": "no", "foot": "no", "highway": "trunk", "horse": "no", "lanes": "2", "layer": "-1", "lit": "yes", "maxspeed": "70", "motorroad": "yes", "name": "Frederikssundsvejstunnelen", "oneway": "yes", "operator": "Vejdirektoratet", "operator:en": "The Danish Road Directorate", "operator:type": "public", "operator:wikidata": "Q1630101", "operator:wikipedia": "da:Vejdirektoratet", "operator:wikipedia:en": "Vejdirektoratet", "ref": "16", "shoulder": "right", "source:maxspeed": "sign", "surface": "asphalt", "tunnel": "yes", "length": 364.6230467376047}}, {"type": "Feature", "geometry": {"type": "LineString", "coordinates": [[12.5991007, 55.6292823], [12.6101455, 55.6295758]]}, "properties": {"highway": "motorway", "int_ref": "E 20", "lanes": "2", "layer": "-1", "lit": "yes", "maxheight": "default", "maxspeed": "110", "maxspeed:variable": "yes", "name": "\u00d8resundsmotorvejen", "name:etymology:wikidata": "Q104662", "oneway": "yes", "operator": "\u00d8resundsbro Konsortiet I/S", "operator:wikidata": "Q12342037", "operator:wikipedia": "da:\u00d8resundsbro Konsortiet", "ref": "E 20", "source:maxspeed": "sign", "surface": "asphalt", "tunnel": "yes", "tunnel:name": "T\u00e5rnbytunnelsen", "length": 696.4618994756229}}, {"type": "Feature", "geometry": {"type": "LineString", "coordinates": [[12.6014618, 55.6295953], [12.5990645, 55.6295214]]}, "properties": {"highway": "motorway_link", "lane_markings": "no", "layer": "-1", "lit": "yes", "maxheight": "4.3", "maxspeed": "110", "oneway": "yes", "surface": "asphalt", "tunnel": "yes", "length": 151.22571500234872}}, {"type": "Feature", "geometry": {"type": "LineString", "coordinates": [[12.604975, 55.6293281], [12.6057276, 55.6293572], [12.6070167, 55.6293893], [12.6101492, 55.6295226]]}, "properties": {"highway": "motorway_link", "lanes": "1", "layer": "-1", "lit": "yes", "maxheight": "5.09", "maxspeed": "110", "oneway": "yes", "source:maxspeed": "sign", "surface": "asphalt", "tunnel": "yes", "length": 326.6615032156793}}, {"type": "Feature", "geometry": {"type": "LineString", "coordinates": [[12.5991269, 55.6291579], [12.6014932, 55.6292334]]}, "properties": {"destination:lanes": "Sundby|Drag\u00f8r", "destination:ref:lanes": "|221", "highway": "motorway_link", "lanes": "2", "layer": "-1", "lit": "yes", "maxheight": "5.13", "maxspeed": "110", "oneway": "yes", "surface": "asphalt", "tunnel": "yes", "turn:lanes": "left|right", "length": 149.28730783399592}}, {"type": "Feature", "geometry": {"type": "LineString", "coordinates": [[12.4327768, 55.6903548], [12.4336909, 55.6905746], [12.4342996, 55.6907806]]}, "properties": {"highway": "motorway", "lanes": "2", "layer": "-1", "maxheight": "4.44", "maxspeed": "90", "maxspeed:variable": "90", "name": "Frederikssundmotorvejen", "name:etymology:wikidata": "Q3223801", "official_ref": "M12", "oneway": "yes", "operator": "Vejdirektoratet", "operator:en": "The Danish Road Directorate", "operator:type": "public", "operator:wikidata": "Q1630101", "operator:wikipedia": "da:Vejdirektoratet", "operator:wikipedia:en": "Vejdirektoratet", "ref": "17", "source:maxspeed": "sign", "source:official_ref": "Vejdirektoratet (http://cvf.vd.dk/cvf/mapui.jsp)", "surface": "asphalt", "tunnel": "yes", "wikidata": "Q3359593", "length": 107.10608638640548}}, {"type": "Feature", "geometry": {"type": "LineString", "coordinates": [[12.6101322, 55.6297625], [12.606911, 55.629708], [12.6059079, 55.6297055], [12.6049243, 55.6296915]]}, "properties": {"destination": "T\u00e5rnby;Drag\u00f8r", "destination:ref": "221", "highway": "motorway_link", "lanes": "1", "layer": "-1", "lit": "yes", "maxheight": "5.09", "oneway": "yes", "surface": "asphalt", "tunnel": "yes", "length": 328.1460565243624}}, {"type": "Feature", "geometry": {"type": "LineString", "coordinates": [[12.610136, 55.6297091], [12.5990831, 55.6294046]]}, "properties": {"highway": "motorway", "int_ref": "E 20", "lanes": "2", "layer": "-1", "lit": "yes", "maxheight": "default", "maxspeed": "110", "name": "\u00d8resundsmotorvejen", "name:etymology:wikidata": "Q104662", "oneway": "yes", "operator": "\u00d8resundsbro Konsortiet I/S", "operator:wikidata": "Q12342037", "operator:wikipedia": "da:\u00d8resundsbro Konsortiet", "ref": "E 20", "source:maxspeed": "sign", "surface": "asphalt", "tunnel": "yes", "tunnel:name": "T\u00e5rnbytunnelsen", "length": 697.0277733739587}}, {"type": "Feature", "geometry": {"type": "LineString", "coordinates": [[12.4359395, 55.6915916], [12.4363984, 55.6918836]]}, "properties": {"fixme": "should maxspeed=signals be maxspeed:variable=yes instead?", "highway": "motorway", "layer": "-1", "maxheight": "4.44", "maxspeed": "signals", "name": "Frederikssundmotorvejen", "name:etymology:wikidata": "Q3223801", "official_ref": "M12", "oneway": "yes", "operator": "Vejdirektoratet", "operator:en": "The Danish Road Directorate", "operator:type": "public", "operator:wikidata": "Q1630101", "operator:wikipedia": "da:Vejdirektoratet", "operator:wikipedia:en": "Vejdirektoratet", "ref": "17", "source:maxspeed": "sign", "source:official_ref": "Vejdirektoratet (http://cvf.vd.dk/cvf/mapui.jsp)", "surface": "asphalt", "tunnel": "yes", "wikidata": "Q3359593", "length": 43.471641358997154}}, {"type": "Feature", "geometry": {"type": "LineString", "coordinates": [[12.5695937, 55.7173137], [12.5720889, 55.7172677], [12.5734826, 55.717187], [12.5749625, 55.7170451], [12.5764432, 55.7167566], [12.5770569, 55.7166399], [12.5778223, 55.7165485], [12.5784619, 55.7164978], [12.5787591, 55.7164805], [12.5793567, 55.7164641], [12.5800143, 55.7164692], [12.5810978, 55.7164585]]}, "properties": {"highway": "trunk", "lanes": "2", "layer": "-1", "lit": "yes", "maxspeed": "60", "motorroad": "yes", "name": "Nordhavnsvej", "oneway": "yes", "operator": "Vejdirektoratet", "operator:en": "The Danish Road Directorate", "operator:type": "public", "operator:wikidata": "Q1630101", "operator:wikipedia": "da:Vejdirektoratet", "operator:wikipedia:en": "Vejdirektoratet", "ref": "O2", "source:start_date": "https://www.kk.dk/nordhavnsvej, survey", "start_date": "2017-12-18", "surface": "asphalt", "tunnel": "yes", "length": 734.0199960213828}}, {"type": "Feature", "geometry": {"type": "LineString", "coordinates": [[12.5810972, 55.71673], [12.5807147, 55.7167101], [12.5802925, 55.7166776], [12.5797694, 55.7166088], [12.5793392, 55.716566], [12.5787746, 55.7165675], [12.5778486, 55.7166375], [12.5770884, 55.7167341], [12.5764623, 55.7168491], [12.5749818, 55.7171398], [12.5735249, 55.7172759], [12.5720802, 55.717368], [12.5696015, 55.7173976]]}, "properties": {"highway": "trunk", "lanes": "2", "layer": "-1", "lit": "yes", "maxspeed": "60", "motorroad": "yes", "name": "Nordhavnsvej", "oneway": "yes", "operator": "Vejdirektoratet", "operator:en": "The Danish Road Directorate", "operator:type": "public", "operator:wikidata": "Q1630101", "operator:wikipedia": "da:Vejdirektoratet", "operator:wikipedia:en": "Vejdirektoratet", "ref": "O2", "source:start_date": "https://www.kk.dk/nordhavnsvej, survey", "start_date": "2017-12-18", "surface": "asphalt", "tunnel": "yes", "length": 735.1974543055305}}]}