{"type": "FeatureCollection", "features": [{"type": "Feature", "geometry": {"type": "LineString", "coordinates": [[4.3504939, 50.8338882], [4.3492143, 50.8333998], [4.3488855, 50.8332827], [4.3485952, 50.8332023], [4.3481367, 50.8331046], [4.3479161, 50.8330694], [4.347699, 50.833045], [4.347469, 50.8330364], [4.3472424, 50.8330365], [4.3469506, 50.8330474], [4.3465472, 50.8330691], [4.3451138, 50.8331829], [4.3441783, 50.8332696], [4.3438092, 50.8333238], [4.343562, 50.8334082], [4.3433646, 50.8335058], [4.3431671, 50.8336359], [4.3429946, 50.8338091], [4.3428133, 50.8340538], [4.3425535, 50.8343975]]}, "properties": {"hazmat:E": "no", "highway": "trunk", "layer": "-1", "lit": "24/7", "maxheight": "3.5", "maxspeed": "50", "maxweight": "3.5", "motorroad": "yes", "name": "Tunnel de la Porte de Hal - Hallepoorttunnel", "name:fr": "Tunnel de la Porte de Hal", "name:nl": "Hallepoorttunnel", "oneway": "yes", "part_of:wikidata": "Q2017769;Q2289679", "ref": "R20", "source:maxspeed": "sign", "surface": "asphalt", "tunnel": "yes", "length": 648.9154190926937}}, {"type": "Feature", "geometry": {"type": "LineString", "coordinates": [[4.3578917, 50.8369706], [4.354796, 50.8356799], [4.3542497, 50.8354523]]}, "properties": {"hazmat:E": "no", "highway": "trunk", "layer": "-1", "lit": "24/7", "maxspeed": "50", "maxweight": "3.5", "motorroad": "yes", "name": "Tunnel Louise - Louizatunnel", "name:etymology:wikidata": "Q237318", "name:fr": "Tunnel Louise", "name:nl": "Louizatunnel", "oneway": "yes", "ref": "R20", "source:maxspeed": "sign", "surface": "asphalt", "tunnel": "yes", "length": 307.1659353807909}}, {"type": "Feature", "geometry": {"type": "LineString", "coordinates": [[4.3543047, 50.8353991], [4.3575918, 50.8367666], [4.3579015, 50.8368819], [4.3579589, 50.8369064]]}, "properties": {"hazmat:E": "no", "highway": "trunk", "layer": "-1", "lit": "24/7", "maxspeed": "50", "maxweight": "3.5", "motorroad": "yes", "name": "Tunnel Louise - Louizatunnel", "name:etymology:wikidata": "Q237318", "name:fr": "Tunnel Louise", "name:nl": "Louizatunnel", "oneway": "yes", "ref": "R20", "source:maxspeed": "sign", "surface": "asphalt", "tunnel": "yes", "length": 307.2440800050703}}, {"type": "Feature", "geometry": {"type": "LineString", "coordinates": [[4.3616953, 50.8384717], [4.362448, 50.8388159]]}, "properties": {"highway": "trunk", "lanes": "2", "layer": "-1", "lit": "24/7", "maxheight": "default", "maxspeed": "50", "motorroad": "yes", "name": "Tunnel Porte de Namur - Naamsepoorttunnel", "name:fr": "Tunnel Porte de Namur", "name:nl": "Naamsepoorttunnel", "oneway": "yes", "ref": "R20", "shoulder": "no", "source:maxspeed": "sign", "surface": "asphalt", "tunnel": "yes", "length": 65.40167876700262}}, {"type": "Feature", "geometry": {"type": "LineString", "coordinates": [[4.3623828, 50.8388712], [4.3616617, 50.8385415]]}, "properties": {"highway": "trunk", "lane_markings": "no", "layer": "-1", "lit": "24/7", "maxheight": "default", "maxspeed": "50", "motorroad": "yes", "name": "Tunnel Porte de Namur - Naamsepoorttunnel", "name:fr": "Tunnel Porte de Namur", "name:nl": "Naamsepoorttunnel", "oneway": "yes", "ref": "R20", "source:maxspeed": "sign", "surface": "asphalt", "tunnel": "yes", "length": 62.65267913022471}}, {"type": "Feature", "geometry": {"type": "LineString", "coordinates": [[4.3654855, 50.8404835], [4.3658484, 50.84079], [4.3661072, 50.8410885], [4.3662295, 50.8412296], [4.3671955, 50.8429762]]}, "properties": {"hazmat:E": "no", "highway": "trunk", "layer": "-1", "lit": "24/7", "location": "underground", "maxspeed": "50", "maxweight": "3.5", "motorroad": "yes", "name": "Tunnel Tr\u00f4ne - Troontunnel", "name:fr": "Tunnel Tr\u00f4ne", "name:nl": "Troontunnel", "oneway": "yes", "ref": "R20", "source:maxspeed": "sign", "surface": "asphalt", "tunnel": "yes", "length": 304.2708040106712}}, {"type": "Feature", "geometry": {"type": "LineString", "coordinates": [[4.3580787, 50.8329603], [4.3554649, 50.8354927]]}, "properties": {"hazmat:E": "no", "highway": "trunk", "lane_markings": "no", "layer": "-2", "lit": "24/7", "maxheight": "3.5", "maxspeed": "50", "maxweight": "3.5", "motorroad": "yes", "name": "Tunnel St\u00e9phanie - Stefaniatunnel", "name:etymology:wikidata": "Q170197", "name:fr": "Tunnel St\u00e9phanie", "name:nl": "Stefaniatunnel", "oneway": "yes", "ref": "N24", "source:maxspeed": "sign", "surface": "asphalt", "tunnel": "yes", "length": 336.556815934637}}, {"type": "Feature", "geometry": {"type": "LineString", "coordinates": [[4.3543008, 50.836391], [4.3546309, 50.8361881], [4.354796, 50.8360119]]}, "properties": {"hazmat:E": "no", "highway": "trunk_link", "lane_markings": "no", "layer": "-2", "lit": "24/7", "maxheight": "3.5", "maxspeed": "50", "maxweight": "3.5", "motorroad": "yes", "name": "Tunnel St\u00e9phanie - Stefaniatunnel", "name:etymology:wikidata": "Q170197", "name:fr": "Tunnel St\u00e9phanie", "name:nl": "Stefaniatunnel", "oneway": "yes", "ref": "N24", "source:maxspeed": "sign", "surface": "asphalt", "tunnel": "yes", "length": 55.19913088628363}}, {"type": "Feature", "geometry": {"type": "LineString", "coordinates": [[4.3647812, 50.8264615], [4.361976, 50.8291848]]}, "properties": {"highway": "trunk", "lanes": "2", "layer": "-1", "lit": "24/7", "maxheight": "default", "maxspeed": "50", "name": "Avenue Louise - Louizalaan", "name:de": "Louisenallee", "name:etymology:wikidata": "Q237318", "name:fr": "Avenue Louise", "name:nl": "Louizalaan", "oneway": "yes", "source:maxspeed": "sign", "surface": "asphalt", "tunnel": "yes", "length": 361.724901349773}}, {"type": "Feature", "geometry": {"type": "LineString", "coordinates": [[4.3618883, 50.8291485], [4.3646937, 50.8264243]]}, "properties": {"highway": "trunk", "lanes": "2", "layer": "-1", "lit": "24/7", "maxheight": "default", "maxspeed": "50", "name": "Avenue Louise - Louizalaan", "name:de": "Louisenallee", "name:etymology:wikidata": "Q237318", "name:fr": "Avenue Louise", "name:nl": "Louizalaan", "oneway": "yes", "source:maxspeed": "sign", "surface": "asphalt", "tunnel": "yes", "length": 361.8165399700605}}, {"type": "Feature", "geometry": {"type": "LineString", "coordinates": [[4.4660152, 50.8027001], [4.4658714, 50.8024623], [4.4657219, 50.8022154], [4.4652705, 50.8015386]]}, "properties": {"bicycle": "no", "carriageway_ref": "h2", "foot": "no", "highway": "trunk", "horse": "no", "lanes": "2", "layer": "-2", "lit": "24/7", "maxheight": "default", "maxspeed": "70", "motorroad": "yes", "name": "Sint-Jansbergsteenweg", "oneway": "yes", "operator": "Agentschap Wegen en Verkeer", "ref": "R0", "surface": "asphalt", "toll:hgv": "yes", "tunnel": "yes", "zone:traffic": "BE-VLG:rural", "length": 139.48756249039096}}, {"type": "Feature", "geometry": {"type": "LineString", "coordinates": [[4.465441, 50.8016197], [4.4661031, 50.8026121], [4.466137, 50.8026682]]}, "properties": {"bicycle": "no", "carriageway_ref": "h1", "foot": "no", "highway": "trunk", "horse": "no", "lanes": "2", "layer": "-2", "lit": "24/7", "maxspeed": "70", "motorroad": "yes", "name": "Sint-Jansbergsteenweg", "oneway": "yes", "operator": "Agentschap Wegen en Verkeer", "ref": "R0", "surface": "asphalt", "toll:hgv": "yes", "tunnel": "yes", "zone:traffic": "BE-VLG:rural", "length": 126.54318407475313}}, {"type": "Feature", "geometry": {"type": "LineString", "coordinates": [[4.3654957, 50.8533809], [4.3674661, 50.8527069], [4.3675553, 50.8526686], [4.3676249, 50.8526284], [4.3676965, 50.8525841], [4.3677814, 50.8525238], [4.3678655, 50.852455], [4.3678713, 50.8524492], [4.3679371, 50.8523833], [4.3679998, 50.8523105], [4.3680525, 50.8522359], [4.3680787, 50.852192], [4.3681499, 50.85201]]}, "properties": {"hazmat:E": "no", "highway": "trunk", "lanes": "2", "layer": "-1", "lit": "24/7", "maxspeed": "50", "maxweight": "3.5", "motorroad": "yes", "name": "Tunnel Botanique - Kruidtuintunnel", "name:fr": "Tunnel Botanique", "name:nl": "Kruidtuintunnel", "oneway": "yes", "ref": "R20", "source:maxspeed": "sign", "surface": "asphalt", "tunnel": "yes", "length": 251.48553111288743}}, {"type": "Feature", "geometry": {"type": "LineString", "coordinates": [[4.3527591, 50.8568288], [4.3548847, 50.8562125], [4.3569521, 50.8556329]]}, "properties": {"hazmat:E": "no", "highway": "trunk", "lanes": "2", "layer": "-2", "lit": "24/7", "maxspeed": "50", "maxweight": "3.5", "motorroad": "yes", "oneway": "yes", "ref": "R20", "source:maxspeed": "sign", "surface": "asphalt", "tunnel": "yes", "length": 323.84339649686166}}, {"type": "Feature", "geometry": {"type": "LineString", "coordinates": [[4.315364, 50.8665214], [4.3154664, 50.8664415], [4.3155859, 50.8663642], [4.3157134, 50.8662943], [4.3158513, 50.8662327], [4.3159982, 50.8661801], [4.3161527, 50.866137], [4.3163061, 50.866105], [4.3166098, 50.8660475], [4.3168633, 50.8660113], [4.3169916, 50.8659984], [4.3173915, 50.8659862], [4.3177574, 50.8660143], [4.3181243, 50.8660608], [4.3187212, 50.8661497], [4.3190605, 50.8661831], [4.3193319, 50.8661885], [4.3195734, 50.8661828], [4.3197689, 50.8661749], [4.319982, 50.8661505], [4.3201133, 50.86613], [4.3203802, 50.8660574]]}, "properties": {"foot": "no", "hazmat:E": "no", "highway": "trunk", "lanes": "2", "layer": "-2", "lit": "24/7", "maxheight": "3.5", "maxspeed": "50", "maxweight": "3.5", "name": "Tunnel Annie Cordy - Annie Cordytunnel", "name:etymology:wikidata": "Q465249", "name:fr": "Tunnel Annie Cordy", "name:nl": "Annie Cordytunnel", "old_name": "Tunnel L\u00e9opold II - Leopold II-tunnel", "old_name:etymology:wikidata": "Q12967", "oneway": "yes", "ref": "R20", "source:maxspeed": "sign", "surface": "asphalt", "tunnel": "yes", "wikidata": "Q3346653", "length": 375.0884689723545}}, {"type": "Feature", "geometry": {"type": "LineString", "coordinates": [[4.3420717, 50.8599504], [4.3372552, 50.8613252], [4.3235168, 50.8652465], [4.3204303, 50.8661274]]}, "properties": {"foot": "no", "hazmat:E": "no", "highway": "trunk", "lanes": "2", "layer": "-3", "lit": "24/7", "maxheight": "3.5", "maxspeed": "50", "maxweight": "3.5", "name": "Tunnel Annie Cordy - Annie Cordytunnel", "name:etymology:wikidata": "Q465249", "name:fr": "Tunnel Annie Cordy", "name:nl": "Annie Cordytunnel", "old_name": "Tunnel L\u00e9opold II - Leopold II-tunnel", "old_name:etymology:wikidata": "Q12967", "oneway": "yes", "ref": "R20", "source:maxspeed": "sign", "surface": "asphalt", "tunnel": "yes", "wikidata": "Q3346653", "length": 1671.4324760205552}}, {"type": "Feature", "geometry": {"type": "LineString", "coordinates": [[4.3682529, 50.8520207], [4.3681824, 50.8522103], [4.3681548, 50.8522631], [4.3681031, 50.8523402], [4.3680349, 50.8524227], [4.3679644, 50.8524954], [4.3678704, 50.852571], [4.3677907, 50.8526268], [4.3677089, 50.8526773], [4.3675395, 50.8527612], [4.3655234, 50.8534322]]}, "properties": {"hazmat:E": "no", "highway": "trunk", "lanes": "2", "layer": "-1", "lit": "24/7", "maxspeed": "50", "maxweight": "3.5", "motorroad": "yes", "name": "Tunnel Botanique - Kruidtuintunnel", "name:fr": "Tunnel Botanique", "name:nl": "Kruidtuintunnel", "oneway": "yes", "ref": "R20", "source:maxspeed": "sign", "surface": "asphalt", "tunnel": "yes", "length": 259.68507618456346}}, {"type": "Feature", "geometry": {"type": "LineString", "coordinates": [[4.3235168, 50.8652465], [4.3218428, 50.8658258]]}, "properties": {"foot": "no", "hazmat:E": "no", "highway": "trunk_link", "lanes": "2", "layer": "-1", "lit": "24/7", "maxheight": "3.5", "maxspeed": "50", "maxweight": "3.5", "oneway": "yes", "ref": "R20", "source:maxspeed": "sign", "surface": "asphalt", "tunnel": "yes", "length": 134.31972825083767}}, {"type": "Feature", "geometry": {"type": "LineString", "coordinates": [[4.3216706, 50.8655855], [4.3234677, 50.8651777]]}, "properties": {"foot": "no", "hazmat:E": "no", "highway": "trunk_link", "layer": "-1", "lit": "24/7", "maxheight": "3.5", "maxspeed": "50", "maxweight": "3.5", "oneway": "yes", "ref": "R20", "source:maxspeed": "sign", "surface": "asphalt", "tunnel": "yes", "length": 134.4046514793981}}, {"type": "Feature", "geometry": {"type": "LineString", "coordinates": [[4.3372552, 50.8613252], [4.3360257, 50.8617678]]}, "properties": {"foot": "no", "hazmat:E": "no", "highway": "trunk_link", "layer": "-2", "lit": "24/7", "maxheight": "3.5", "maxspeed": "50", "maxweight": "3.5", "oneway": "yes", "ref": "R20", "source:maxspeed": "sign", "surface": "asphalt", "tunnel": "yes", "length": 99.58791400934874}}, {"type": "Feature", "geometry": {"type": "LineString", "coordinates": [[4.3358794, 50.861556], [4.3372111, 50.8612618]]}, "properties": {"foot": "no", "hazmat:E": "no", "highway": "trunk_link", "layer": "-2", "lit": "24/7", "maxheight": "3.5", "maxspeed": "50", "maxweight": "3.5", "oneway": "yes", "ref": "R20", "source:maxspeed": "sign", "surface": "asphalt", "tunnel": "yes", "length": 99.3084936842614}}, {"type": "Feature", "geometry": {"type": "LineString", "coordinates": [[4.3991157, 50.8392401], [4.3965801, 50.8397702], [4.3906527, 50.8410183]]}, "properties": {"cycleway:both": "no", "hazmat": "no", "highway": "trunk", "lanes": "2", "layer": "-3", "lit": "24/7", "maxheight": "3.5", "maxspeed": "50", "maxweight": "3.5 t", "name": "Tunnel Cinquantenaire - Jubelparktunnel", "name:fr": "Tunnel Cinquantenaire", "name:language": "fr - nl", "name:nl": "Jubelparktunnel", "oneway": "yes", "parking:both": "no", "ref": "N3", "smoothness": "excellent", "source:maxspeed": "sign", "surface": "asphalt", "tunnel": "yes", "length": 628.0870405605123}}, {"type": "Feature", "geometry": {"type": "LineString", "coordinates": [[4.4062554, 50.8376785], [4.4089269, 50.8371179]]}, "properties": {"cycleway:both": "no", "highway": "trunk", "lanes": "2", "layer": "-2", "lit": "24/7", "maxheight": "default", "maxspeed": "50", "name": "Tunnel Tervueren - Tervurentunnel", "name:fr": "Tunnel Tervueren", "name:nl": "Tervurentunnel", "oneway": "yes", "ref": "N3", "source:maxspeed": "sign", "surface": "asphalt", "tunnel": "yes", "length": 198.25216972326547}}, {"type": "Feature", "geometry": {"type": "LineString", "coordinates": [[4.4089607, 50.8371822], [4.4062892, 50.8377428]]}, "properties": {"cycleway:both": "no", "highway": "trunk", "lanes": "2", "layer": "-2", "lit": "24/7", "maxheight": "3.5", "maxspeed": "50", "name": "Tunnel Tervueren - Tervurentunnel", "name:fr": "Tunnel Tervueren", "name:nl": "Tervurentunnel", "oneway": "yes", "ref": "N3", "source:maxspeed": "sign", "surface": "asphalt", "tunnel": "yes", "length": 198.2519244698646}}, {"type": "Feature", "geometry": {"type": "LineString", "coordinates": [[4.354796, 50.8356799], [4.3545521, 50.8355998], [4.3543765, 50.8355609], [4.3542751, 50.8355489], [4.3540642, 50.8355442], [4.353909, 50.8355618], [4.3537772, 50.8356063], [4.3536785, 50.8356541], [4.3535955, 50.8357199], [4.3535398, 50.8357871], [4.3535063, 50.8358795]]}, "properties": {"destination": "La Cambre - Ter Kameren", "destination:lang:fr": "La Cambre", "destination:lang:nl": "Ter Kameren", "hazmat:E": "no", "highway": "trunk_link", "layer": "-1", "lit": "24/7", "maxheight": "3.5", "maxspeed": "50", "maxweight": "3.5", "motorroad": "yes", "name": "Tunnel St\u00e9phanie - Stefaniatunnel", "name:etymology:wikidata": "Q170197", "name:fr": "Tunnel St\u00e9phanie", "name:nl": "Stefaniatunnel", "oneway": "yes", "source:maxspeed": "sign", "surface": "asphalt", "tunnel": "yes", "length": 113.33330041692834}}, {"type": "Feature", "geometry": {"type": "LineString", "coordinates": [[4.3535063, 50.8358795], [4.3535116, 50.8359619], [4.3535443, 50.8360397], [4.3536029, 50.836102], [4.3536735, 50.8361592], [4.3537395, 50.8362004], [4.3538139, 50.8362307], [4.35388, 50.8362471], [4.3539562, 50.8362588], [4.3540522, 50.8362648], [4.3541509, 50.8362632], [4.3542556, 50.8362518], [4.3543435, 50.8362364], [4.3544604, 50.836199], [4.3545664, 50.8361499], [4.354796, 50.8360119]]}, "properties": {"hazmat:E": "no", "highway": "trunk_link", "lane_markings": "no", "layer": "-2", "lit": "24/7", "maxheight": "3.5", "maxspeed": "50", "maxweight": "3.5", "motorroad": "yes", "name": "Tunnel St\u00e9phanie - Stefaniatunnel", "name:etymology:wikidata": "Q170197", "name:fr": "Tunnel St\u00e9phanie", "name:nl": "Stefaniatunnel", "oneway": "yes", "source:maxspeed": "sign", "surface": "asphalt", "tunnel": "yes", "length": 125.99481916294312}}, {"type": "Feature", "geometry": {"type": "LineString", "coordinates": [[4.3679522, 50.8233658], [4.3675455, 50.8237687]]}, "properties": {"highway": "trunk", "lanes": "2", "layer": "-1", "lit": "24/7", "maxheight": "3.5", "maxspeed": "50", "maxweight": "3.5", "name": "Tunnel Vleurgat - Vleurgattunnel", "name:en": "Vleurgat Tunnel", "name:fr": "Tunnel Vleurgat", "name:nl": "Vleurgattunnel", "oneway": "yes", "source:maxspeed": "sign", "surface": "asphalt", "tunnel": "yes", "tunnel:name": "Tunnel Vleurgat - Vleurgattunnel", "tunnel:name:en": "Vleurgat Tunnel", "tunnel:name:fr": "Tunnel Vleurgat", "tunnel:name:nl": "Vleurgattunnel", "length": 53.19903757521895}}, {"type": "Feature", "geometry": {"type": "LineString", "coordinates": [[4.3674609, 50.8237331], [4.3678656, 50.8233308]]}, "properties": {"highway": "trunk", "lanes": "2", "layer": "-1", "lit": "24/7", "maxspeed": "50", "name": "Tunnel Vleurgat - Vleurgattunnel", "name:en": "Vleurgat Tunnel", "name:fr": "Tunnel Vleurgat", "name:nl": "Vleurgattunnel", "oneway": "yes", "source:maxspeed": "sign", "surface": "asphalt", "tunnel": "yes", "tunnel:name": "Tunnel Vleurgat - Vleurgattunnel", "tunnel:name:en": "Vleurgat Tunnel", "tunnel:name:fr": "Tunnel Vleurgat", "tunnel:name:nl": "Vleurgattunnel", "length": 53.06696332732408}}, {"type": "Feature", "geometry": {"type": "LineString", "coordinates": [[4.3691608, 50.8488367], [4.3690776, 50.8491794]]}, "properties": {"hazmat:E": "no", "highway": "trunk", "lanes": "2", "layer": "-1", "lit": "24/7", "maxheight": "default", "maxspeed": "50", "maxweight": "3.5", "motorroad": "yes", "name": "Tunnel Madou - Madoutunnel", "name:fr": "Tunnel Madou", "name:nl": "Madoutunnel", "oneway": "yes", "ref": "R20", "source:maxspeed": "sign", "surface": "asphalt", "tunnel": "yes", "length": 38.57143976332336}}, {"type": "Feature", "geometry": {"type": "LineString", "coordinates": [[4.368974, 50.849168], [4.3690652, 50.8488273]]}, "properties": {"hazmat:E": "no", "highway": "trunk", "lanes": "2", "layer": "-1", "lit": "24/7", "maxheight": "default", "maxspeed": "50", "maxweight": "3.5", "motorroad": "yes", "name": "Tunnel Madou - Madoutunnel", "name:fr": "Tunnel Madou", "name:nl": "Madoutunnel", "oneway": "yes", "ref": "R20", "source:maxspeed": "sign", "surface": "asphalt", "tunnel": "yes", "length": 38.44165574048707}}, {"type": "Feature", "geometry": {"type": "LineString", "coordinates": [[4.3424506, 50.8343824], [4.3427294, 50.8339557], [4.3428453, 50.8337759], [4.3430384, 50.8335762], [4.3432787, 50.833419], [4.343487, 50.8333239], [4.3437594, 50.8332347], [4.3439808, 50.8331992], [4.3451825, 50.8330799], [4.3463584, 50.8329877], [4.3469334, 50.8329498], [4.3472939, 50.8329498], [4.3474973, 50.8329524], [4.3477625, 50.832968], [4.3479642, 50.8329897], [4.3481797, 50.8330287], [4.3486371, 50.8331239], [4.3489486, 50.8332049], [4.3493163, 50.8333393], [4.3505399, 50.8338395]]}, "properties": {"hazmat:E": "no", "highway": "trunk", "layer": "-1", "lit": "24/7", "maxheight": "3.5", "maxspeed": "50", "maxweight": "3.5", "motorroad": "yes", "name": "Tunnel de la Porte de Hal - Hallepoorttunnel", "name:fr": "Tunnel de la Porte de Hal", "name:nl": "Hallepoorttunnel", "oneway": "yes", "part_of:wikidata": "Q2017769;Q2289679", "ref": "R20", "source:maxspeed": "sign", "surface": "asphalt", "tunnel": "yes", "length": 667.8903782063807}}, {"type": "Feature", "geometry": {"type": "LineString", "coordinates": [[4.3634507, 50.8541016], [4.3634224, 50.853912], [4.3633651, 50.853725], [4.3632766, 50.8535373]]}, "properties": {"bicycle": "use_sidepath", "highway": "tertiary", "lanes": "2", "layer": "-1", "lit": "yes", "maxheight": "3.6", "maxspeed": "30", "name": "Boulevard Pach\u00e9co - Pachecolaan", "name:etymology:wikidata": "Q91928012", "name:fr": "Boulevard Pach\u00e9co", "name:nl": "Pachecolaan", "oneway": "no", "source:maxspeed": "BE-BRU:urban", "surface": "asphalt", "tunnel": "yes", "wikidata": "Q67206915", "wikimedia_commons": "Category:Boulevard Pacheco/Pachecolaan", "length": 64.16761471581624}}, {"type": "Feature", "geometry": {"type": "LineString", "coordinates": [[4.3607228, 50.8547858], [4.3586189, 50.8553334], [4.3570131, 50.8556947]]}, "properties": {"hazmat:E": "no", "highway": "trunk", "lanes": "2", "layer": "-1", "lit": "24/7", "maxspeed": "50", "maxweight": "3.5", "motorroad": "yes", "name": "Tunnel Rogier - Rogiertunnel", "name:fr": "Tunnel Rogier", "name:nl": "Rogiertunnel", "oneway": "yes", "ref": "R20", "source:maxspeed": "sign", "surface": "asphalt", "tunnel": "yes", "length": 280.1885166313221}}, {"type": "Feature", "geometry": {"type": "LineString", "coordinates": [[4.3832039, 50.8418516], [4.3832892, 50.8419389], [4.3833249, 50.8419962], [4.3833894, 50.8420378], [4.3835438, 50.8420997], [4.3837492, 50.8421555], [4.3838748, 50.8421876], [4.3840523, 50.8422102], [4.3842007, 50.84222], [4.3844387, 50.8422165], [4.384836, 50.8421785]]}, "properties": {"highway": "trunk", "lanes": "2", "layer": "-1", "lit": "24/7", "maxheight": "3.5", "maxspeed": "50", "name": "Tunnel Belliard - Belliardtunnel", "name:etymology:wikidata": "Q767534", "name:fr": "Tunnel Belliard", "name:nl": "Belliardtunnel", "oneway": "yes", "ref": "N3", "source:maxspeed": "sign", "surface": "asphalt", "tunnel": "yes", "wikidata": "Q2062496", "wikipedia": "fr:Tunnel Belliard", "length": 131.24431506197425}}, {"type": "Feature", "geometry": {"type": "LineString", "coordinates": [[4.4027767, 50.8491966], [4.4022882, 50.8489827], [4.4020485, 50.848888], [4.4017324, 50.848803], [4.3962478, 50.8475518], [4.3952342, 50.8473148], [4.3948678, 50.8472435], [4.394463, 50.8471173], [4.394084, 50.8469455], [4.3934168, 50.8466592]]}, "properties": {"hazmat": "no", "highway": "trunk", "layer": "-1", "lit": "24/7", "maxheight": "3.5", "maxspeed": "50", "maxweight": "3.5", "name": "Tunnel Reyers-Centre - Reyers-centrumtunnel", "name:etymology:wikidata": "Q2871374", "name:fr": "Tunnel Reyers-Centre", "name:nl": "Reyers-centrumtunnel", "oneway": "yes", "source:maxspeed": "sign", "surface": "asphalt", "tunnel": "yes", "length": 720.9592449556079}}, {"type": "Feature", "geometry": {"type": "LineString", "coordinates": [[4.3791015, 50.8403586], [4.379415, 50.840295], [4.3798315, 50.8402093], [4.380086, 50.8401911], [4.3803813, 50.8402032], [4.3807571, 50.8402505], [4.381152, 50.8403185], [4.3814353, 50.84037], [4.381673, 50.8404125], [4.3818795, 50.8404625], [4.3820956, 50.8405186], [4.3822684, 50.8405792], [4.3824533, 50.8406717], [4.3827486, 50.840887], [4.3829024, 50.8410732], [4.3832039, 50.8418516]]}, "properties": {"highway": "trunk", "lanes": "3", "layer": "-2", "lit": "24/7", "maxheight": "3.5", "maxspeed": "50", "name": "Tunnel Belliard - Belliardtunnel", "name:etymology:wikidata": "Q767534", "name:fr": "Tunnel Belliard", "name:nl": "Belliardtunnel", "oneway": "yes", "source:maxspeed": "sign", "surface": "asphalt", "tunnel": "yes", "wikidata": "Q2062496", "wikipedia": "fr:Tunnel Belliard", "length": 393.6888380958525}}, {"type": "Feature", "geometry": {"type": "LineString", "coordinates": [[4.3670923, 50.8429985], [4.3661675, 50.8412429], [4.3660478, 50.8411047], [4.3657959, 50.8408137], [4.3654114, 50.840522]]}, "properties": {"hazmat:E": "no", "highway": "trunk", "layer": "-1", "lit": "24/7", "location": "underground", "maxspeed": "50", "maxweight": "3.5", "motorroad": "yes", "name": "Tunnel Tr\u00f4ne - Troontunnel", "name:fr": "Tunnel Tr\u00f4ne", "name:nl": "Troontunnel", "oneway": "yes", "ref": "R20", "source:maxspeed": "sign", "surface": "asphalt", "tunnel": "yes", "length": 302.59616652774804}}, {"type": "Feature", "geometry": {"type": "LineString", "coordinates": [[4.3684643, 50.8454144], [4.3686325, 50.8457413]]}, "properties": {"hazmat:E": "no", "highway": "trunk", "lanes": "2", "layer": "-1", "lit": "24/7", "maxspeed": "50", "maxweight": "3.5", "motorroad": "yes", "name": "Tunnel Arts-Loi - Kunst-Wettunnel", "name:fr": "Tunnel Arts-Loi", "name:nl": "Kunst-Wettunnel", "oneway": "yes", "ref": "R20", "source:maxspeed": "sign", "surface": "asphalt", "tunnel": "yes", "length": 38.24696073344133}}, {"type": "Feature", "geometry": {"type": "LineString", "coordinates": [[4.4063413, 50.8349124], [4.4078964, 50.8378675], [4.4079778, 50.8381298], [4.4080222, 50.8383904], [4.4080309, 50.8386523], [4.4079582, 50.8394831]]}, "properties": {"bicycle": "no", "cycleway:both": "no", "foot": "no", "highway": "primary", "horse": "no", "lanes": "2", "layer": "-1", "maxheight": "3.5", "maxspeed": "50", "maxweight": "3.5", "name": "Tunnel Montgomery - Montgomerytunnel", "name:etymology:wikidata": "Q152025", "name:fr": "Tunnel Montgomery", "name:language": "fr - nl", "name:nl": "Montgomerytunnel", "oneway": "yes", "ref": "R21", "source:maxspeed": "sign", "surface": "asphalt", "tunnel": "yes", "length": 527.1149188805732}}, {"type": "Feature", "geometry": {"type": "LineString", "coordinates": [[4.4078562, 50.8394699], [4.4079241, 50.8386512], [4.4079157, 50.8383947], [4.4078722, 50.8381399], [4.4077911, 50.837885], [4.4062383, 50.834934]]}, "properties": {"bicycle": "no", "cycleway:both": "no", "foot": "no", "highway": "primary", "horse": "no", "lanes": "2", "layer": "-1", "maxheight": "3.5", "maxspeed": "50", "maxweight": "3.5", "name": "Tunnel Montgomery - Montgomerytunnel", "name:etymology:wikidata": "Q152025", "name:fr": "Tunnel Montgomery", "name:language": "fr - nl", "name:nl": "Montgomerytunnel", "oneway": "yes", "ref": "R21", "source:maxspeed": "sign", "surface": "asphalt", "tunnel": "yes", "length": 523.2077944590271}}, {"type": "Feature", "geometry": {"type": "LineString", "coordinates": [[4.4030944, 50.8491203], [4.4029855, 50.8490457], [4.4028349, 50.8489463], [4.402766, 50.8488555], [4.4026958, 50.848724], [4.4026511, 50.8485662], [4.4026506, 50.8484423], [4.4026732, 50.848329], [4.4027253, 50.8481626], [4.402836, 50.8479901]]}, "properties": {"hazmat": "no", "highway": "trunk_link", "lanes": "1", "layer": "-1", "lit": "24/7", "maxheight": "3.5", "maxspeed": "50", "maxweight": "3.5", "name": "Tunnel Reyers-Montgomery- Reyers-Montgomerytunnel", "name:en": "Reyers-Montgomery Tunnel", "name:etymology:wikidata": "Q2871374;Q152025", "name:fr": "Tunnel Reyers-Montgomery", "name:nl": "Reyers-Montgomerytunnel", "nat_ref": "A3", "oneway": "yes", "ref": "E40", "source:maxspeed": "sign", "surface": "asphalt", "toll:hgv": "yes", "tunnel": "yes", "length": 137.17620135323708}}, {"type": "Feature", "geometry": {"type": "LineString", "coordinates": [[4.4025941, 50.8497959], [4.4024726, 50.84982], [4.4023648, 50.8498581], [4.4022579, 50.8499108], [4.4020962, 50.8500141], [4.4019699, 50.8501137], [4.4018766, 50.850216], [4.4017914, 50.850334], [4.4016965, 50.8504387]]}, "properties": {"hazmat": "no", "highway": "trunk_link", "lanes": "1", "layer": "-1", "lit": "24/7", "maxheight": "3.5", "maxspeed": "50", "maxweight": "3.5", "name": "Tunnel Reyers-Meiser - Reyers-Meisertunnel", "name:en": "Reyers-Meiser Tunnel", "name:etymology:wikidata": "Q2871374;Q3164277", "name:fr": "Tunnel Reyers-Meiser", "name:nl": "Reyers-Meisertunnel", "nat_ref": "A3", "oneway": "yes", "ref": "E40", "source:maxspeed": "sign", "surface": "asphalt", "toll:hgv": "yes", "tunnel": "yes", "length": 98.59265578860138}}, {"type": "Feature", "geometry": {"type": "LineString", "coordinates": [[4.4014261, 50.8503754], [4.4016126, 50.8500669], [4.4017245, 50.8499536], [4.4018731, 50.8498428], [4.40204, 50.8497592], [4.4021663, 50.8497016], [4.4022627, 50.8496692], [4.4023979, 50.8496465], [4.4025518, 50.849629]]}, "properties": {"highway": "trunk_link", "lanes": "2", "layer": "-1", "lit": "24/7", "maxheight": "default", "maxspeed": "50", "name": "Tunnel Reyers-Meiser - Reyers-Meisertunnel", "name:en": "Reyers-Meiser Tunnel", "name:etymology:wikidata": "Q2871374;Q3164277", "name:fr": "Tunnel Reyers-Meiser", "name:nl": "Reyers-Meisertunnel", "nat_ref": "A3", "oneway": "yes", "ref": "E40", "source:maxspeed": "sign", "surface": "asphalt", "toll:hgv": "yes", "tunnel": "yes", "length": 122.2798503330136}}, {"type": "Feature", "geometry": {"type": "LineString", "coordinates": [[4.403105, 50.8480522], [4.4030089, 50.8482904], [4.4029644, 50.8484436], [4.4029485, 50.8485489], [4.4029474, 50.8486209], [4.4029886, 50.8487679], [4.4030465, 50.8488801], [4.4031287, 50.8489726], [4.4032485, 50.8490779], [4.4034027, 50.8491787]]}, "properties": {"highway": "trunk_link", "lanes": "2", "layer": "-1", "lit": "yes", "maxspeed": "50", "name": "Tunnel Reyers-Montgomery- Reyers-Montgomerytunnel", "name:en": "Reyers-Montgomery Tunnel", "name:etymology:wikidata": "Q2871374;Q152025", "name:fr": "Tunnel Reyers-Montgomery", "name:nl": "Reyers-Montgomerytunnel", "nat_ref": "A3", "oneway": "yes", "ref": "E40", "source:maxspeed": "sign", "surface": "asphalt", "toll:hgv": "yes", "tunnel": "yes", "length": 136.0478129581201}}, {"type": "Feature", "geometry": {"type": "LineString", "coordinates": [[4.4392316, 50.8468753], [4.4401967, 50.8480058]]}, "properties": {"highway": "trunk", "lanes": "2", "layer": "-2", "lit": "24/7", "maxheight": "3.5", "maxspeed": "50", "maxweight": "3.5", "motorroad": "yes", "name": "Tunnel Woluwe - Woluwetunnel", "name:fr": "Tunnel Woluwe", "name:nl": "Woluwetunnel", "oneway": "yes", "ref": "R22", "source:maxspeed": "sign", "surface": "asphalt", "tunnel": "yes", "length": 142.9551714695365}}, {"type": "Feature", "geometry": {"type": "LineString", "coordinates": [[4.440115, 50.8480368], [4.4391431, 50.8469007]]}, "properties": {"highway": "trunk", "lanes": "2", "layer": "-2", "lit": "24/7", "maxheight": "3.5", "maxspeed": "50", "maxweight": "3.5", "motorroad": "yes", "name": "Tunnel Woluwe - Woluwetunnel", "name:fr": "Tunnel Woluwe", "name:nl": "Woluwetunnel", "oneway": "yes", "ref": "R22", "source:maxspeed": "sign", "surface": "asphalt", "tunnel": "yes", "length": 143.73096206869513}}, {"type": "Feature", "geometry": {"type": "LineString", "coordinates": [[4.3858971, 50.8412869], [4.3859703, 50.8414319], [4.3859933, 50.8414971], [4.386001, 50.8415529], [4.3860032, 50.8416292], [4.38599, 50.8416947], [4.3859686, 50.8417467], [4.3859368, 50.8417984], [4.3858907, 50.8418452], [4.385816, 50.8418947], [4.3857177, 50.841946], [4.3855305, 50.8420188], [4.3854267, 50.8420596]]}, "properties": {"access": "no", "highway": "trunk_link", "lanes": "1", "layer": "-2", "lit": "24/7", "maxheight": "3.5", "maxspeed": "50", "name": "Tunnel Joyeuse Entr\u00e9e - Blijde Inkomsttunnel", "name:etymology:wikidata": "Q18927701", "name:fr": "Tunnel Joyeuse Entr\u00e9e", "name:nl": "Blijde Inkomsttunnel", "note": "Temporarily closed because of a mobility test along Rue de la Loi/Wetstraat", "oneway": "yes", "source:maxspeed": "sign", "surface": "asphalt", "tunnel": "yes", "length": 105.38710446289734}}, {"type": "Feature", "geometry": {"type": "LineString", "coordinates": [[4.3574254, 50.8763604], [4.3570223, 50.8769235]]}, "properties": {"bicycle": "no", "highway": "secondary", "horse": "no", "layer": "-1", "maxheight": "3.9", "maxspeed": "50", "name": "Avenue de la Reine - Koninginnelaan", "name:fr": "Avenue de la Reine", "name:nl": "Koninginnelaan", "ref": "N277", "source:maxspeed": "sign", "surface": "asphalt", "tunnel": "yes", "length": 68.76803510754489}}, {"type": "Feature", "geometry": {"type": "LineString", "coordinates": [[4.446673, 50.8895409], [4.4468102, 50.8898364]]}, "properties": {"highway": "primary", "layer": "-1", "maxspeed": "30", "name": "Jan Mommaertslaan", "old_name": "Jan Emiel Mommaertslaan", "tunnel": "yes", "length": 34.261473596922436}}, {"type": "Feature", "geometry": {"type": "LineString", "coordinates": [[4.49269, 50.8468197], [4.4926397, 50.8470349]]}, "properties": {"cycleway:both": "no", "highway": "tertiary", "maxheight": "3.3", "name": "Beekstraat - Rue du Ruisseau", "name:fr": "Rue du Ruisseau", "name:nl": "Beekstraat", "tunnel": "yes", "length": 24.200685089247635}}, {"type": "Feature", "geometry": {"type": "LineString", "coordinates": [[4.4505767, 50.8946973], [4.4502541, 50.8948061], [4.4498698, 50.8949091], [4.4493017, 50.8949806], [4.4489068, 50.8949799], [4.4484915, 50.894984]]}, "properties": {"highway": "trunk", "lanes": "4", "layer": "-1", "lit": "24/7", "maxspeed": "90", "motorroad": "yes", "oneway": "yes", "ref": "R22", "surface": "asphalt", "tunnel": "yes", "turn:lanes": "merge_to_right|none|none|merge_to_left", "length": 152.84738073439306}}, {"type": "Feature", "geometry": {"type": "LineString", "coordinates": [[4.4645635, 50.8942007], [4.4649361, 50.8943786], [4.465516, 50.8945184], [4.465865, 50.8945939]]}, "properties": {"bicycle": "no", "foot": "no", "highway": "tertiary", "layer": "-1", "maxheight": "4.0", "maxspeed": "50", "name": "Leonardo Da Vincilaan", "tunnel": "yes", "length": 102.4614174354214}}, {"type": "Feature", "geometry": {"type": "LineString", "coordinates": [[4.3832039, 50.8418516], [4.383217, 50.8419339], [4.3832507, 50.8420018], [4.3833139, 50.8420765], [4.3833908, 50.8421329], [4.383628, 50.8422448], [4.3840646, 50.8424174], [4.3864469, 50.8434947]]}, "properties": {"highway": "trunk", "lanes": "2", "layer": "-3", "lit": "24/7", "maxheight": "3.5", "maxspeed": "70", "name": "Tunnel Belliard - Belliardtunnel", "name:etymology:wikidata": "Q767534", "name:fr": "Tunnel Belliard", "name:nl": "Belliardtunnel", "oneway": "yes", "ref": "N23", "source:maxspeed": "sign", "surface": "asphalt", "tunnel": "yes", "wikidata": "Q2062496", "wikipedia": "fr:Tunnel Belliard", "length": 298.124074200577}}, {"type": "Feature", "geometry": {"type": "LineString", "coordinates": [[4.3864469, 50.8434947], [4.3875429, 50.8439773], [4.3876692, 50.8440344], [4.3936019, 50.8466623], [4.3941296, 50.8468941], [4.3945095, 50.8470578], [4.394908, 50.8471869], [4.3952554, 50.8472544], [4.3962844, 50.8474908], [4.401948, 50.8487762], [4.4021095, 50.8488219], [4.4022056, 50.8488585], [4.4023615, 50.8489295], [4.4028496, 50.849156]]}, "properties": {"highway": "trunk", "lanes": "2", "layer": "-1", "lit": "24/7", "maxheight": "3.5", "maxspeed": "70", "name": "Tunnel Belliard - Belliardtunnel", "name:etymology:wikidata": "Q767534", "name:fr": "Tunnel Belliard", "name:nl": "Belliardtunnel", "oneway": "yes", "ref": "N23", "source:maxspeed": "sign", "surface": "asphalt", "tunnel": "yes", "wikidata": "Q2062496", "wikipedia": "fr:Tunnel Belliard", "length": 1326.9594843918296}}, {"type": "Feature", "geometry": {"type": "LineString", "coordinates": [[4.3752173, 50.8791127], [4.3751677, 50.8786235]]}, "properties": {"bicycle": "no", "foot": "no", "hazmat:E": "no", "highway": "primary", "layer": "-1", "maxheight": "3.5", "maxspeed": "50", "oneway": "yes", "operator": "Bruxelles Mobilit\u00e9 - Brussel Mobiliteit", "ref": "R21", "source:maxspeed": "sign", "surface": "asphalt", "tunnel": "yes", "zone:traffic": "BE-BRU:urban", "length": 54.53336747402655}}, {"type": "Feature", "geometry": {"type": "LineString", "coordinates": [[4.3752822, 50.8786037], [4.3753328, 50.8790953]]}, "properties": {"hazmat:E": "no", "highway": "primary", "layer": "-1", "maxheight": "3.5", "maxspeed": "50", "oneway": "yes", "operator": "Bruxelles Mobilit\u00e9 - Brussel Mobiliteit", "ref": "R21", "source:maxspeed": "sign", "surface": "asphalt", "tunnel": "yes", "zone:traffic": "BE-BRU:urban", "length": 54.80434114666701}}, {"type": "Feature", "geometry": {"type": "LineString", "coordinates": [[4.4045314, 50.83146], [4.4047725, 50.8318833]]}, "properties": {"bicycle": "no", "cycleway:both": "no", "foot": "no", "highway": "primary", "horse": "no", "lanes": "2", "layer": "-1", "lit": "yes", "maxspeed": "50", "maxweight": "3.5", "oneway": "yes", "ref": "R21", "source:maxspeed": "sign", "surface": "asphalt", "tunnel": "yes", "length": 50.05985639783193}}, {"type": "Feature", "geometry": {"type": "LineString", "coordinates": [[4.4064641, 50.8422327], [4.4063205, 50.8424749]]}, "properties": {"bicycle": "no", "foot": "no", "highway": "primary", "horse": "no", "lanes": "3", "layer": "-1", "maxheight": "default", "maxspeed": "50", "name": "Boulevard Brand Whitlock - Brand Whitlocklaan", "name:etymology:wikidata": "Q753365", "name:fr": "Boulevard Brand Whitlock", "name:nl": "Brand Whitlocklaan", "oneway": "yes", "ref": "R21", "source:maxspeed": "sign", "surface": "asphalt", "tunnel": "yes", "tunnel:name": "Tunnel Georges Henri - Georges Henritunnel", "tunnel:name:en": "Georges Henri Tunnel", "tunnel:name:fr": "Tunnel Georges Henri", "tunnel:name:nl": "Georges Henritunnel", "length": 28.77952228091374}}, {"type": "Feature", "geometry": {"type": "LineString", "coordinates": [[4.4061814, 50.8424416], [4.4063176, 50.8421977]]}, "properties": {"bicycle": "no", "foot": "no", "highway": "primary", "horse": "no", "lanes": "3", "layer": "-1", "maxheight": "3.5", "maxspeed": "50", "maxweight": "3.5", "name": "Boulevard Brand Whitlock - Brand Whitlocklaan", "name:etymology:wikidata": "Q753365", "name:fr": "Boulevard Brand Whitlock", "name:nl": "Brand Whitlocklaan", "oneway": "yes", "ref": "R21", "source:maxspeed": "sign", "surface": "asphalt", "tunnel": "yes", "tunnel:name": "Tunnel Georges Henri - Georges Henritunnel", "tunnel:name:en": "Georges Henri Tunnel", "tunnel:name:fr": "Tunnel Georges Henri", "tunnel:name:nl": "Georges Henritunnel", "length": 28.778736205658504}}, {"type": "Feature", "geometry": {"type": "LineString", "coordinates": [[4.2960065, 50.7920314], [4.2956673, 50.792438]]}, "properties": {"bicycle": "no", "foot": "no", "highway": "secondary", "horse": "no", "layer": "-1", "maxheight": "2.5", "name": "Spoorwegstraat", "surface": "asphalt", "tunnel": "yes", "length": 51.166020867815526}}, {"type": "Feature", "geometry": {"type": "LineString", "coordinates": [[4.3906081, 50.8409331], [4.3990862, 50.8391809]]}, "properties": {"cycleway:both": "no", "hazmat": "no", "highway": "trunk", "lanes": "2", "layer": "-2", "lit": "24/7", "maxheight": "3.5", "maxspeed": "50", "maxweight": "3.5 t", "name": "Tunnel Cinquantenaire - Jubelparktunnel", "name:fr": "Tunnel Cinquantenaire", "name:language": "fr - nl", "name:nl": "Jubelparktunnel", "oneway": "yes", "parking:both": "no", "ref": "N3", "smoothness": "excellent", "source:maxspeed": "sign", "surface": "asphalt", "tunnel": "yes", "length": 628.1936868772957}}, {"type": "Feature", "geometry": {"type": "LineString", "coordinates": [[4.3880616, 50.8415653], [4.386658, 50.8418286], [4.3854267, 50.8420596]]}, "properties": {"highway": "trunk", "lanes": "2", "layer": "-2", "lit": "24/7", "maxspeed": "50", "name": "Tunnel Loi - Wettunnel", "name:fr": "Tunnel Loi", "name:nl": "Wettunnel", "oneway": "yes", "ref": "N3", "source:maxspeed": "sign", "surface": "asphalt", "tunnel": "yes", "length": 193.5669431344998}}, {"type": "Feature", "geometry": {"type": "LineString", "coordinates": [[4.3204303, 50.8661274], [4.3201716, 50.8662115], [4.3199004, 50.8663415], [4.3196919, 50.866462], [4.3194779, 50.8666141], [4.3192911, 50.8667899], [4.319096, 50.8670039], [4.3188811, 50.8672588], [4.3186854, 50.8674611], [4.3184109, 50.8676798], [4.3181347, 50.8678382], [4.3179662, 50.8679185], [4.3178416, 50.8679678], [4.317673, 50.8680331], [4.3175071, 50.8680885], [4.3173518, 50.8681346]]}, "properties": {"foot": "no", "hazmat:E": "no", "highway": "trunk", "lanes": "2", "layer": "-2", "lit": "24/7", "maxheight": "3.5", "maxspeed": "50", "maxweight": "3.5", "name": "Tunnel Annie Cordy - Annie Cordytunnel", "name:etymology:wikidata": "Q465249", "name:fr": "Tunnel Annie Cordy", "name:nl": "Annie Cordytunnel", "old_name": "Tunnel L\u00e9opold II - Leopold II-tunnel", "old_name:etymology:wikidata": "Q12967", "oneway": "yes", "ref": "R20", "source:maxspeed": "sign", "surface": "asphalt", "tunnel": "yes", "wikidata": "Q3346653", "length": 318.239369883661}}, {"type": "Feature", "geometry": {"type": "LineString", "coordinates": [[4.3203802, 50.8660574], [4.3234677, 50.8651777], [4.3372111, 50.8612618], [4.3420861, 50.8598727]]}, "properties": {"foot": "no", "hazmat:E": "no", "highway": "trunk", "lanes": "2", "layer": "-3", "lit": "24/7", "maxheight": "3.5", "maxspeed": "50", "maxweight": "3.5", "name": "Tunnel Annie Cordy - Annie Cordytunnel", "name:etymology:wikidata": "Q465249", "name:fr": "Tunnel Annie Cordy", "name:nl": "Annie Cordytunnel", "old_name": "Tunnel L\u00e9opold II - Leopold II-tunnel", "old_name:etymology:wikidata": "Q12967", "oneway": "yes", "ref": "R20", "source:maxspeed": "sign", "surface": "asphalt", "tunnel": "yes", "wikidata": "Q3346653", "length": 1675.9267358018428}}, {"type": "Feature", "geometry": {"type": "LineString", "coordinates": [[4.384836, 50.8421785], [4.3849808, 50.8421488], [4.3851936, 50.8421049], [4.3852487, 50.8420938], [4.3853034, 50.8420827], [4.3854076, 50.842061]]}, "properties": {"highway": "trunk", "lanes": "2", "layer": "-1", "lit": "24/7", "maxheight": "3.5", "maxspeed": "50", "name": "Tunnel Belliard - Belliardtunnel", "name:etymology:wikidata": "Q767534", "name:fr": "Tunnel Belliard", "name:nl": "Belliardtunnel", "oneway": "yes", "ref": "N3", "source:maxspeed": "sign", "surface": "asphalt", "tunnel": "yes", "wikidata": "Q2062496", "wikipedia": "fr:Tunnel Belliard", "length": 42.32992550781619}}, {"type": "Feature", "geometry": {"type": "LineString", "coordinates": [[4.3854076, 50.842061], [4.3854364, 50.8420618], [4.3855867, 50.8420479], [4.3857456, 50.8420444], [4.3859491, 50.8420722], [4.3860882, 50.842114], [4.3862219, 50.8421793], [4.3863529, 50.842272], [4.386496, 50.8424576]]}, "properties": {"destination": "Cortenbergh - Kortenberg", "highway": "trunk_link", "lanes": "1", "layer": "-1", "lit": "24/7", "maxheight": "3.5", "maxspeed": "50", "oneway": "yes", "source:maxspeed": "sign", "surface": "asphalt", "tunnel": "yes", "length": 98.14418708392351}}, {"type": "Feature", "geometry": {"type": "LineString", "coordinates": [[4.3867898, 50.8432175], [4.3869135, 50.8434702], [4.3869701, 50.8435726], [4.3870421, 50.8436669], [4.3871379, 50.8437411], [4.3872181, 50.8437886], [4.3873887, 50.8438822], [4.3876692, 50.8440344]]}, "properties": {"highway": "trunk_link", "lanes": "1", "layer": "-1", "lit": "24/7", "maxspeed": "70", "oneway": "yes", "source:maxspeed": "sign", "surface": "asphalt", "tunnel": "yes", "length": 113.4669041717173}}, {"type": "Feature", "geometry": {"type": "LineString", "coordinates": [[4.3554649, 50.8354927], [4.3554559, 50.8355707], [4.3554661, 50.8356278], [4.355497, 50.8356772], [4.3555288, 50.8357148], [4.3555741, 50.8357491], [4.3560413, 50.8359376], [4.3563572, 50.8360619], [4.3565637, 50.8361443], [4.3567137, 50.8362176], [4.3568904, 50.8363097], [4.3569922, 50.8363655], [4.3570898, 50.8364252], [4.3571822, 50.8364817], [4.3572768, 50.8365353], [4.3574246, 50.8366168], [4.3574775, 50.8366454], [4.3576368, 50.8367255], [4.3579015, 50.8368819]]}, "properties": {"destination": "Porte de Namur - Naamsepoort", "destination:lang:fr": "Porte de Namur", "destination:lang:nl": "Naamsepoort", "hazmat:E": "no", "highway": "trunk_link", "layer": "-2", "lit": "24/7", "maxheight": "3.5", "maxspeed": "50", "maxweight": "3.5", "motorroad": "yes", "name": "Tunnel Louise - Louizatunnel", "name:etymology:wikidata": "Q237318", "name:fr": "Tunnel Louise", "name:nl": "Louizatunnel", "oneway": "yes", "source:maxspeed": "sign", "surface": "asphalt", "tunnel": "yes", "length": 238.18313410063791}}, {"type": "Feature", "geometry": {"type": "LineString", "coordinates": [[4.3433068, 50.8596053], [4.3430505, 50.8597022], [4.3429663, 50.8597451], [4.342835, 50.8597998], [4.3426299, 50.8598586]]}, "properties": {"foot": "no", "hazmat:E": "no", "highway": "trunk_link", "lane_markings": "no", "layer": "-1", "lit": "24/7", "maxheight": "3.5", "maxspeed": "50", "maxweight": "3.5", "name": "Tunnel Annie Cordy - Annie Cordytunnel", "name:etymology:wikidata": "Q465249", "name:fr": "Tunnel Annie Cordy", "name:nl": "Annie Cordytunnel", "old_name": "Tunnel L\u00e9opold II - Leopold II-tunnel", "old_name:etymology:wikidata": "Q12967", "oneway": "yes", "source:maxspeed": "sign", "surface": "asphalt", "tunnel": "yes", "wikidata": "Q3346653", "length": 55.55203403373995}}, {"type": "Feature", "geometry": {"type": "LineString", "coordinates": [[4.3420861, 50.8598727], [4.342174, 50.8598194], [4.3423078, 50.8597463], [4.3425083, 50.8596891]]}, "properties": {"foot": "no", "hazmat:E": "no", "highway": "trunk_link", "lane_markings": "no", "layer": "-2", "lit": "24/7", "maxheight": "3.5", "maxspeed": "50", "maxweight": "3.5", "name": "Tunnel Annie Cordy - Annie Cordytunnel", "name:etymology:wikidata": "Q465249", "name:fr": "Tunnel Annie Cordy", "name:nl": "Annie Cordytunnel", "old_name": "Tunnel L\u00e9opold II - Leopold II-tunnel", "old_name:etymology:wikidata": "Q12967", "oneway": "yes", "source:maxspeed": "sign", "surface": "asphalt", "tunnel": "yes", "wikidata": "Q3346653", "length": 36.500901656568715}}, {"type": "Feature", "geometry": {"type": "LineString", "coordinates": [[4.3425083, 50.8596891], [4.3427142, 50.8596304], [4.3428668, 50.8596041], [4.3429734, 50.8595925], [4.3432616, 50.8595505]]}, "properties": {"foot": "no", "hazmat:E": "no", "highway": "trunk_link", "layer": "-1", "lit": "24/7", "maxheight": "3.5", "maxspeed": "50", "maxweight": "3.5", "name": "Tunnel Annie Cordy - Annie Cordytunnel", "name:etymology:wikidata": "Q465249", "name:fr": "Tunnel Annie Cordy", "name:nl": "Annie Cordytunnel", "old_name": "Tunnel L\u00e9opold II - Leopold II-tunnel", "old_name:etymology:wikidata": "Q12967", "oneway": "yes", "source:maxspeed": "sign", "surface": "asphalt", "tunnel": "yes", "wikidata": "Q3346653", "length": 55.47447924296321}}, {"type": "Feature", "geometry": {"type": "LineString", "coordinates": [[4.3426299, 50.8598586], [4.3424303, 50.8599158], [4.3422573, 50.8599356], [4.3420717, 50.8599504]]}, "properties": {"foot": "no", "hazmat:E": "no", "highway": "trunk_link", "layer": "-2", "lit": "24/7", "maxheight": "3.5", "maxspeed": "50", "maxweight": "3.5", "name": "Tunnel Annie Cordy - Annie Cordytunnel", "name:etymology:wikidata": "Q465249", "name:fr": "Tunnel Annie Cordy", "name:nl": "Annie Cordytunnel", "old_name": "Tunnel L\u00e9opold II - Leopold II-tunnel", "old_name:etymology:wikidata": "Q12967", "oneway": "yes", "source:maxspeed": "sign", "surface": "asphalt", "tunnel": "yes", "wikidata": "Q3346653", "length": 40.97655125097613}}, {"type": "Feature", "geometry": {"type": "LineString", "coordinates": [[4.3655781, 50.8404353], [4.3656827, 50.8405139], [4.365841, 50.8406384], [4.3659532, 50.840746]]}, "properties": {"hazmat:E": "no", "highway": "trunk_link", "layer": "-1", "lit": "24/7", "location": "underground", "maxheight": "default", "maxspeed": "50", "maxweight": "3.5", "motorroad": "yes", "name": "Tunnel Tr\u00f4ne - Troontunnel", "name:fr": "Tunnel Tr\u00f4ne", "name:nl": "Troontunnel", "oneway": "yes", "source:maxspeed": "sign", "surface": "asphalt", "tunnel": "yes", "length": 43.55850126599274}}, {"type": "Feature", "geometry": {"type": "LineString", "coordinates": [[4.4430991, 50.9047819], [4.4421311, 50.9053596]]}, "properties": {"highway": "tertiary", "layer": "-1", "maxspeed": "30", "name": "Lindenplein", "source:maxspeed": "BE:zone30", "surface": "asphalt", "tunnel": "yes", "length": 93.62955862479659}}, {"type": "Feature", "geometry": {"type": "LineString", "coordinates": [[4.4080273, 50.8155517], [4.4078471, 50.8156202], [4.4076286, 50.8157446], [4.407311, 50.815986]]}, "properties": {"highway": "trunk_link", "lanes": "2", "layer": "-1", "lit": "24/7", "maxheight": "default", "maxspeed": "50", "oneway": "yes", "ref": "A4", "source:maxspeed": "sign", "surface": "asphalt", "tunnel": "yes", "length": 70.47347674354971}}, {"type": "Feature", "geometry": {"type": "LineString", "coordinates": [[4.4645143, 50.8011658], [4.4654697, 50.8007618]]}, "properties": {"carriageway_ref": "h1", "highway": "trunk", "int_ref": "E 411", "lanes": "3", "layer": "-1", "lit": "24/7", "maxspeed": "90", "motorroad": "yes", "name": "Waverse steenweg", "nat_ref": "A4", "oneway": "yes", "operator": "Agentschap Wegen en Verkeer", "ref": "E411", "surface": "asphalt", "toll:hgv": "yes", "tunnel": "yes", "zone:traffic": "BE-VLG:rural", "length": 80.97117598455166}}, {"type": "Feature", "geometry": {"type": "LineString", "coordinates": [[4.4655581, 50.8008624], [4.4646247, 50.8012597]]}, "properties": {"access:lanes": "yes|yes|no", "carriageway_ref": "h2", "highway": "trunk", "int_ref": "E 411", "lanes": "3", "layer": "-1", "lit": "24/7", "maxspeed": "90", "motorroad": "yes", "name": "Waverse steenweg", "nat_ref": "A4", "oneway": "yes", "operator": "Agentschap Wegen en Verkeer", "psv:lanes": "yes|yes|designated", "ref": "E411", "surface": "asphalt", "toll:hgv": "yes", "tunnel": "yes", "zone:traffic": "BE-VLG:rural", "length": 79.26762418979679}}, {"type": "Feature", "geometry": {"type": "LineString", "coordinates": [[4.4774305, 50.8204822], [4.4778592, 50.821022], [4.4782424, 50.8216953], [4.4784246, 50.8221041], [4.4786844, 50.8226104], [4.4788789, 50.8232755], [4.4789291, 50.823634]]}, "properties": {"bicycle": "no", "carriageway_ref": "h1", "foot": "no", "hazmat:E": "no", "highway": "trunk", "horse": "no", "lanes": "2", "layer": "-1", "lit": "24/7", "maxspeed": "90", "motorroad": "yes", "oneway": "yes", "operator": "Agentschap Wegen en Verkeer", "ref": "R0", "surface": "asphalt", "toll:hgv": "yes", "tunnel": "yes", "zone:traffic": "BE-VLG:rural", "length": 368.60435697077247}}, {"type": "Feature", "geometry": {"type": "LineString", "coordinates": [[4.4787611, 50.8236417], [4.4787204, 50.8232763], [4.4785395, 50.8226166], [4.4782986, 50.8221345], [4.478091, 50.8217318], [4.4776579, 50.8210122], [4.4773218, 50.8204475]]}, "properties": {"bicycle": "no", "carriageway_ref": "h2", "foot": "no", "hazmat:E": "no", "highway": "trunk", "horse": "no", "lanes": "2", "layer": "-1", "lit": "24/7", "maxspeed": "90", "motorroad": "yes", "oneway": "yes", "operator": "Agentschap Wegen en Verkeer", "ref": "R0", "surface": "asphalt", "toll:hgv": "yes", "tunnel": "yes", "zone:traffic": "BE-VLG:rural", "length": 371.4252571824037}}, {"type": "Feature", "geometry": {"type": "LineString", "coordinates": [[4.3685355, 50.8457613], [4.3683687, 50.8454341]]}, "properties": {"hazmat:E": "no", "highway": "trunk", "lanes": "2", "layer": "-1", "lit": "24/7", "maxspeed": "50", "maxweight": "3.5", "motorroad": "yes", "name": "Tunnel Arts-Loi - Kunst-Wettunnel", "name:fr": "Tunnel Arts-Loi", "name:nl": "Kunst-Wettunnel", "oneway": "yes", "ref": "R20", "source:maxspeed": "sign", "surface": "asphalt", "tunnel": "yes", "length": 38.248292725709604}}, {"type": "Feature", "geometry": {"type": "LineString", "coordinates": [[4.4080273, 50.8155517], [4.4075218, 50.815643], [4.4073511, 50.8157116], [4.4072282, 50.8157727], [4.4069477, 50.8159895]]}, "properties": {"highway": "trunk_link", "layer": "-1", "lit": "24/7", "maxheight": "default", "maxspeed": "50", "oneway": "yes", "source:maxspeed": "sign", "surface": "asphalt", "tunnel": "yes", "length": 93.48565365343771}}, {"type": "Feature", "geometry": {"type": "LineString", "coordinates": [[4.3854267, 50.8420596], [4.3841749, 50.8423187], [4.3824413, 50.8426793]]}, "properties": {"highway": "trunk", "lanes": "3", "layer": "-2", "lit": "24/7", "maxspeed": "50", "name": "Tunnel Loi - Wettunnel", "name:fr": "Tunnel Loi", "name:nl": "Wettunnel", "oneway": "yes", "ref": "N3", "source:maxspeed": "sign", "surface": "asphalt", "tunnel": "yes", "length": 221.28978818999292}}, {"type": "Feature", "geometry": {"type": "LineString", "coordinates": [[4.432175, 50.878734], [4.4318257, 50.8786359], [4.4314805, 50.8785418], [4.4310367, 50.8784435], [4.4306683, 50.8783708], [4.4302827, 50.8783023], [4.4299314, 50.8782454], [4.4295085, 50.8781808], [4.4290468, 50.8781161]]}, "properties": {"bicycle": "use_sidepath", "highway": "trunk", "lanes": "2", "layer": "-1", "maxheight": "default", "maxspeed": "50", "motorroad": "yes", "name": "Avenue L\u00e9opold III - Leopold III-laan", "name:etymology:wikidata": "Q12973", "name:fr": "Avenue L\u00e9opold III", "name:nl": "Leopold III-laan", "oneway": "yes", "operator": "Bruxelles Mobilit\u00e9 - Brussel Mobiliteit", "ref": "A201", "source:maxspeed": "sign", "surface": "asphalt", "tunnel": "yes", "zone:traffic": "BE-BRU:urban", "length": 231.21953366172664}}, {"type": "Feature", "geometry": {"type": "LineString", "coordinates": [[4.4291048, 50.8779523], [4.4295053, 50.8780117], [4.430029, 50.8780977], [4.4303935, 50.8781709], [4.4307246, 50.8782436], [4.4309773, 50.8783059], [4.431265, 50.8783811], [4.4315148, 50.878447], [4.4318916, 50.8785493], [4.4322363, 50.8786517]]}, "properties": {"bicycle": "use_sidepath", "highway": "trunk", "lanes": "2", "layer": "-1", "maxheight": "default", "maxspeed": "50", "motorroad": "yes", "name": "Avenue L\u00e9opold III - Leopold III-laan", "name:etymology:wikidata": "Q12973", "name:fr": "Avenue L\u00e9opold III", "name:nl": "Leopold III-laan", "oneway": "yes", "operator": "Bruxelles Mobilit\u00e9 - Brussel Mobiliteit", "ref": "A201", "source:maxspeed": "sign", "surface": "asphalt", "tunnel": "yes", "zone:traffic": "BE-BRU:urban", "length": 234.31948657718064}}, {"type": "Feature", "geometry": {"type": "LineString", "coordinates": [[4.4270836, 50.9018569], [4.4269884, 50.9022685], [4.4269382, 50.9025906], [4.4269289, 50.9027664], [4.4269176, 50.9029844], [4.4269176, 50.9033455]]}, "properties": {"highway": "trunk", "lanes": "2", "layer": "-1", "lit": "yes", "maxspeed": "90", "name": "Woluwelaan", "oneway": "yes", "ref": "R22", "surface": "asphalt", "tunnel": "yes", "length": 166.28609073844012}}, {"type": "Feature", "geometry": {"type": "LineString", "coordinates": [[4.3554649, 50.8354927], [4.3544304, 50.8364697]]}, "properties": {"hazmat:E": "no", "highway": "trunk_link", "layer": "-2", "lit": "24/7", "maxheight": "3.5", "maxspeed": "50", "maxweight": "3.5", "motorroad": "yes", "name": "Tunnel St\u00e9phanie - Stefaniatunnel", "name:etymology:wikidata": "Q170197", "name:fr": "Tunnel St\u00e9phanie", "name:nl": "Stefaniatunnel", "oneway": "yes", "ref": "N24", "source:maxspeed": "sign", "surface": "asphalt", "tunnel": "yes", "length": 130.856997219078}}, {"type": "Feature", "geometry": {"type": "LineString", "coordinates": [[4.354796, 50.8360119], [4.3580018, 50.8329281]]}, "properties": {"hazmat:E": "no", "highway": "trunk", "lanes": "1", "layer": "-2", "lit": "24/7", "maxheight": "3.5", "maxspeed": "50", "maxweight": "3.5", "motorroad": "yes", "name": "Tunnel St\u00e9phanie - Stefaniatunnel", "name:etymology:wikidata": "Q170197", "name:fr": "Tunnel St\u00e9phanie", "name:nl": "Stefaniatunnel", "oneway": "yes", "ref": "N24", "source:maxspeed": "sign", "surface": "asphalt", "tunnel": "yes", "length": 410.72135745469484}}, {"type": "Feature", "geometry": {"type": "LineString", "coordinates": [[4.3651254, 50.8694681], [4.365463, 50.8684658]]}, "properties": {"covered": "yes", "cycleway": "track", "highway": "secondary", "layer": "-1", "maxspeed": "30", "name": "Rue des Palais - Paleizenstraat", "name:fr": "Rue des Palais", "name:nl": "Paleizenstraat", "source:maxspeed": "BE-BRU:urban", "surface": "asphalt", "tunnel": "yes", "length": 114.0061810124042}}, {"type": "Feature", "geometry": {"type": "LineString", "coordinates": [[4.3854076, 50.842061], [4.386683, 50.8417589], [4.3880184, 50.8414782]]}, "properties": {"destination": "Tervueren - Tervuren", "highway": "trunk", "lanes": "2", "layer": "-1", "lit": "24/7", "maxheight": "3.5", "maxspeed": "50", "name": "Tunnel Belliard - Belliardtunnel", "name:etymology:wikidata": "Q767534", "name:fr": "Tunnel Belliard", "name:nl": "Belliardtunnel", "oneway": "yes", "ref": "N3", "source:maxspeed": "sign", "surface": "asphalt", "tunnel": "yes", "wikidata": "Q2062496", "wikipedia": "fr:Tunnel Belliard", "length": 195.0231614953222}}, {"type": "Feature", "geometry": {"type": "LineString", "coordinates": [[4.3659579, 50.8694776], [4.3659358, 50.869488], [4.3652143, 50.8698276]]}, "properties": {"cycleway:left": "share_busway", "cycleway:right": "track", "highway": "tertiary", "layer": "-1", "maxspeed": "30", "name": "Rue du Pavillon - Paviljoenstraat", "name:fr": "Rue du Pavillon", "name:nl": "Paviljoenstraat", "oneway": "yes", "oneway:bicycle": "no", "oneway:bus": "no", "source:maxspeed": "BE-BRU:urban", "surface": "asphalt", "tunnel": "yes", "length": 65.23821537851703}}, {"type": "Feature", "geometry": {"type": "LineString", "coordinates": [[4.3420861, 50.8598727], [4.3493936, 50.8577904]]}, "properties": {"hazmat:E": "no", "highway": "trunk", "lanes": "2", "layer": "-3", "lit": "24/7", "maxheight": "3.5", "maxspeed": "50", "maxweight": "3.5", "motorroad": "yes", "name": "Tunnel Annie Cordy - Annie Cordytunnel", "name:etymology:wikidata": "Q465249", "name:fr": "Tunnel Annie Cordy", "name:nl": "Annie Cordytunnel", "old_name": "Tunnel L\u00e9opold II - Leopold II-tunnel", "old_name:etymology:wikidata": "Q12967", "oneway": "yes", "ref": "R20", "source:maxspeed": "sign", "surface": "asphalt", "tunnel": "yes", "wikidata": "Q3346653", "length": 564.2656302815902}}, {"type": "Feature", "geometry": {"type": "LineString", "coordinates": [[4.3494352, 50.8578485], [4.3420717, 50.8599504]]}, "properties": {"hazmat:E": "no", "highway": "trunk", "lanes": "2", "layer": "-3", "lit": "24/7", "maxheight": "3.5", "maxspeed": "50", "maxweight": "3.5", "motorroad": "yes", "name": "Tunnel Annie Cordy - Annie Cordytunnel", "name:etymology:wikidata": "Q465249", "name:fr": "Tunnel Annie Cordy", "name:nl": "Annie Cordytunnel", "old_name": "Tunnel L\u00e9opold II - Leopold II-tunnel", "old_name:etymology:wikidata": "Q12967", "oneway": "yes", "ref": "R20", "source:maxspeed": "sign", "surface": "asphalt", "tunnel": "yes", "wikidata": "Q3346653", "length": 568.7555901757472}}, {"type": "Feature", "geometry": {"type": "LineString", "coordinates": [[4.3569521, 50.8556329], [4.3585111, 50.8553022], [4.3606685, 50.8547222]]}, "properties": {"hazmat:E": "no", "highway": "trunk", "lanes": "2", "layer": "-1", "lit": "24/7", "maxspeed": "50", "maxweight": "3.5", "motorroad": "yes", "name": "Tunnel Rogier - Rogiertunnel", "name:fr": "Tunnel Rogier", "name:nl": "Rogiertunnel", "oneway": "yes", "ref": "R20", "source:maxspeed": "sign", "surface": "asphalt", "tunnel": "yes", "length": 280.8285138407003}}, {"type": "Feature", "geometry": {"type": "LineString", "coordinates": [[4.3570131, 50.8556947], [4.3563887, 50.8558727], [4.3527966, 50.8568834]]}, "properties": {"hazmat:E": "no", "highway": "trunk", "lanes": "2", "layer": "-2", "lit": "24/7", "maxspeed": "50", "maxweight": "3.5", "motorroad": "yes", "oneway": "yes", "ref": "R20", "source:maxspeed": "sign", "surface": "asphalt", "tunnel": "yes", "length": 325.01974675812687}}, {"type": "Feature", "geometry": {"type": "LineString", "coordinates": [[4.4228651, 50.9038587], [4.4225796, 50.9039184]]}, "properties": {"cycleway": "track", "cycleway:foot": "designated", "highway": "primary", "maxspeed": "50", "maxspeed:type": "sign", "name": "Steenweg Buda", "name:nl": "Steenweg Buda", "ref": "N1d", "segregated": "no", "surface": "concrete", "traffic_sign": "BE:D10", "tunnel": "yes", "length": 21.15248828346868}}, {"type": "Feature", "geometry": {"type": "LineString", "coordinates": [[4.4641977, 50.7996679], [4.4646108, 50.8003136], [4.4647026, 50.8004754], [4.4649306, 50.8008287]]}, "properties": {"bicycle": "no", "carriageway_ref": "h1", "foot": "no", "highway": "trunk", "horse": "no", "lanes": "2", "layer": "-2", "lit": "24/7", "maxspeed": "70", "motorroad": "yes", "name": "Tunnel L\u00e9onard - L\u00e9onardtunnel", "name:fr": "Tunnel L\u00e9onard", "name:nl": "L\u00e9onardtunnel", "oneway": "yes", "operator": "Agentschap Wegen en Verkeer", "ref": "R0", "surface": "asphalt", "toll:hgv": "yes", "tunnel": "yes", "zone:traffic": "BE-BRU:rural", "length": 139.09981437439768}}, {"type": "Feature", "geometry": {"type": "LineString", "coordinates": [[4.4648362, 50.8008685], [4.4646743, 50.8006187], [4.464506, 50.8003398], [4.4640884, 50.799696]]}, "properties": {"bicycle": "no", "carriageway_ref": "h2", "foot": "no", "highway": "trunk", "horse": "no", "lanes": "2", "layer": "-2", "lit": "24/7", "maxheight": "default", "maxspeed": "70", "motorroad": "yes", "name": "Tunnel L\u00e9onard - L\u00e9onardtunnel", "name:fr": "Tunnel L\u00e9onard", "name:nl": "L\u00e9onardtunnel", "oneway": "yes", "operator": "Agentschap Wegen en Verkeer", "ref": "R0", "surface": "asphalt", "toll:hgv": "yes", "tunnel": "yes", "zone:traffic": "BE-BRU:rural", "length": 140.6929676690544}}, {"type": "Feature", "geometry": {"type": "LineString", "coordinates": [[4.4773218, 50.8204475], [4.4763734, 50.8190665]]}, "properties": {"bicycle": "no", "carriageway_ref": "h2", "foot": "no", "hazmat:E": "no", "highway": "trunk", "horse": "no", "lanes": "2", "layer": "-1", "lit": "24/7", "maxspeed": "90", "motorroad": "yes", "name": "Sint-Jansbergsteenweg", "oneway": "yes", "operator": "Agentschap Wegen en Verkeer", "ref": "R0", "surface": "asphalt", "toll:hgv": "yes", "tunnel": "yes", "zone:traffic": "BE-VLG:rural", "length": 167.53674888789868}}, {"type": "Feature", "geometry": {"type": "LineString", "coordinates": [[4.4765245, 50.8190294], [4.4774305, 50.8204822]]}, "properties": {"bicycle": "no", "carriageway_ref": "h1", "foot": "no", "hazmat:E": "no", "highway": "trunk", "horse": "no", "lanes": "2", "layer": "-1", "lit": "24/7", "maxspeed": "90", "motorroad": "yes", "name": "Sint-Jansbergsteenweg", "oneway": "yes", "operator": "Agentschap Wegen en Verkeer", "ref": "R0", "surface": "asphalt", "toll:hgv": "yes", "tunnel": "yes", "zone:traffic": "BE-VLG:rural", "length": 173.77023542281773}}, {"type": "Feature", "geometry": {"type": "LineString", "coordinates": [[4.3737379, 50.8806837], [4.3739095, 50.8806664], [4.3739663, 50.8806611], [4.3740219, 50.8806593], [4.3740533, 50.8806603]]}, "properties": {"access": "no", "highway": "primary_link", "maxspeed": "50", "name": "Rampe Lambermont - Lambermontoprit", "name:fr": "Rampe Lambermont", "name:nl": "Lambermontoprit", "oneway": "yes", "source:maxspeed": "sign", "surface": "asphalt", "tunnel": "yes", "length": 22.40064468117068}}, {"type": "Feature", "geometry": {"type": "LineString", "coordinates": [[4.4278713, 50.8996712], [4.4277949, 50.899778], [4.4276503, 50.9000055], [4.4275525, 50.9001866], [4.4274519, 50.9004339], [4.4273026, 50.9010005]]}, "properties": {"check_date": "2023-04-22", "highway": "trunk", "lanes": "2", "layer": "-1", "lit": "yes", "maxspeed": "90", "name": "Woluwelaan", "oneway": "yes", "ref": "R22", "surface": "asphalt", "tunnel": "yes", "length": 153.913829414781}}, {"type": "Feature", "geometry": {"type": "LineString", "coordinates": [[4.4652705, 50.8015386], [4.4648362, 50.8008685]]}, "properties": {"bicycle": "no", "carriageway_ref": "h2", "foot": "no", "highway": "trunk", "horse": "no", "lanes": "2", "layer": "-2", "lit": "24/7", "maxheight": "default", "maxspeed": "70", "motorroad": "yes", "name": "Tunnel L\u00e9onard - L\u00e9onardtunnel", "name:fr": "Tunnel L\u00e9onard", "name:nl": "L\u00e9onardtunnel", "oneway": "yes", "operator": "Agentschap Wegen en Verkeer", "ref": "R0", "surface": "asphalt", "toll:hgv": "yes", "tunnel": "yes", "zone:traffic": "BE-VLG:rural", "length": 80.5874805752808}}, {"type": "Feature", "geometry": {"type": "LineString", "coordinates": [[4.4649306, 50.8008287], [4.465441, 50.8016197]]}, "properties": {"bicycle": "no", "carriageway_ref": "h1", "foot": "no", "highway": "trunk", "horse": "no", "lanes": "2", "layer": "-2", "lit": "24/7", "maxspeed": "70", "motorroad": "yes", "name": "Tunnel L\u00e9onard - L\u00e9onardtunnel", "name:fr": "Tunnel L\u00e9onard", "name:nl": "L\u00e9onardtunnel", "oneway": "yes", "operator": "Agentschap Wegen en Verkeer", "ref": "R0", "surface": "asphalt", "toll:hgv": "yes", "tunnel": "yes", "zone:traffic": "BE-VLG:rural", "length": 95.06680513331686}}]}