{"type": "FeatureCollection", "features": [{"type": "Feature", "geometry": {"type": "LineString", "coordinates": [[4.9739625, 52.3765332], [4.9740034, 52.376034], [4.9740208, 52.3750109], [4.9739926, 52.3739898], [4.9739227, 52.3731194], [4.9736386, 52.3716913]]}, "properties": {"carriageway_ref": "Re", "hazmat:B": "no", "hazmat:C": "no", "hazmat:D": "yes", "hazmat:E": "yes", "highway": "motorway", "int_ref": "E 35", "lanes": "3", "layer": "-1", "lit": "24/7", "maxheight": "4.2", "maxspeed": "100", "name": "Ringweg-Noord", "oneway": "yes", "operator": "Rijkswaterstaat", "ref": "A10", "surface": "asphalt", "tunnel": "yes", "tunnel:name": "Zeeburgertunnel", "length": 540.1625137241435}}, {"type": "Feature", "geometry": {"type": "LineString", "coordinates": [[4.9738538, 52.3716704], [4.9741516, 52.373088], [4.9742195, 52.3739748], [4.9742248, 52.3750085], [4.9741798, 52.3760427], [4.9741676, 52.3765384]]}, "properties": {"carriageway_ref": "Li", "hazmat:B": "no", "hazmat:C": "no", "hazmat:D": "yes", "hazmat:E": "yes", "highway": "motorway", "int_ref": "E 35", "lanes": "3", "layer": "-1", "lit": "24/7", "maxheight": "4.2", "maxspeed": "100", "name": "Ringweg-Noord", "oneway": "yes", "operator": "Rijkswaterstaat", "ref": "A10", "surface": "asphalt", "tunnel": "yes", "tunnel:name": "Zeeburgertunnel", "length": 543.1385104024453}}, {"type": "Feature", "geometry": {"type": "LineString", "coordinates": [[4.9599732, 52.3479627], [4.9608108, 52.348803]]}, "properties": {"carriageway_ref": "Li", "highway": "motorway", "int_ref": "E 35", "lanes": "3", "layer": "-1", "lit": "yes", "maxspeed": "100", "name": "Ringweg-Oost", "oneway": "yes", "operator": "Rijkswaterstaat", "ref": "A10", "surface": "asphalt", "tunnel": "yes", "tunnel:name": "Watergraafsmeer", "length": 109.54770705307293}}, {"type": "Feature", "geometry": {"type": "LineString", "coordinates": [[4.9603711, 52.3489893], [4.9602898, 52.3488895], [4.9601978, 52.3487906], [4.9595518, 52.348136]]}, "properties": {"carriageway_ref": "Li", "change:lanes": "yes|not_right|no", "highway": "motorway_link", "lanes": "3", "layer": "-1", "lit": "yes", "maxspeed": "100", "oneway": "yes", "operator": "Rijkswaterstaat", "ref": "A1", "surface": "asphalt", "tunnel": "yes", "tunnel:name": "Watergraafsmeer", "length": 110.18432567125873}}, {"type": "Feature", "geometry": {"type": "LineString", "coordinates": [[4.960618, 52.348885], [4.9597845, 52.3480409]]}, "properties": {"carriageway_ref": "Re", "highway": "motorway", "int_ref": "E 35", "lanes": "3", "layer": "-1", "lit": "yes", "maxspeed": "100", "name": "Ringweg-Oost", "oneway": "yes", "operator": "Rijkswaterstaat", "ref": "A10", "surface": "asphalt", "tunnel": "yes", "tunnel:name": "Watergraafsmeer", "length": 109.76395767827465}}, {"type": "Feature", "geometry": {"type": "LineString", "coordinates": [[4.9602175, 52.3478614], [4.9610623, 52.3486993]]}, "properties": {"carriageway_ref": "Re", "highway": "motorway_link", "lanes": "3", "layer": "-1", "lit": "yes", "maxheight": "default", "maxspeed": "100", "oneway": "yes", "operator": "Rijkswaterstaat", "ref": "A1", "surface": "asphalt", "tunnel": "yes", "tunnel:name": "Watergraafsmeer", "length": 109.57688383440727}}, {"type": "Feature", "geometry": {"type": "LineString", "coordinates": [[4.9403916, 52.3138056], [4.9407108, 52.3139188], [4.9419554, 52.3143279], [4.9426232, 52.3145476], [4.943064, 52.3147]]}, "properties": {"bicycle": "no", "foot": "no", "hazmat:adr_tunnel_cat": "E", "highway": "secondary", "lanes": "2", "layer": "-1", "maxheight": "4.0", "maxspeed": "50", "name": "Burgemeester Stramanweg", "oneway": "yes", "surface": "asphalt", "tunnel": "yes", "length": 207.6658026611034}}, {"type": "Feature", "geometry": {"type": "LineString", "coordinates": [[4.9429969, 52.3147733], [4.9424864, 52.3146017], [4.9419785, 52.3144376], [4.9410421, 52.3141278], [4.9403287, 52.3139012]]}, "properties": {"bicycle": "no", "foot": "no", "hazmat:adr_tunnel_cat": "E", "highway": "secondary", "lanes": "2", "layer": "-1", "maxheight": "4.0", "maxspeed": "50", "name": "Burgemeester Stramanweg", "oneway": "yes", "tunnel": "yes", "length": 206.22780391739468}}, {"type": "Feature", "geometry": {"type": "LineString", "coordinates": [[4.9108736, 52.3714306], [4.9110904, 52.3716138], [4.9112649, 52.3717816]]}, "properties": {"agricultural": "no", "hazmat:B": "no", "hazmat:C": "no", "hazmat:D": "no", "hazmat:E": "yes", "highway": "trunk", "lanes": "2", "layer": "-1", "lit": "yes", "maxheight": "4.0", "maxspeed": "50", "maxweight": "120", "motorroad": "yes", "name": "IJ-tunnel", "oneway": "yes", "surface": "asphalt", "tunnel": "yes", "length": 47.30472476635503}}, {"type": "Feature", "geometry": {"type": "LineString", "coordinates": [[4.9111347, 52.3718305], [4.9108745, 52.3715891], [4.9107523, 52.3714779]]}, "properties": {"agricultural": "no", "hazmat:B": "no", "hazmat:C": "no", "hazmat:D": "no", "hazmat:E": "yes", "highway": "trunk", "lanes": "2", "layer": "-1", "lit": "yes", "maxheight": "4.0", "maxspeed": "50", "maxweight": "120", "motorroad": "yes", "name": "IJ-tunnel", "oneway": "yes", "surface": "asphalt", "tunnel": "yes", "length": 47.093137356947565}}, {"type": "Feature", "geometry": {"type": "LineString", "coordinates": [[4.91239, 52.3736731], [4.9124354, 52.3740959], [4.912434, 52.3742582], [4.9123868, 52.3745124], [4.9123475, 52.3746702], [4.9121892, 52.3754543], [4.91107, 52.38002], [4.9107192, 52.3813737], [4.9106396, 52.381689], [4.9105909, 52.3818934], [4.9105655, 52.3820748], [4.9105522, 52.3822564], [4.910548, 52.3825258], [4.9105467, 52.3826855], [4.9105635, 52.3828317], [4.9105936, 52.3830096], [4.9106299, 52.3831707], [4.9106846, 52.3833643], [4.9107308, 52.3835027], [4.9108002, 52.383653], [4.9108708, 52.3837886]]}, "properties": {"agricultural": "no", "bicycle": "no", "foot": "no", "hazmat:B": "no", "hazmat:C": "no", "hazmat:D": "no", "hazmat:E": "yes", "highway": "trunk", "horse": "no", "lanes": "2", "layer": "-1", "lit": "24/7", "maxheight": "4.0", "maxspeed": "70", "motorroad": "yes", "name": "IJ-tunnel", "oneway": "yes", "ref": "S116", "surface": "asphalt", "tunnel": "yes", "width": "5.5", "length": 1137.422679928904}}, {"type": "Feature", "geometry": {"type": "LineString", "coordinates": [[4.9107028, 52.3838205], [4.9105967, 52.3835821], [4.9105083, 52.3833404], [4.9104608, 52.3831732], [4.9104394, 52.3830841], [4.9104179, 52.3829711], [4.910401, 52.3828364], [4.9103817, 52.3826216], [4.9103791, 52.3823507], [4.9103925, 52.3821083], [4.9104099, 52.3819782], [4.9105928, 52.3812208], [4.91176, 52.37635], [4.9119768, 52.3754427], [4.9121854, 52.3744491], [4.9122016, 52.3743485], [4.9122167, 52.3742547], [4.912219, 52.3741058], [4.9121642, 52.3736469]]}, "properties": {"agricultural": "no", "bicycle": "no", "foot": "no", "hazmat:B": "no", "hazmat:C": "no", "hazmat:D": "no", "hazmat:E": "yes", "highway": "trunk", "horse": "no", "lanes": "2", "layer": "-1", "lit": "24/7", "maxheight": "4.0", "maxspeed": "50", "motorroad": "yes", "name": "IJ-tunnel", "oneway": "yes", "ref": "S116", "surface": "asphalt", "tunnel": "yes", "width": "5.5", "length": 1143.2457943457218}}, {"type": "Feature", "geometry": {"type": "LineString", "coordinates": [[4.8658181, 52.416302], [4.8608116, 52.411007]]}, "properties": {"carriageway_ref": "n", "hazmat:B": "no", "hazmat:C": "no", "hazmat:D": "yes", "hazmat:E": "yes", "highway": "motorway_link", "int_ref": "E 22", "lanes": "2", "layer": "-1", "lit": "yes", "maxheight": "4", "maxspeed": "100", "name": "Eerste Coentunnel", "name:en": "First Coen Tunnel", "name:nl": "Eerste Coentunnel", "not:name": "Ringweg-West", "oneway": "yes", "operator": "Rijkswaterstaat", "ref": "A10", "source:name": "NWB", "source:not:name": "https://zoek.officielebekendmakingen.nl/gmb-2016-183326.html", "surface": "asphalt", "tunnel": "yes", "wikidata": "Q1106704", "wikipedia": "nl:Coentunnel", "length": 680.5933157825586}}, {"type": "Feature", "geometry": {"type": "LineString", "coordinates": [[4.8659473, 52.4162597], [4.8609356, 52.410962]]}, "properties": {"carriageway_ref": "Li", "hazmat:B": "no", "hazmat:C": "no", "hazmat:D": "yes", "hazmat:E": "yes", "highway": "motorway", "int_ref": "E 22", "lanes": "2", "layer": "-1", "lit": "yes", "maxheight": "4", "maxspeed": "100", "name": "Eerste Coentunnel", "name:en": "First Coen Tunnel", "name:nl": "Eerste Coentunnel", "not:name": "Ringweg-West", "oneway": "yes", "operator": "Rijkswaterstaat", "ref": "A10", "source:name": "NWB", "source:not:name": "https://zoek.officielebekendmakingen.nl/gmb-2016-183326.html", "surface": "asphalt", "tunnel": "yes", "wikidata": "Q1106704", "wikipedia": "nl:Coentunnel", "length": 681.0306978042607}}, {"type": "Feature", "geometry": {"type": "LineString", "coordinates": [[4.8440032, 52.3774867], [4.8443187, 52.3782492]]}, "properties": {"carriageway_ref": "Re", "highway": "motorway", "int_ref": "E 22", "lanes": "3", "layer": "-1", "lit": "yes", "maxspeed": "80", "name": "Ringweg-West", "old_name:-2016-12-13": "Einsteinweg", "oneway": "yes", "operator": "Rijkswaterstaat", "ref": "A10", "source:name": "https://zoek.officielebekendmakingen.nl/gmb-2016-183326.html", "surface": "asphalt", "tunnel": "yes", "length": 87.52478817637318}}, {"type": "Feature", "geometry": {"type": "LineString", "coordinates": [[4.8441137, 52.3782759], [4.8437956, 52.3775201]]}, "properties": {"carriageway_ref": "Li", "highway": "motorway", "int_ref": "E 22", "lanes": "3", "layer": "-1", "lit": "yes", "maxspeed": "80", "name": "Ringweg-West", "old_name:-2016-12-13": "Einsteinweg", "oneway": "yes", "operator": "Rijkswaterstaat", "ref": "A10", "source:name": "https://zoek.officielebekendmakingen.nl/gmb-2016-183326.html", "surface": "asphalt", "tunnel": "yes", "length": 86.84624316600039}}, {"type": "Feature", "geometry": {"type": "LineString", "coordinates": [[4.8404622, 52.3433472], [4.84153, 52.3433537]]}, "properties": {"bicycle": "use_sidepath", "highway": "tertiary", "layer": "-1", "maxheight": "3.0", "maxspeed": "50", "name": "Overschiestraat", "tunnel": "yes", "length": 72.77559910205106}}, {"type": "Feature", "geometry": {"type": "LineString", "coordinates": [[4.9082887, 52.3600541], [4.9084464, 52.3600945], [4.908731, 52.3601652], [4.9089511, 52.36021]]}, "properties": {"bicycle": "no", "foot": "no", "highway": "primary", "lanes": "2", "layer": "-1", "lit": "yes", "maxspeed": "50", "name": "Mauritskade", "oneway": "yes", "ref": "S100", "surface": "asphalt", "tunnel": "yes", "length": 48.371229597923275}}, {"type": "Feature", "geometry": {"type": "LineString", "coordinates": [[4.9088809, 52.3603029], [4.9085633, 52.3602553], [4.9082268, 52.3601523]]}, "properties": {"bicycle": "no", "foot": "no", "highway": "primary", "lanes": "2", "layer": "-1", "lit": "yes", "maxspeed": "50", "name": "Mauritskade", "oneway": "yes", "ref": "S100", "surface": "asphalt", "tunnel": "yes", "length": 47.90513511861914}}, {"type": "Feature", "geometry": {"type": "LineString", "coordinates": [[4.8614385, 52.4107887], [4.8671386, 52.4167104]]}, "properties": {"carriageway_ref": "Re", "hazmat:B": "no", "hazmat:C": "no", "hazmat:D": "yes", "hazmat:E": "yes", "highway": "motorway", "int_ref": "E 22", "lanes": "4", "layer": "-1", "lit": "yes", "maxheight": "4.3", "maxspeed": "100", "name": "Tweede Coentunnel", "name:en": "Second Coen Tunnel", "name:nl": "Tweede Coentunnel", "not:name": "Ringweg-West", "oneway": "yes", "operator": "Rijkswaterstaat", "ref": "A10", "source:name": "NWB", "source:not:name": "https://zoek.officielebekendmakingen.nl/gmb-2016-183326.html", "surface": "asphalt", "tunnel": "yes", "wikidata": "Q1974151", "wikipedia": "nl:Tweede Coentunnel", "length": 764.6104116513061}}, {"type": "Feature", "geometry": {"type": "LineString", "coordinates": [[4.8395448, 52.3455178], [4.8395314, 52.3459719]]}, "properties": {"bicycle": "use_sidepath", "highway": "tertiary", "layer": "-1", "maxspeed": "50", "name": "Overschiestraat", "tunnel": "yes", "length": 50.53773471009708}}, {"type": "Feature", "geometry": {"type": "LineString", "coordinates": [[4.8612496, 52.4108607], [4.8669434, 52.4167809]]}, "properties": {"carriageway_ref": "z", "hazmat:B": "no", "hazmat:C": "no", "hazmat:D": "yes", "hazmat:E": "yes", "highway": "motorway", "int_ref": "E 22", "lanes": "2", "layer": "-1", "lit": "yes", "maxheight": "4.3", "maxspeed": "100", "maxspeed:type": "sign", "name": "Tweede Coentunnel", "name:en": "Second Coen Tunnel", "name:nl": "Tweede Coentunnel", "not:name": "Ringweg-West", "oneway": "reversible", "operator": "Rijkswaterstaat", "ref": "A10", "source:name": "NWB", "source:not:name": "https://zoek.officielebekendmakingen.nl/gmb-2016-183326.html", "surface": "asphalt", "tunnel": "yes", "wikidata": "Q1974151", "wikipedia": "nl:Tweede Coentunnel", "zone:traffic": "NL:rural", "length": 764.2488647885551}}, {"type": "Feature", "geometry": {"type": "LineString", "coordinates": [[4.9580377, 52.3730494], [4.9574602, 52.3731716], [4.9573036, 52.3732025], [4.9571464, 52.3732322], [4.9569886, 52.3732609], [4.9568474, 52.3732853], [4.9567057, 52.3733087], [4.9565635, 52.3733309], [4.9564208, 52.373352], [4.9562777, 52.373372], [4.9561341, 52.3733908], [4.9559904, 52.3734085], [4.955846, 52.3734251], [4.9557013, 52.3734405], [4.9555564, 52.3734548], [4.9554113, 52.3734679], [4.9552657, 52.3734799], [4.9551201, 52.3734907], [4.9549742, 52.3735004], [4.9548278, 52.3735089], [4.9546816, 52.3735162], [4.9545353, 52.3735224], [4.9543886, 52.3735275], [4.9542419, 52.3735313], [4.9540953, 52.373534], [4.9539485, 52.3735356], [4.9538017, 52.373536], [4.9536549, 52.3735352], [4.9535082, 52.3735332], [4.9533614, 52.3735301], [4.9532147, 52.3735258], [4.9530683, 52.3735204], [4.9529221, 52.3735138], [4.9527757, 52.3735061], [4.9526296, 52.3734972], [4.9524836, 52.3734872], [4.9523135, 52.373474], [4.952144, 52.3734595], [4.9519752, 52.3734438], [4.9518074, 52.3734272], [4.9516402, 52.3734099], [4.9514736, 52.373392], [4.9511417, 52.3733556], [4.9494594, 52.373169], [4.9428191, 52.3724324], [4.9427762, 52.3724276], [4.9420639, 52.3723486], [4.9414374, 52.3722791], [4.9411865, 52.3722523], [4.941062, 52.3722397], [4.9409375, 52.3722276], [4.940813, 52.3722162], [4.9406889, 52.3722056], [4.9405481, 52.3721947], [4.940407, 52.3721849], [4.9402656, 52.3721762], [4.9401243, 52.3721687], [4.9399826, 52.3721624], [4.9398408, 52.3721571], [4.9396991, 52.3721531], [4.9395572, 52.3721502], [4.9394152, 52.3721484], [4.9392734, 52.3721478], [4.9391313, 52.3721484], [4.9389893, 52.37215], [4.9388475, 52.3721529], [4.9386669, 52.372168], [4.9384551, 52.3722003], [4.9382128, 52.3722529], [4.937562, 52.3723821], [4.9364069, 52.3726002]]}, "properties": {"hazmat:D": "no", "highway": "trunk", "lanes": "2", "layer": "-1", "lit": "yes", "maxheight": "4.0", "maxspeed": "70", "motorroad": "yes", "name": "Piet Heintunnel", "note": "maxspeed variable and often set to 70", "oneway": "yes", "ref": "S114", "surface": "asphalt", "tunnel": "yes", "length": 1500.4628376275525}}, {"type": "Feature", "geometry": {"type": "LineString", "coordinates": [[4.9362888, 52.3724149], [4.9369615, 52.372304], [4.9381782, 52.3721273], [4.9384047, 52.3720943], [4.9386321, 52.3720682], [4.9388411, 52.3720541], [4.9389851, 52.3720512], [4.9391292, 52.3720496], [4.9392734, 52.372049], [4.9394174, 52.3720496], [4.9395615, 52.3720514], [4.9397056, 52.3720543], [4.9398495, 52.3720585], [4.9399934, 52.3720638], [4.9401372, 52.3720702], [4.9402807, 52.3720779], [4.9404242, 52.3720867], [4.9405674, 52.3720966], [4.9407103, 52.3721076], [4.9408362, 52.3721184], [4.9409622, 52.3721299], [4.941088, 52.3721421], [4.9412138, 52.3721549], [4.9414658, 52.3721819], [4.9428052, 52.3723304], [4.9428482, 52.3723352], [4.9511705, 52.3732583], [4.9515019, 52.3732948], [4.9516677, 52.3733125], [4.9518338, 52.3733297], [4.9520003, 52.3733462], [4.9521674, 52.3733617], [4.9523349, 52.373376], [4.9524941, 52.3733884], [4.9525029, 52.3733891], [4.9526467, 52.373399], [4.9527907, 52.3734078], [4.9529349, 52.3734153], [4.9530791, 52.3734218], [4.9532235, 52.3734272], [4.9533681, 52.3734314], [4.9535127, 52.3734344], [4.9536574, 52.3734364], [4.953802, 52.3734372], [4.9539468, 52.3734368], [4.9540914, 52.3734352], [4.954236, 52.3734325], [4.9543806, 52.3734288], [4.9545251, 52.3734238], [4.9546694, 52.3734177], [4.9548136, 52.3734105], [4.9549577, 52.3734021], [4.9551016, 52.3733925], [4.9552451, 52.3733819], [4.9553886, 52.3733701], [4.9555317, 52.3733571], [4.9556746, 52.3733431], [4.9558171, 52.3733279], [4.9559594, 52.3733115], [4.9561012, 52.3732941], [4.9562427, 52.3732756], [4.9563837, 52.3732558], [4.956454, 52.3732454], [4.9565244, 52.373235], [4.9566646, 52.3732131], [4.9568043, 52.3731901], [4.9569434, 52.373166], [4.9570994, 52.3731377], [4.9572548, 52.3731083], [4.9579921, 52.372954]]}, "properties": {"hazmat:D": "no", "highway": "trunk", "lanes": "2", "layer": "-1", "lit": "yes", "maxheight": "4.0", "maxspeed": "70", "motorroad": "yes", "name": "Piet Heintunnel", "oneway": "yes", "ref": "S114", "surface": "asphalt", "tunnel": "yes", "length": 1502.6079936530314}}, {"type": "Feature", "geometry": {"type": "LineString", "coordinates": [[4.7859482, 52.3275238], [4.7848861, 52.3282368]]}, "properties": {"bicycle": "no", "highway": "secondary", "lanes": "2", "layer": "-1", "maxspeed": "80", "moped": "no", "name": "Schipholweg", "operator": "Provincie Noord-Holland", "ref": "N232", "surface": "asphalt", "tunnel": "yes", "length": 107.41304484048729}}, {"type": "Feature", "geometry": {"type": "LineString", "coordinates": [[4.91381, 52.35152], [4.9148682, 52.3509217]]}, "properties": {"bicycle": "use_sidepath", "highway": "primary", "layer": "-1", "maxspeed": "50", "mofa": "use_sidepath", "name": "Wibautstraat", "oneway": "yes", "ref": "S112", "smoothness": "good", "surface": "asphalt", "tunnel": "yes", "length": 98.13962689611905}}, {"type": "Feature", "geometry": {"type": "LineString", "coordinates": [[4.9148572, 52.35105], [4.9138893, 52.3516193]]}, "properties": {"bicycle": "use_sidepath", "highway": "primary", "layer": "-1", "maxspeed": "50", "mofa": "use_sidepath", "name": "Wibautstraat", "oneway": "yes", "ref": "S112", "surface": "asphalt", "tunnel": "yes", "length": 91.44751115604993}}, {"type": "Feature", "geometry": {"type": "LineString", "coordinates": [[4.9235671, 52.3485368], [4.9238219, 52.3488104]]}, "properties": {"bicycle": "no", "highway": "tertiary", "layer": "-1", "maxspeed": "50", "name": "Kamerlingh Onneslaan", "oneway": "yes", "tunnel": "yes", "length": 35.04769021530521}}, {"type": "Feature", "geometry": {"type": "LineString", "coordinates": [[4.8988015, 52.3803481], [4.9026854, 52.3789243]]}, "properties": {"agricultural": "no", "bicycle": "no", "foot": "no", "hazmat:D": "no", "highway": "primary", "horse": "no", "layer": "-1", "level": "-1", "lit": "yes", "maxheight": "4.5", "maxspeed": "50", "mofa": "no", "moped": "no", "name": "Michiel de Ruijtertunnel", "oneway": "yes", "ref": "S100", "surface": "asphalt", "tunnel": "yes", "length": 308.2995607487862}}, {"type": "Feature", "geometry": {"type": "LineString", "coordinates": [[4.9028052, 52.3790636], [4.8989196, 52.3804809]]}, "properties": {"agricultural": "no", "bicycle": "no", "foot": "no", "hazmat:D": "no", "highway": "primary", "horse": "no", "layer": "-1", "level": "-1", "lit": "yes", "maxheight": "4.5", "maxspeed": "50", "mofa": "no", "moped": "no", "name": "Michiel de Ruijtertunnel", "oneway": "yes", "ref": "S100", "surface": "asphalt", "tunnel": "yes", "length": 308.02723169157497}}, {"type": "Feature", "geometry": {"type": "LineString", "coordinates": [[4.8751734, 52.3930207], [4.8755661, 52.3930168], [4.8758054, 52.3930047], [4.8759682, 52.392988], [4.8761984, 52.392959], [4.8763948, 52.3929199], [4.8766439, 52.3928595], [4.8768765, 52.3927934], [4.8770826, 52.3927308], [4.8772986, 52.3926555], [4.8775293, 52.3925535], [4.8777361, 52.3924601], [4.8778975, 52.3923736], [4.8779474, 52.3923469], [4.8782039, 52.3922042], [4.8784433, 52.3920866], [4.8786635, 52.3919865], [4.8788877, 52.3918965], [4.879131, 52.3918086], [4.8793779, 52.3917317], [4.8796321, 52.3916599], [4.879866, 52.3916094], [4.8800696, 52.3915672], [4.8803094, 52.3915359], [4.8814253, 52.3913555]]}, "properties": {"access:lanes": "yes|no", "highway": "trunk", "lanes": "2", "layer": "-1", "location": "underground", "maxspeed": "50", "motorroad": "yes", "name": "Spaarndammertunnel", "oneway": "yes", "ref": "S102", "surface": "asphalt", "tunnel": "yes", "zone:traffic": "NL:urban", "length": 474.0418450550642}}, {"type": "Feature", "geometry": {"type": "LineString", "coordinates": [[4.9554603, 52.3021404], [4.9561389, 52.3024121], [4.9569342, 52.3027041], [4.9576342, 52.3029747], [4.9582994, 52.3032765], [4.9590531, 52.3036537], [4.9596813, 52.3039447], [4.9606935, 52.3043803], [4.9618319, 52.3048346], [4.962776, 52.3051724], [4.9643503, 52.3057166], [4.9651831, 52.3060022]]}, "properties": {"carriageway_ref": "y", "highway": "motorway_link", "junction:ref": "2", "lanes": "1", "layer": "-1", "maxspeed": "80", "name": "Gaasperdammerweg", "oneway": "yes", "operator": "Rijkswaterstaat", "ref": "A9", "surface": "asphalt", "tunnel": "yes", "tunnel:name": "Gaasperdammertunnel", "length": 791.4538476921624}}, {"type": "Feature", "geometry": {"type": "LineString", "coordinates": [[4.9874255, 52.3139858], [4.9865366, 52.3137382], [4.9858999, 52.3135464], [4.9850265, 52.3132686], [4.983856, 52.3128758], [4.982693, 52.3124836], [4.9803775, 52.311725], [4.9780791, 52.3109604], [4.9770607, 52.3106247], [4.976694, 52.3105039], [4.9756573, 52.3101833], [4.9743593, 52.3097462], [4.9670959, 52.3072367], [4.9660376, 52.3068747], [4.9653456, 52.3066009], [4.96497, 52.3064615], [4.9648164, 52.3064085], [4.9623415, 52.3055545], [4.9614134, 52.3052003], [4.9602788, 52.3047338], [4.9592709, 52.3043107], [4.9578106, 52.3036985], [4.9562545, 52.3031049], [4.9549794, 52.3026616]]}, "properties": {"carriageway_ref": "x", "highway": "motorway_link", "junction:ref": "3", "lanes": "2", "layer": "-1", "lit": "24/7", "maxspeed": "80", "name": "Gaasperdammerweg", "oneway": "yes", "operator": "Rijkswaterstaat", "ref": "A9", "surface": "asphalt", "tunnel": "yes", "tunnel:name": "Gaasperdammertunnel", "width": "5", "length": 2548.469685102232}}, {"type": "Feature", "geometry": {"type": "LineString", "coordinates": [[4.9896285, 52.3144809], [4.9885415, 52.3141489], [4.9875399, 52.3138577], [4.9866965, 52.3136322], [4.9851487, 52.3131217], [4.982818, 52.3123414], [4.978464, 52.310905], [4.9770403, 52.3104277], [4.9745196, 52.3095637], [4.9672418, 52.3070791], [4.9640901, 52.3059918], [4.9619982, 52.3052462], [4.9610969, 52.3049002], [4.959422, 52.304176], [4.957978, 52.3035426], [4.957248, 52.3032355], [4.9564205, 52.3029164], [4.9551592, 52.3024681]]}, "properties": {"carriageway_ref": "Re", "highway": "motorway", "lanes": "2", "layer": "-1", "lit": "24/7", "maxspeed": "100", "name": "Gaasperdammerweg", "oneway": "yes", "operator": "Rijkswaterstaat", "ref": "A9", "surface": "asphalt", "tunnel": "yes", "tunnel:name": "Gaasperdammertunnel", "length": 2706.9532702311258}}, {"type": "Feature", "geometry": {"type": "LineString", "coordinates": [[4.9555028, 52.3020955], [4.9567518, 52.3025597], [4.9575967, 52.3028845], [4.9583423, 52.3032158], [4.9591443, 52.3036127], [4.9597326, 52.3038989], [4.9607325, 52.3043471], [4.9616683, 52.3047115], [4.9627438, 52.3051117], [4.9640796, 52.3055759], [4.9649218, 52.3058661], [4.9652212, 52.3059628], [4.9655132, 52.3060572], [4.9662213, 52.3062802], [4.9675721, 52.3067224], [4.9715629, 52.308108], [4.973301, 52.3086984], [4.9748193, 52.3092225], [4.9760261, 52.3096462], [4.9771619, 52.3100624], [4.9779266, 52.3103502]]}, "properties": {"carriageway_ref": "y", "highway": "motorway_link", "lanes": "2", "layer": "-1", "lit": "24/7", "maxspeed": "80", "name": "Gaasperdammerweg", "oneway": "yes", "operator": "Rijkswaterstaat", "ref": "A9", "surface": "asphalt", "tunnel": "yes", "tunnel:name": "Gaasperdammertunnel", "length": 1786.459976166737}}, {"type": "Feature", "geometry": {"type": "LineString", "coordinates": [[4.9874586, 52.3139427], [4.9865404, 52.3136851], [4.9859637, 52.3135064], [4.9850639, 52.3132192], [4.983024, 52.312534], [4.9799046, 52.3115058], [4.9781021, 52.3109024], [4.9771095, 52.3105688]]}, "properties": {"carriageway_ref": "x", "highway": "motorway_link", "junction:ref": "2", "lanes": "1", "layer": "-1", "maxspeed": "80", "name": "Gaasperdammerweg", "oneway": "yes", "operator": "Rijkswaterstaat", "ref": "A9", "surface": "asphalt", "tunnel": "yes", "tunnel:name": "Gaasperdammertunnel", "length": 799.5990242735787}}, {"type": "Feature", "geometry": {"type": "LineString", "coordinates": [[4.9779266, 52.3103502], [4.9787163, 52.3106284], [4.983048, 52.3120823], [4.9853943, 52.3128394], [4.9869218, 52.3133337], [4.9878483, 52.3135966], [4.9887842, 52.3138576]]}, "properties": {"carriageway_ref": "y", "highway": "motorway_link", "lanes": "3", "layer": "-1", "lit": "24/7", "maxspeed": "80", "name": "Gaasperdammerweg", "oneway": "yes", "operator": "Rijkswaterstaat", "ref": "A9", "surface": "asphalt", "tunnel": "yes", "tunnel:name": "Gaasperdammertunnel", "length": 837.3311278279972}}, {"type": "Feature", "geometry": {"type": "LineString", "coordinates": [[4.9648584, 52.3063627], [4.9645731, 52.306263], [4.9618426, 52.3053151], [4.9603221, 52.3046969], [4.9593085, 52.3042772], [4.9578461, 52.3036603], [4.9562354, 52.3030509], [4.9550201, 52.3026211]]}, "properties": {"carriageway_ref": "x", "highway": "motorway_link", "lanes": "1", "layer": "-1", "maxspeed": "80", "name": "Gaasperdammerweg", "oneway": "yes", "operator": "Rijkswaterstaat", "ref": "A9", "surface": "asphalt", "tunnel": "yes", "tunnel:name": "Gaasperdammertunnel", "length": 790.2314376156488}}, {"type": "Feature", "geometry": {"type": "LineString", "coordinates": [[4.9553092, 52.3023031], [4.9560249, 52.3025343], [4.9565881, 52.3027319], [4.9574867, 52.3030813], [4.9581975, 52.3033929], [4.9595864, 52.3040293], [4.9606004, 52.3044597], [4.9618909, 52.304969], [4.9642635, 52.3058083], [4.9674169, 52.30689], [4.9746743, 52.3093876], [4.9771963, 52.3102668], [4.9786145, 52.31074], [4.9829541, 52.3121882], [4.9852974, 52.3129508], [4.9868446, 52.3134441], [4.9876919, 52.3136831], [4.9882945, 52.3138491], [4.9888766, 52.3140212], [4.9902204, 52.3144574], [4.9912101, 52.3147903], [4.9919638, 52.3150625], [4.9926478, 52.3153264], [4.993543, 52.3157192]]}, "properties": {"carriageway_ref": "Li", "highway": "motorway", "lanes": "2", "layer": "-1", "lit": "24/7", "maxspeed": "100", "name": "Gaasperdammerweg", "oneway": "yes", "operator": "Rijkswaterstaat", "ref": "A9", "surface": "asphalt", "tunnel": "yes", "tunnel:name": "Gaasperdammertunnel", "length": 3007.917120330426}}, {"type": "Feature", "geometry": {"type": "LineString", "coordinates": [[4.7965894, 52.3271695], [4.7965941, 52.3271592], [4.7967166, 52.3269053], [4.7968581, 52.3266701], [4.7970298, 52.3264338], [4.7972218, 52.3262188]]}, "properties": {"carriageway_ref": "j", "destination:ref": "A9", "highway": "motorway_link", "lanes": "2", "layer": "-1", "lit": "yes", "maxspeed": "70", "oneway": "yes", "operator": "Rijkswaterstaat", "ref": "A4", "surface": "asphalt", "tunnel": "yes", "length": 114.59670817841305}}, {"type": "Feature", "geometry": {"type": "LineString", "coordinates": [[4.8419157, 52.3381784], [4.8419661, 52.3381342], [4.8420182, 52.3380907], [4.842072, 52.3380479], [4.8421273, 52.338006], [4.8421843, 52.3379648], [4.8422428, 52.3379245], [4.8423029, 52.337885], [4.8423644, 52.3378463], [4.8424274, 52.3378086], [4.8424919, 52.3377718], [4.8425577, 52.3377359], [4.8426249, 52.3377009], [4.8426934, 52.3376669], [4.8427631, 52.337634], [4.8428342, 52.337602], [4.8429064, 52.337571], [4.8429798, 52.3375411], [4.8430543, 52.3375122], [4.8431299, 52.3374844], [4.8432065, 52.3374577], [4.8432842, 52.3374321], [4.8433628, 52.3374076], [4.8434423, 52.3373843], [4.8435227, 52.3373621]]}, "properties": {"carriageway_ref": "Li", "highway": "motorway", "lanes": "2", "layer": "-1", "lit": "yes", "maxspeed": "80", "name": "Ringweg-West", "old_name:-2016-12-13": "Einsteinweg", "oneway": "yes", "operator": "Rijkswaterstaat", "ref": "A10", "source": "mapservices.prorail.nl", "source:date": "23-1-2017", "source:name": "https://zoek.officielebekendmakingen.nl/gmb-2016-183326.html", "surface": "asphalt", "tunnel": "yes", "length": 144.17539683721702}}, {"type": "Feature", "geometry": {"type": "LineString", "coordinates": [[4.7773319, 52.3275937], [4.7767388, 52.3273105], [4.7762259, 52.3269836]]}, "properties": {"carriageway_ref": "m", "highway": "motorway_link", "lanes": "2", "layer": "-1", "lit": "yes", "maxspeed": "100", "maxspeed:advisory": "80", "oneway": "yes", "operator": "Rijkswaterstaat", "ref": "A4", "surface": "asphalt", "tunnel": "yes", "length": 101.72132520673652}}, {"type": "Feature", "geometry": {"type": "LineString", "coordinates": [[4.8813931, 52.3914627], [4.8803905, 52.391603], [4.8801534, 52.3916356], [4.8799471, 52.39167], [4.8797373, 52.3917156], [4.8794939, 52.3917809], [4.8792362, 52.3918594], [4.8790037, 52.3919457], [4.8787848, 52.3920324], [4.8785646, 52.3921309], [4.878344, 52.3922403], [4.8780894, 52.3923804], [4.8778601, 52.3925044], [4.877664, 52.3925945], [4.8773877, 52.392708], [4.8771959, 52.3927743], [4.8769933, 52.3928465], [4.8767734, 52.3929176], [4.8765062, 52.3929761], [4.8762756, 52.3930272], [4.8760558, 52.3930595], [4.8758416, 52.393079], [4.8756243, 52.3930978], [4.8751505, 52.3931131]]}, "properties": {"access:lanes": "yes|no", "highway": "trunk", "lanes": "2", "layer": "-1", "location": "underground", "maxspeed": "50", "motorroad": "yes", "name": "Spaarndammertunnel", "oneway": "yes", "ref": "S102", "surface": "asphalt", "tunnel": "yes", "zone:traffic": "NL:urban", "length": 472.90465100453855}}, {"type": "Feature", "geometry": {"type": "LineString", "coordinates": [[4.9400193, 52.3566048], [4.9404472, 52.356987]]}, "properties": {"bicycle": "use_sidepath", "highway": "tertiary", "layer": "-1", "maxspeed": "50", "name": "Molukkenstraat", "noref": "yes", "tunnel": "yes", "length": 51.56178100805538}}, {"type": "Feature", "geometry": {"type": "LineString", "coordinates": [[4.9501721, 52.3536818], [4.949247, 52.3531263]]}, "properties": {"bicycle": "no", "highway": "tertiary", "lanes": "1", "layer": "-1", "maxheight": "3.3", "maxspeed": "50", "name": "Kruislaan", "oneway": "yes", "surface": "asphalt", "tunnel": "yes", "length": 88.28313364655983}}, {"type": "Feature", "geometry": {"type": "LineString", "coordinates": [[4.9492078, 52.3531027], [4.9488449, 52.3528847]]}, "properties": {"bicycle": "no", "highway": "tertiary", "lanes": "1", "layer": "-1", "maxheight": "3.3", "maxspeed": "50", "name": "Kruislaan", "oneway": "yes", "shoulder": "no", "surface": "asphalt", "tunnel": "yes", "length": 34.638848780388564}}, {"type": "Feature", "geometry": {"type": "LineString", "coordinates": [[4.9493067, 52.3531084], [4.9502062, 52.353648]]}, "properties": {"bicycle": "no", "highway": "tertiary", "lanes": "1", "layer": "-1", "maxheight": "3.3", "maxspeed": "50", "name": "Kruislaan", "oneway": "yes", "surface": "asphalt", "tunnel": "yes", "length": 85.79901512708722}}, {"type": "Feature", "geometry": {"type": "LineString", "coordinates": [[4.9488983, 52.3528617], [4.9492693, 52.3530842]]}, "properties": {"bicycle": "use_sidepath", "highway": "tertiary", "lanes": "1", "layer": "-1", "maxheight": "3.3", "maxspeed": "50", "name": "Kruislaan", "oneway": "yes", "shoulder": "no", "surface": "asphalt", "tunnel": "yes", "width": "2.75", "length": 35.38350960154445}}, {"type": "Feature", "geometry": {"type": "LineString", "coordinates": [[4.9747578, 52.3092925], [4.9779266, 52.3103502]]}, "properties": {"carriageway_ref": "d", "highway": "motorway_link", "lanes": "1", "layer": "-1", "lit": "yes", "maxspeed": "80", "name": "Gaasperdammerweg", "oneway": "yes", "operator": "Rijkswaterstaat", "ref": "A9", "surface": "asphalt", "tunnel": "yes", "tunnel:name": "Gaasperdammertunnel", "length": 246.08986608428944}}, {"type": "Feature", "geometry": {"type": "LineString", "coordinates": [[4.9651831, 52.3060022], [4.9681736, 52.307056]]}, "properties": {"carriageway_ref": "c", "highway": "motorway_link", "junction:ref": "2", "lanes": "1", "layer": "-1", "lit": "24/7", "maxspeed": "80", "name": "Gaasperdammerweg", "oneway": "yes", "operator": "Rijkswaterstaat", "ref": "A9", "surface": "asphalt", "tunnel": "yes", "tunnel:name": "Gaasperdammertunnel", "length": 235.2785130694233}}, {"type": "Feature", "geometry": {"type": "LineString", "coordinates": [[4.967879, 52.3074183], [4.9648584, 52.3063627]]}, "properties": {"carriageway_ref": "b", "highway": "motorway_link", "lanes": "1", "layer": "-1", "maxspeed": "80", "name": "Gaasperdammerweg", "oneway": "yes", "operator": "Rijkswaterstaat", "ref": "A9", "surface": "asphalt", "tunnel": "yes", "tunnel:name": "Gaasperdammertunnel", "length": 237.1583132855994}}, {"type": "Feature", "geometry": {"type": "LineString", "coordinates": [[4.9771095, 52.3105688], [4.9744283, 52.3096676]]}, "properties": {"carriageway_ref": "a", "highway": "motorway_link", "junction:ref": "2", "lanes": "1", "layer": "-1", "lit": "yes", "maxspeed": "80", "name": "Gaasperdammerweg", "oneway": "yes", "operator": "Rijkswaterstaat", "ref": "A9", "surface": "asphalt", "tunnel": "yes", "tunnel:name": "Gaasperdammertunnel", "length": 208.55535641780256}}]}